{"type": "FeatureCollection", "features": [{"type": "Feature", "geometry": {"type": "MultiPolygon", "coordinates": [[[[-107.8888254412111, 38.85282238462526], [-107.89034810538061, 38.85204979973174], [-107.89186404566023, 38.851702089648185], [-107.8930129989935, 38.851640278666245], [-107.89429798331186, 38.8517114465701], [-107.89485194919475, 38.85174467045352], [-107.89599744760739, 38.85203388569401], [-107.89748406597779, 38.85235988210213], [-107.8989291031304, 38.85255537779156], [-107.89975005280728, 38.85240778139049], [-107.90024836626168, 38.85210991807646], [-107.9007777542384, 38.85189296711202], [-107.90117248475403, 38.85178332657733], [-107.90187331260945, 38.851700287522476], [-107.90215280993536, 38.85171767075876], [-107.90239186959877, 38.85173253689241], [-107.90263774657689, 38.851785270016684], [-107.90276379278764, 38.85160379817069], [-107.90318516823294, 38.850607767638444], [-107.90347189969181, 38.8497190373649], [-107.90400009021428, 38.84843937944293], [-107.90460808886321, 38.847226515710354], [-107.90524606429311, 38.84641178070823], [-107.90579319758993, 38.84578407309961], [-107.90609567022761, 38.845348545127074], [-107.9064513536728, 38.844775816537485], [-107.90653298178601, 38.84452848524482], [-107.90672440019664, 38.84420090390688], [-107.9071788884416, 38.843529142792164], [-107.90754776185008, 38.84319702371317], [-107.90773519084253, 38.84296173103438], [-107.90796303414132, 38.842884601587464], [-107.90834349581692, 38.84283000494042], [-107.90868608272362, 38.84283168274967], [-107.908973735854, 38.84273765820452], [-107.90934558987261, 38.84260890040578], [-107.9097076540512, 38.842433674231266], [-107.91015091335514, 38.84202034963161], [-107.91105063899424, 38.84143428486408], [-107.91135967202842, 38.841119041556794], [-107.91151086657554, 38.84090127622002], [-107.91158847382958, 38.840746241016554], [-107.91140644101706, 38.84058432819998], [-107.91128248518594, 38.84040962530872], [-107.9112059882496, 38.840301802375926], [-107.91137663132263, 38.84021494987011], [-107.91158050846795, 38.84011119817913], [-107.91238710306664, 38.83953423971128], [-107.91272660785353, 38.8392913851036], [-107.91335426703075, 38.838984574980714], [-107.91381110886176, 38.83880259957644], [-107.91600216362012, 38.838001339836666], [-107.91635611780833, 38.83787189124157], [-107.9185572301046, 38.83696900731409], [-107.91981433880143, 38.83599951375615], [-107.92116872516202, 38.83504196636523], [-107.92176884738255, 38.83454956332536], [-107.92248566075845, 38.834365174327054], [-107.92302240773395, 38.83399351329739], [-107.92370433952736, 38.833500951155656], [-107.924570029797, 38.832876934988946], [-107.92467142264313, 38.832132801201496], [-107.92475880895734, 38.83140467835921], [-107.92483746903687, 38.83117727315207], [-107.92500413436989, 38.830695343718745], [-107.925148228633, 38.830385063355536], [-107.92574568734872, 38.82968275014044], [-107.92589575540848, 38.82950634796262], [-107.92599813640145, 38.82929722185366], [-107.92604087734433, 38.82895505501149], [-107.92610594501532, 38.82874494475146], [-107.9262643009319, 38.82853729720521], [-107.92645187455311, 38.828301195358925], [-107.9266721360709, 38.82795640151709], [-107.92672568464499, 38.827797119610906], [-107.9268977479545, 38.82748757752319], [-107.92721988830694, 38.82737919195104], [-107.92772942082094, 38.827472944262915], [-107.92813636303451, 38.82756400634191], [-107.92855294327285, 38.82764800852569], [-107.92872302849207, 38.82760135364361], [-107.92893975334256, 38.82755593251437], [-107.92921432251086, 38.82746820367378], [-107.92963686127445, 38.82741358120299], [-107.92989151569117, 38.82735454071168], [-107.93024163407317, 38.827246885552725], [-107.93045091727984, 38.82715743266404], [-107.93073973462683, 38.827172335421444], [-107.93120734366482, 38.82715541367075], [-107.93176696983234, 38.82717012397707], [-107.93207318844469, 38.82721469366697], [-107.93248805200247, 38.82690421477804], [-107.93344256768736, 38.82619130603046], [-107.93508138402314, 38.82528091438358], [-107.93615263937248, 38.825039421328434], [-107.93769166455827, 38.82467747029714], [-107.93839214566401, 38.82446203484517], [-107.93855502459807, 38.824320051068696], [-107.9388036252681, 38.824103377192635], [-107.93988224410788, 38.82346424703963], [-107.94159039421388, 38.82271051414952], [-107.94254492337355, 38.82240658810738], [-107.94436051468246, 38.82187834449509], [-107.94492376016227, 38.82171446689079], [-107.94537362567677, 38.82145451219473], [-107.94545195427796, 38.82124016510665], [-107.9455185670512, 38.82105785948257], [-107.94550644787968, 38.82070000145174], [-107.94538720820384, 38.820282135715516], [-107.94528377618204, 38.81992188644304], [-107.94519651832691, 38.81939759843382], [-107.945448566731, 38.81906094824983], [-107.94553382852958, 38.81877714574866], [-107.94546020889709, 38.81857499281046], [-107.94535827796014, 38.818393563650204], [-107.94526002113268, 38.81812641152355], [-107.94519705731611, 38.81788879063246], [-107.94529720869046, 38.81768403777879], [-107.94523764320061, 38.817367122856], [-107.94515186846401, 38.81702164683182], [-107.94507798472686, 38.81661211105238], [-107.9450835111625, 38.816269013231945], [-107.94512644524315, 38.816119975994496], [-107.9451058351956, 38.815533067315435], [-107.94512116494596, 38.81539121972154], [-107.94515125221976, 38.815112358890744], [-107.94524832057606, 38.815015289369164], [-107.94540906601132, 38.81485452752614], [-107.94555931732747, 38.81454668114175], [-107.94562271143708, 38.813606300729155], [-107.94542720389524, 38.8127197668225], [-107.94530723568566, 38.812105231623306], [-107.94519292057416, 38.81135856099499], [-107.94504120410588, 38.81041783119631], [-107.9448797301369, 38.80970567508387], [-107.94470423256804, 38.80910755692373], [-107.94469306650909, 38.808513754188425], [-107.9447709163082, 38.80814797480088], [-107.9447959873895, 38.80803018802723], [-107.94444158314525, 38.80776919846041], [-107.94410976793718, 38.8075700894519], [-107.94360939823912, 38.80735412693267], [-107.94326132262609, 38.80715909018566], [-107.94306842918176, 38.806968113036824], [-107.94309462944535, 38.80678288537796], [-107.94335271812139, 38.80651790668719], [-107.94388354699583, 38.806159413472535], [-107.94472253664028, 38.80553152657896], [-107.94510774950545, 38.80522665147404], [-107.94529612981383, 38.80479592405007], [-107.94540147614546, 38.80455501187089], [-107.94559475945869, 38.804095266080004], [-107.94606772245572, 38.80329244170382], [-107.94643809784739, 38.80275151467151], [-107.94666360103487, 38.802392721078604], [-107.94681939136304, 38.80238250008947], [-107.94714892125697, 38.80236965944479], [-107.94750340275631, 38.80241468569926], [-107.94816506137039, 38.80246118416625], [-107.94850568006824, 38.80248379912788], [-107.9486745597484, 38.80238094663905], [-107.94885835775048, 38.80214262705508], [-107.94911398953424, 38.8017202573771], [-107.94927560633532, 38.80114526932914], [-107.9494411164349, 38.80057630787877], [-107.94944242258526, 38.80023431737029], [-107.94962773155369, 38.799960273343004], [-107.94966488946707, 38.79951789809245], [-107.9496999084918, 38.79912551423978], [-107.94980457030722, 38.79902814009295], [-107.95011189025415, 38.798893149338255], [-107.95105580671702, 38.79850427097656], [-107.95162469271851, 38.79834629470566], [-107.95209843186, 38.79816559394284], [-107.9523835346733, 38.79790845526191], [-107.95288055275708, 38.79718131268543], [-107.95310418475378, 38.796865364430055], [-107.95302660624583, 38.796541549568275], [-107.95289367265175, 38.79601606937675], [-107.95280524339347, 38.79549409649036], [-107.95279145335557, 38.795412732300676], [-107.95284288639715, 38.79506367990897], [-107.95342960126203, 38.79416083354758], [-107.95384915402568, 38.79374987456018], [-107.95407490963966, 38.793383924159144], [-107.95416131499358, 38.79285701266271], [-107.95416861200864, 38.79247105956296], [-107.95404447920941, 38.792167485505054], [-107.95386438046968, 38.791891058584454], [-107.95343754865736, 38.791400808463294], [-107.95326554194175, 38.791016037784004], [-107.9531244282887, 38.790843875350596], [-107.95302531177349, 38.79055661495287], [-107.95300826624096, 38.79042844196086], [-107.9529803376188, 38.790218488310046], [-107.95283624335565, 38.790115961211576], [-107.95263024618627, 38.79005202628927], [-107.95244795645553, 38.78999544610029], [-107.95200776938994, 38.78987357521598], [-107.95156658429602, 38.789774909178526], [-107.95048923747069, 38.78945049564598], [-107.94992795121658, 38.78920925150997], [-107.94927096294363, 38.788904821220264], [-107.94856276081808, 38.78858597524627], [-107.9478901903682, 38.78807498883479], [-107.94743177199383, 38.787684007528014], [-107.94691952566944, 38.78727016902213], [-107.94657427256297, 38.78701086026805], [-107.94619251372008, 38.78675059896981], [-107.94588466915704, 38.786685339710296], [-107.94529909425427, 38.786491244911986], [-107.94499884225199, 38.786461935634115], [-107.94461553830682, 38.7864519098235], [-107.9443590917511, 38.78646664604208], [-107.9441537665215, 38.7863540127994], [-107.94371178282532, 38.78622087604794], [-107.94336834880734, 38.78613321813282], [-107.9431423281903, 38.78607725663599], [-107.94253515868635, 38.78596124207212], [-107.94236359124687, 38.7859138449487], [-107.94239982838717, 38.785707416972684], [-107.94256443118825, 38.78549005775114], [-107.9425781403778, 38.78538315298712], [-107.94251429531396, 38.78516695727106], [-107.94241331209959, 38.78496408574674], [-107.94218644257455, 38.78471501663792], [-107.94187379022816, 38.78433498134322], [-107.94068483132206, 38.78351009137312], [-107.94056108210347, 38.7834103605456], [-107.93973104866238, 38.78274140601221], [-107.93965719906117, 38.7823318741567], [-107.93956842844314, 38.78205782502087], [-107.93931849646987, 38.78149350596951], [-107.93890091371173, 38.781217968327056], [-107.93822782134066, 38.780935742661114], [-107.93759790739207, 38.78071184858055], [-107.93681177372069, 38.780368496646346], [-107.93651557222204, 38.77994446150123], [-107.93604106771589, 38.77948622504932], [-107.93578873454588, 38.77931572038181], [-107.93556151827116, 38.779145863080444], [-107.93527353815401, 38.77883018853739], [-107.93495238505004, 38.77850708589146], [-107.93464706295633, 38.778400740704996], [-107.93410198949641, 38.77831590520615], [-107.93369816623351, 38.77826437470462], [-107.93358272912624, 38.778222012560995], [-107.93357428765748, 38.77794935594966], [-107.93355813145713, 38.7774281338694], [-107.93349836564295, 38.777130035955366], [-107.93316153963221, 38.77671626645307], [-107.9330865833066, 38.77651107593097], [-107.93302976306822, 38.7762735788686], [-107.93289182136645, 38.775974950883466], [-107.93285926911554, 38.77575775458535], [-107.93290754368056, 38.77560825373144], [-107.93305986022351, 38.775376251277386], [-107.93323530389345, 38.77519074331612], [-107.93331929457592, 38.774989730816934], [-107.93345881012604, 38.7746656078852], [-107.93352409429102, 38.774509992861574], [-107.93357581120021, 38.77444475531545], [-107.93338117592256, 38.77430213888858], [-107.9331138534637, 38.774098669874114], [-107.93272373579704, 38.77383305070654], [-107.93156381942407, 38.77308556095087], [-107.93125269062034, 38.7727336181159], [-107.93103940092755, 38.77214851269765], [-107.93076629780981, 38.771787731494754], [-107.93048589498207, 38.771036747843205], [-107.93065676083735, 38.77090755643237], [-107.93114135791564, 38.7705777138567], [-107.93151445340597, 38.770296307555206], [-107.93189334033494, 38.77013497276457], [-107.93226710956174, 38.77009340002901], [-107.93287146374549, 38.77003219336466], [-107.9335832510474, 38.77001662869554], [-107.93399707705103, 38.77006175733172], [-107.93443053124359, 38.77015878653443], [-107.93473431631983, 38.77021815318228], [-107.93501553032628, 38.770294049520594], [-107.93520020957564, 38.77032458901219], [-107.93552989397989, 38.770290417334564], [-107.93577215074738, 38.770253948383115], [-107.93622571013434, 38.77013738208723], [-107.9370820561284, 38.77000924102709], [-107.93872796376499, 38.769968974438406], [-107.94012144121353, 38.769779069386075], [-107.94118132119641, 38.769533437986816], [-107.94247613398232, 38.76952567415864], [-107.94377094586994, 38.76951790542691], [-107.94469285360833, 38.769517879512435], [-107.94563285970483, 38.76930111320436], [-107.94617794663941, 38.76910527893474], [-107.94690914114472, 38.768649399724566], [-107.94716389437613, 38.76835392034499], [-107.9473019411808, 38.76819381527277], [-107.94770834979512, 38.76769291079653], [-107.94813763490649, 38.76747576422379], [-107.94845930094846, 38.76759378821822], [-107.94875804557766, 38.76770206583531], [-107.94923860652541, 38.76792472671803], [-107.95013744822229, 38.76845586728494], [-107.95046776773543, 38.76865105546808], [-107.95112431763046, 38.76912492009846], [-107.9517121077788, 38.769569591430596], [-107.95207962473121, 38.769981090417154], [-107.95220776221997, 38.77014141910333], [-107.95285508372208, 38.77095132367351], [-107.9536356128045, 38.77180292458237], [-107.95441343077135, 38.77244436436085], [-107.95524019254813, 38.77275823082784], [-107.95563059587904, 38.77286947782699], [-107.9564046130739, 38.77309002991938], [-107.9570298360201, 38.77293723319664], [-107.95733509702833, 38.77321944009028], [-107.95805772699575, 38.77368502075467], [-107.95951396524158, 38.774365602596454], [-107.96160911226694, 38.775547216376815], [-107.96214084304991, 38.7760342972837], [-107.96216903757342, 38.77620043836815], [-107.96217938706381, 38.77645046094317], [-107.96186767615181, 38.777159162084736], [-107.96183474930335, 38.77739359652957], [-107.96186279380822, 38.7777622642778], [-107.96233759386006, 38.77822172893737], [-107.96263204993208, 38.77853032471943], [-107.96296347976295, 38.7790032427482], [-107.96305041691951, 38.77954921985062], [-107.96307622192433, 38.77971122523509], [-107.96289826297163, 38.78054383634705], [-107.96285689914603, 38.78073730237735], [-107.96269592733532, 38.78131900473181], [-107.96244113098477, 38.78241257682218], [-107.9625552799079, 38.782951855757965], [-107.96395250872104, 38.78518947548592], [-107.96514928925829, 38.78676995378547], [-107.96554533580584, 38.78712586341001], [-107.9658870387702, 38.78725512137343], [-107.96606592388605, 38.78734557877121], [-107.9663245407715, 38.78749531549917], [-107.96684024381314, 38.78783050226963], [-107.96705412819074, 38.78795762611745], [-107.96735685954319, 38.78814425901231], [-107.96788256622386, 38.78824372554215], [-107.96840918020295, 38.78832175373191], [-107.96879919905491, 38.78838907919958], [-107.9692656223168, 38.78859427615618], [-107.96981966545474, 38.788887536076146], [-107.97049387622833, 38.78914816137837], [-107.97089793035828, 38.7893159705865], [-107.97115951258246, 38.78954385606313], [-107.97124453812415, 38.789761160914246], [-107.9711530680686, 38.79019499772267], [-107.97093806079695, 38.79052551417457], [-107.97047752150026, 38.79082819759271], [-107.97033487262638, 38.79096035809148], [-107.97020456211295, 38.79098467533881], [-107.97064844215275, 38.791284032368004], [-107.97078299001937, 38.791383590441114], [-107.9709681669354, 38.79152060842119], [-107.97110751270394, 38.7915242262227], [-107.97127731405557, 38.791707292903354], [-107.97128194397257, 38.79200185353565], [-107.97128417448943, 38.79214419300743], [-107.97187904785373, 38.79337053437069], [-107.97222594936866, 38.79416365444612], [-107.97228516990543, 38.79456220238573], [-107.97220670206538, 38.79491748918974], [-107.97190314246627, 38.79519745267506], [-107.97155904908492, 38.795535914869674], [-107.97199687268304, 38.79597903317214], [-107.97229386649575, 38.79645323992403], [-107.97256217620308, 38.79700609511418], [-107.97293267196899, 38.7975417455839], [-107.97335588896055, 38.797731391178694], [-107.9743479694958, 38.79796554445163], [-107.97549713393308, 38.7980846493684], [-107.97584089134455, 38.79805385152196], [-107.97618255388477, 38.79807262987856], [-107.9764129843315, 38.79827524916619], [-107.9762561420762, 38.798431853385715], [-107.97614807474747, 38.798587860771455], [-107.97607047018839, 38.79892331603035], [-107.9760456425506, 38.799210509804844], [-107.97573275754053, 38.79941084564149], [-107.97518165369011, 38.79954545106293], [-107.97497306488111, 38.79967900048797], [-107.97497608501716, 38.7999073667013], [-107.97515815735555, 38.80010066467267], [-107.97536390748823, 38.80033428719523], [-107.97542901288845, 38.800594033342364], [-107.97553255630135, 38.800844855286634], [-107.97563862308192, 38.801036187687764], [-107.97548112325975, 38.80116113733954], [-107.97515220871172, 38.80144046023051], [-107.9751691563279, 38.80163940504971], [-107.97532128781786, 38.80194112417728], [-107.97558064581348, 38.802106640639735], [-107.97599499912813, 38.802206700247226], [-107.97643301227076, 38.80234708365079], [-107.97681530920457, 38.802605119901564], [-107.97707132367067, 38.80284996252794], [-107.97718159277012, 38.80294215099162], [-107.97735855459285, 38.802956655581006], [-107.97760265290671, 38.802883573954716], [-107.97800391866599, 38.80299321351749], [-107.97846895852231, 38.80309458309389], [-107.97893733651819, 38.80311663220545], [-107.97958679690905, 38.80327042904961], [-107.97937773378959, 38.80350122415167], [-107.97894326180578, 38.803877077359665], [-107.97887445444826, 38.80400433780152], [-107.97903487379509, 38.8041577316007], [-107.9793940615682, 38.80431553677744], [-107.9794207568035, 38.80458421780294], [-107.97947509948825, 38.805399515605856], [-107.97942042532517, 38.80609288602482], [-107.97922794510585, 38.80644522212928], [-107.97879261433266, 38.80684089849006], [-107.97835298512078, 38.80703796407199], [-107.97807787786167, 38.80724423577293], [-107.9780463362154, 38.807690067335194], [-107.97796598281157, 38.808690460376795], [-107.97774101412168, 38.80921068600266], [-107.97706497347991, 38.80989789438342], [-107.97647167576059, 38.81042843042665], [-107.97559664211369, 38.81102114412829], [-107.9743732301215, 38.81205146813329], [-107.9740565865603, 38.81263878768383], [-107.97403768780335, 38.813084946666095], [-107.97358247102468, 38.81364882453539], [-107.97306724409015, 38.8141317414978], [-107.97261622513878, 38.81459646214548], [-107.97216079186616, 38.815037175904415], [-107.97217335300877, 38.81515702712085], [-107.97229135031458, 38.81537711312988], [-107.9724105837023, 38.81585662788732], [-107.97241702552112, 38.81630344704621], [-107.97139210437582, 38.8177359023422], [-107.97090707880115, 38.81814159333682], [-107.97028720172922, 38.81866007155944], [-107.96992884579606, 38.81925238011006], [-107.96940034535487, 38.820125870678524], [-107.96856708965687, 38.821523572158085], [-107.96797819817408, 38.82314200948145], [-107.9676032207132, 38.82420421983385], [-107.96729408976272, 38.824910819068066], [-107.96672768850132, 38.82599782131096], [-107.96639755314287, 38.826600655852076], [-107.9658263207419, 38.82724054165293], [-107.96570476880248, 38.827376684488236], [-107.96494442666113, 38.82854795812156], [-107.96463144912458, 38.82934378954855], [-107.96412621954082, 38.830184236592814], [-107.9638440227775, 38.83055406096759], [-107.96376164367267, 38.8307008006774], [-107.9637608423754, 38.831018399430135], [-107.96385639168057, 38.831755360935695], [-107.96382136996093, 38.832280502644956], [-107.96351175302183, 38.83329477089258], [-107.963280692856, 38.83395375588564], [-107.96294563742474, 38.83556586767535], [-107.9628802948693, 38.837698131911935], [-107.96263388429192, 38.83961228800003], [-107.96266373261388, 38.84062183799559], [-107.96267030379018, 38.840843995440686], [-107.96266146706269, 38.84134995890309], [-107.96263698976784, 38.84162723854775], [-107.96226514383409, 38.842014577286164], [-107.96122228602748, 38.843257880690466], [-107.96051279481944, 38.844122753603514], [-107.9597251151474, 38.84503523689851], [-107.95943819055073, 38.84581186494104], [-107.9590371592517, 38.84628776329745], [-107.95839777256847, 38.8475911813584], [-107.95815054003259, 38.84803138654823], [-107.95790923637757, 38.848332780413386], [-107.9575056332019, 38.84857039763666], [-107.95675126845052, 38.84869960219331], [-107.95608281138635, 38.84877397866069], [-107.95588406362128, 38.84879609268606], [-107.95549694093779, 38.848944798467336], [-107.95533253217285, 38.84922835967197], [-107.9552582055662, 38.8494028981905], [-107.955106831356, 38.849758425673805], [-107.9546715077693, 38.85014408798294], [-107.95434166705826, 38.85032557334724], [-107.95398261582908, 38.85052312164165], [-107.95384414681621, 38.85079344727276], [-107.95336821848035, 38.851535357839694], [-107.95309765400161, 38.85252082719307], [-107.9530739151219, 38.85337755507705], [-107.95269143942339, 38.854636567069036], [-107.95234186182724, 38.855652852451975], [-107.95186573765868, 38.85639925792243], [-107.95139271177948, 38.85707175443224], [-107.95120499263122, 38.857602826661434], [-107.95087265729858, 38.85826266309828], [-107.95046979433471, 38.859062497797076], [-107.9498999336612, 38.85992103203936], [-107.94923615232807, 38.860974070857814], [-107.9486886453321, 38.86212257463125], [-107.94852328435285, 38.86272369862567], [-107.94824002308593, 38.86311330699372], [-107.9476760212247, 38.86383303286223], [-107.94755552480571, 38.86389915662853], [-107.94662296753962, 38.86441092599038], [-107.94584422161304, 38.865105175208896], [-107.94485657336553, 38.86588814909853], [-107.94475344856754, 38.86596989510488], [-107.94414370808528, 38.86686706591324], [-107.94342314514138, 38.86797967664442], [-107.94260932988449, 38.868305744038054], [-107.9416830590287, 38.86858916230596], [-107.94106454829434, 38.86880123007971], [-107.94075455945271, 38.86898107037477], [-107.9404916602983, 38.86913359680176], [-107.93982865151631, 38.86995323102679], [-107.93920932600997, 38.870718843573435], [-107.937947581108, 38.872203260928956], [-107.9375047853348, 38.87275738976864], [-107.9367096730021, 38.87382829748155], [-107.93628941865431, 38.87460227177197], [-107.9358044361987, 38.87539258494023], [-107.9349772863497, 38.87664490820805], [-107.93398443146675, 38.87775101460907], [-107.93288134251867, 38.8789376502464], [-107.93249086283099, 38.87915382428018], [-107.9318029554443, 38.879195330587265], [-107.93115715838316, 38.8793213570781], [-107.93053053676013, 38.87971008006834], [-107.92864876566586, 38.8816270062468], [-107.9278658632345, 38.88219905346349], [-107.92698404461228, 38.88275112401252], [-107.92597900408249, 38.883427794153], [-107.92528574632998, 38.883945835884184], [-107.92476464082019, 38.88436114468223], [-107.92455174099618, 38.884701148663765], [-107.92413192682282, 38.88559583565425], [-107.92285394577046, 38.88764777188819], [-107.92248607847506, 38.889103952352855], [-107.92201715250688, 38.89042900692014], [-107.92115560975888, 38.891309402981506], [-107.92023232490313, 38.892776511362534], [-107.91981288712391, 38.89344300255148], [-107.91898998271296, 38.89483949593286], [-107.91846832384098, 38.895969829801444], [-107.91799030153221, 38.8971489859241], [-107.91720952720976, 38.89827484778753], [-107.91614097399275, 38.899250780011116], [-107.91531990663654, 38.90000065458913], [-107.91491503863291, 38.900413330378335], [-107.91292645874974, 38.90244007702605], [-107.91162276432058, 38.90331131871158], [-107.91019843692864, 38.905204285416346], [-107.90920270204691, 38.906048537190536], [-107.90911299179105, 38.90613755183027], [-107.90682396227623, 38.90985334806825], [-107.9059071632568, 38.91059178681241], [-107.90479583316434, 38.91194476633726], [-107.90413668354476, 38.913071370761564], [-107.90294681284868, 38.914124304919646], [-107.90209855438717, 38.91538889286538], [-107.90132269384934, 38.91621028323897], [-107.90049940675601, 38.91714451836278], [-107.89980979885853, 38.91798533266834], [-107.89919212715058, 38.918374523420184], [-107.89835456852245, 38.91834033820459], [-107.8974217642196, 38.91804142042927], [-107.89685901460989, 38.91800261442431], [-107.8962794674026, 38.91799909461059], [-107.8955648504076, 38.917944331290336], [-107.8941481047966, 38.91754908400522], [-107.89330260146801, 38.917347798156314], [-107.8923462882542, 38.917238900211444], [-107.89182819928718, 38.91722509688451], [-107.89140208343211, 38.9172018208442], [-107.89083133881637, 38.91716357003639], [-107.89109832081375, 38.91615107671966], [-107.89114308476265, 38.915802002023256], [-107.89114326173076, 38.915263390279996], [-107.89106608926137, 38.91460933507034], [-107.89086937079055, 38.91383984858027], [-107.89078521930966, 38.91303191128899], [-107.89092622336823, 38.91210859195223], [-107.8909334889423, 38.91142158919425], [-107.89093314668416, 38.91082805516757], [-107.89073956153705, 38.909797692116044], [-107.89069541383239, 38.90762184647866], [-107.8905418531228, 38.904661320584935], [-107.89040859344027, 38.90355107450538], [-107.89026820113443, 38.90272662875528], [-107.88986065165966, 38.901594347804654], [-107.88949520712062, 38.9007533679846], [-107.88910865396905, 38.89995085433312], [-107.8884521588712, 38.89875247978663], [-107.88819663398695, 38.898376046714766], [-107.88754626000947, 38.89756401408513], [-107.88728255955778, 38.89710419577599], [-107.88718180361722, 38.89616267186921], [-107.88703258895696, 38.89578907340288], [-107.88687731695669, 38.89555391418947], [-107.88632119332053, 38.89502160551914], [-107.88532473619328, 38.89428349143907], [-107.88447174989837, 38.893780207641484], [-107.88336167924392, 38.89293738943206], [-107.88253102955858, 38.89219443980572], [-107.88199574863359, 38.891727351521425], [-107.88131341080165, 38.891108478323886], [-107.88092551466876, 38.89051596171743], [-107.88084991784432, 38.88981166835922], [-107.88048124206522, 38.887700525224155], [-107.88039125602658, 38.886515338613954], [-107.88015075816034, 38.885797394738916], [-107.87951201826411, 38.884454297462796], [-107.87897259161414, 38.88354354576083], [-107.87888654648464, 38.88338148632462], [-107.87857941608222, 38.88280303066371], [-107.87822449081514, 38.88118938171962], [-107.87805567671201, 38.87964540109404], [-107.87799549587622, 38.87859037794158], [-107.8779793019466, 38.87761045959073], [-107.87835110925276, 38.87694862358513], [-107.87870920557279, 38.876329855221194], [-107.8787588761198, 38.87600293087424], [-107.87884204664036, 38.87545555717691], [-107.87877910797663, 38.87473311937929], [-107.87876842610959, 38.8742093148812], [-107.87875656116131, 38.87362827662131], [-107.87895296522179, 38.872922017059274], [-107.8791928755898, 38.87203210253433], [-107.8792976496946, 38.87125870662737], [-107.87935852223323, 38.870678188376736], [-107.87968044519337, 38.86980433207356], [-107.88070509414916, 38.86853806289127], [-107.88123349847066, 38.86780741417976], [-107.88153227903248, 38.86665108602008], [-107.88182954144142, 38.865799662453696], [-107.88198321533878, 38.865258579367804], [-107.88207956863613, 38.86494698156652], [-107.88250890764641, 38.864588831504655], [-107.88276695499998, 38.86439649197413], [-107.88309534133862, 38.86415171758384], [-107.88329016616079, 38.863750339422474], [-107.88330993538528, 38.86329808034333], [-107.88330033059822, 38.86270643629054], [-107.88327436479491, 38.86243548024315], [-107.88324350137674, 38.86211352685059], [-107.8831996941336, 38.86149324015909], [-107.88347756101727, 38.86108483809364], [-107.88358735670458, 38.86099005144531], [-107.88398111793799, 38.86065011938608], [-107.88444864972088, 38.86022830587919], [-107.88456739083179, 38.85994501586527], [-107.88469621373504, 38.85943098782851], [-107.8848888817023, 38.85880777615589], [-107.88501878707551, 38.85799808443971], [-107.8851341891485, 38.85752065831499], [-107.88527672752959, 38.85723338209365], [-107.88544025504727, 38.857006734472115], [-107.88562618564978, 38.856808403220086], [-107.8858747602687, 38.85652858746631], [-107.88596544878989, 38.85634619733785], [-107.88591234937344, 38.85593819942711], [-107.88577349139013, 38.85547191653228], [-107.88573573699534, 38.85511107864498], [-107.88604965057647, 38.85482625791235], [-107.88652325766554, 38.85439654754538], [-107.88686476300064, 38.85401867201198], [-107.88706961751295, 38.85379200784939], [-107.887884621241, 38.85325932194287], [-107.8888254412111, 38.85282238462526]]]]}, "properties": {"huc12": "140200050105", "name": "Fruit Growers Reservoir-Gunnison River", "role": "auxiliary", "areasqkm": 52.74}}, {"type": "Feature", "geometry": {"type": "MultiPolygon", "coordinates": [[[[-107.85665528686995, 39.07804522261961], [-107.85653129420787, 39.077542959770696], [-107.85618072576993, 39.07702617288761], [-107.85552718253612, 39.07665096143815], [-107.85492334218866, 39.076684271077454], [-107.85465370297469, 39.076864264897026], [-107.85441368031728, 39.077024485970234], [-107.85427480706255, 39.077154561897146], [-107.85412349483607, 39.077305483730925], [-107.85374782836743, 39.077772338033384], [-107.85354398984968, 39.07817777783632], [-107.85339452006791, 39.078352372462014], [-107.85324187923315, 39.0784211567779], [-107.8529772346521, 39.07845623893589], [-107.85246570158995, 39.078511664079585], [-107.85232001102058, 39.07852200573157], [-107.85210785410327, 39.07853707260224], [-107.85165855362911, 39.078517125699314], [-107.85141883370395, 39.07848723601773], [-107.8511758232499, 39.07849273320413], [-107.85095887741387, 39.07857888548766], [-107.8506917462961, 39.07870669287557], [-107.85033936954954, 39.07879252900102], [-107.85003005264775, 39.07885730107161], [-107.8496895291713, 39.07893333237739], [-107.84940414428698, 39.07893020549301], [-107.84926044797756, 39.078903403123476], [-107.84922803406711, 39.07874249455109], [-107.84935025255652, 39.07855759759959], [-107.84946028450071, 39.07837782776431], [-107.84950151357897, 39.07826240540161], [-107.849422162695, 39.078114185059356], [-107.84931499907147, 39.077959474148685], [-107.84902347869381, 39.077848063672846], [-107.84867212422999, 39.07781622181494], [-107.84831051729383, 39.07784817943349], [-107.84802040098289, 39.077933928039606], [-107.84780387286348, 39.07802503220186], [-107.84760677081204, 39.07808481124671], [-107.84720074937161, 39.07798357324312], [-107.84699006748801, 39.07779936328848], [-107.84611829292896, 39.077389709269575], [-107.84521075284522, 39.07718327290773], [-107.84275817784642, 39.07680857206636], [-107.84195022050342, 39.07670701353599], [-107.84152197294624, 39.07669724206226], [-107.84138110722822, 39.07674110001264], [-107.84112366713582, 39.07678780039084], [-107.84066788891012, 39.07673828335834], [-107.84018890181069, 39.07687512144426], [-107.83985844934688, 39.077106209714316], [-107.83956608185794, 39.07706831791483], [-107.83940822091304, 39.0770115262034], [-107.83902691302438, 39.076879341884826], [-107.83883909146815, 39.076722216082885], [-107.83828293459429, 39.076432577710946], [-107.83771300834375, 39.07612306518895], [-107.83725075056986, 39.07591198968671], [-107.83668650616349, 39.07574382160164], [-107.83616272547081, 39.07561508621917], [-107.83575269934084, 39.075412833114136], [-107.83540663236082, 39.07518882328085], [-107.83517712987367, 39.074961968115836], [-107.83486628134432, 39.07464613711223], [-107.83428002551858, 39.0743634013318], [-107.83402682098273, 39.07434607333555], [-107.83377747650763, 39.07432901173734], [-107.83353908968235, 39.07420343085552], [-107.83321610581184, 39.07390809839789], [-107.832790708609, 39.07364557783797], [-107.83219124126036, 39.07330837754679], [-107.83128563794432, 39.073161962129326], [-107.83050363831984, 39.07304196325922], [-107.83016083671585, 39.07295732664314], [-107.82987903341458, 39.07279254926567], [-107.82922207658274, 39.072422352675126], [-107.82831392744116, 39.07183647469815], [-107.82790056137495, 39.07169995671807], [-107.8274673829652, 39.071635353825926], [-107.8269597629644, 39.07159269644071], [-107.82592838113561, 39.071570211075056], [-107.82515125127821, 39.07129442599351], [-107.82453283486697, 39.0710668706528], [-107.82398079497206, 39.07087812474052], [-107.82333769465343, 39.07068148487728], [-107.82272250948226, 39.0705346860052], [-107.82221657382266, 39.07052673535277], [-107.82176624567578, 39.07054481192687], [-107.82158233358764, 39.070552193478136], [-107.82103022092916, 39.07068684039729], [-107.82055582242427, 39.07081959495146], [-107.82000458831814, 39.07086093607046], [-107.81931938665713, 39.07074117599119], [-107.81922127894998, 39.07058387402157], [-107.819233721515, 39.07039537579913], [-107.81938946333413, 39.070091183295894], [-107.81944337931913, 39.06998587198556], [-107.81924859671781, 39.069714739570294], [-107.81892862759337, 39.06959065902905], [-107.81835644567315, 39.06930636723627], [-107.81789035568629, 39.0691044935908], [-107.81713672755342, 39.068786437335056], [-107.81674907486389, 39.06867448720121], [-107.81641019799937, 39.06857662388442], [-107.81581692183964, 39.06827173655615], [-107.8147804555463, 39.067776175015496], [-107.81241048153619, 39.066910888757114], [-107.81178723308702, 39.06678693650211], [-107.81112270076231, 39.0667019094773], [-107.810393415177, 39.06661843630052], [-107.80984825458053, 39.066601268912], [-107.80960968270229, 39.0665715792377], [-107.80923594311994, 39.06652507715356], [-107.808842189073, 39.066403190814206], [-107.80841893704715, 39.06619105817097], [-107.80781236761783, 39.06593280951216], [-107.80732961837404, 39.06566500033423], [-107.8063697226789, 39.06551277931824], [-107.8056926543644, 39.0654381285044], [-107.80517180846773, 39.065379930387785], [-107.80454334799326, 39.06522324629232], [-107.80353491811996, 39.064964537940426], [-107.80277731494192, 39.064847908616834], [-107.80238187924878, 39.06482166097665], [-107.8023839875948, 39.0645735912801], [-107.80239213441608, 39.06439310856132], [-107.80238436578551, 39.06417047546632], [-107.80214005187598, 39.064052567029734], [-107.80157235254904, 39.06379901792214], [-107.80126384413104, 39.06361266799622], [-107.80048063537413, 39.063365880234514], [-107.79949017000985, 39.06300484957004], [-107.7988765065848, 39.062887256549686], [-107.79809511511974, 39.062791085022006], [-107.79695656697244, 39.062597047336155], [-107.79602736760886, 39.06229498349623], [-107.7948751497979, 39.0618812908657], [-107.79380811024213, 39.06144208488543], [-107.79327544700791, 39.06105685999905], [-107.7927534611491, 39.060796920597774], [-107.79239104932249, 39.060482207812406], [-107.79191909603179, 39.060018541235266], [-107.79155511125505, 39.05966342039113], [-107.79115028547226, 39.05925876427911], [-107.79064845152028, 39.05869473707525], [-107.79028209519117, 39.05827904859387], [-107.78993964752344, 39.057812254376735], [-107.78965140330156, 39.05740480161923], [-107.78930816781133, 39.05691780865409], [-107.78923347918366, 39.056666946046036], [-107.7891727791216, 39.05651867755829], [-107.78911875354208, 39.05638671574728], [-107.78890560218981, 39.05624022337372], [-107.78869495084895, 39.05622533450538], [-107.78841390662409, 39.056262096276356], [-107.78820829483196, 39.05630744018546], [-107.7876385114135, 39.056321071324895], [-107.78719780691827, 39.05632150311825], [-107.7868465872018, 39.05628948064419], [-107.78659863152208, 39.05614430996002], [-107.78631668808363, 39.055998968770375], [-107.78583739825204, 39.0556769219476], [-107.78529097013266, 39.0552958357163], [-107.78459776807567, 39.054807083555886], [-107.78414939196792, 39.05428218050098], [-107.78362612061999, 39.05382979371115], [-107.78325480289563, 39.0536163104171], [-107.78268555756809, 39.05355109383454], [-107.78230512643513, 39.053438608900244], [-107.78173048941923, 39.05308676506531], [-107.78115656925893, 39.052879875333936], [-107.78104682208067, 39.05284032419093], [-107.78055214680322, 39.05257694395926], [-107.7801087913795, 39.05238771051176], [-107.77967359265865, 39.05205190852474], [-107.77930918208052, 39.05164584077456], [-107.77840437197688, 39.050568812758385], [-107.7781279612623, 39.050130731445265], [-107.77768709686696, 39.049464119003574], [-107.7773023735836, 39.04890733738157], [-107.77680580914904, 39.04828038989775], [-107.77618500591407, 39.04784450803328], [-107.77561794169598, 39.04759525616444], [-107.77515961584812, 39.04747479175185], [-107.7746859665382, 39.047294049748864], [-107.77425828581794, 39.047117219743846], [-107.77362244119182, 39.046611927324584], [-107.77308634369827, 39.04615979558476], [-107.77265660134442, 39.04577587289786], [-107.77227865315497, 39.04539072579953], [-107.77193442502633, 39.04487338606619], [-107.77160511791452, 39.04440622276706], [-107.77118622541269, 39.04370394268766], [-107.77086561309451, 39.042914062428515], [-107.77076811085188, 39.04192439742245], [-107.77066555109424, 39.04104578889497], [-107.77075130516955, 39.04072845047769], [-107.77077155409437, 39.04028418141583], [-107.77080074664619, 39.04003477309318], [-107.77085026807282, 39.03973033185999], [-107.77095851416624, 39.03931073468205], [-107.7712317664043, 39.038790081516346], [-107.77176185237201, 39.038109721817605], [-107.77214192328053, 39.03759201059095], [-107.77234900920806, 39.036958305379], [-107.77246965564564, 39.03626659844733], [-107.77225898903338, 39.0354128070204], [-107.77214250269385, 39.034839634786124], [-107.77225426658997, 39.03434229650203], [-107.77236604216411, 39.03384497565133], [-107.77251801555063, 39.033247270923724], [-107.7726321941182, 39.032305166776254], [-107.77298663160006, 39.031175111458495], [-107.77287909697235, 39.03079681061], [-107.77269014084389, 39.03024944134715], [-107.77234162775133, 39.02968374355259], [-107.77218386741777, 39.02923454603354], [-107.77218565416686, 39.02880366948711], [-107.77206076498618, 39.02763252814185], [-107.77169869541764, 39.026190705699065], [-107.77170237940864, 39.025718171601994], [-107.77186640908461, 39.02530617619293], [-107.77170440780452, 39.02489112098607], [-107.77168272067696, 39.02458470650828], [-107.77170926140204, 39.02400159999503], [-107.77170717012407, 39.02326479407026], [-107.77168158700304, 39.02265243961275], [-107.77161282995122, 39.02220570846531], [-107.77168138308548, 39.021873984647726], [-107.77192539426277, 39.021602728917955], [-107.77230031243481, 39.0211960778705], [-107.77244095806557, 39.02097446993513], [-107.77256905602846, 39.020772590726], [-107.77216857090511, 39.020566896812596], [-107.77161143037604, 39.02021614970963], [-107.77147563474944, 39.020130656235466], [-107.77146274123014, 39.019795922992735], [-107.77150962789815, 39.019473930272866], [-107.7720065866931, 39.01957156431839], [-107.77249645149224, 39.01954938413302], [-107.77281685989283, 39.01955825830183], [-107.7737181387191, 39.019559384759276], [-107.77440526906305, 39.01956648269755], [-107.77489134746332, 39.01962760799042], [-107.77558119610934, 39.01957519145501], [-107.77583018844479, 39.01947482013359], [-107.77594294228432, 39.01934685457057], [-107.776010465051, 39.01920571320649], [-107.77625674716928, 39.01916485761871], [-107.77675808525126, 39.01922640341411], [-107.77693847594345, 39.019290962825046], [-107.77730529939645, 39.019622883712984], [-107.77749986191058, 39.01971168179042], [-107.77800120538245, 39.019773213849206], [-107.77845623710816, 39.01984537876151], [-107.77861529910057, 39.01970677535943], [-107.77885281725496, 39.01952267019127], [-107.77925276159252, 39.01946220644532], [-107.78011259394815, 39.01936680004454], [-107.7815940721585, 39.01903828457138], [-107.7822298943267, 39.01882941349219], [-107.78265103082015, 39.0186384418181], [-107.78274027754532, 39.018354893404684], [-107.78273328416083, 39.01781244254085], [-107.78299199536937, 39.01752047913188], [-107.78302129661728, 39.017211434232294], [-107.78288207571458, 39.01657597587333], [-107.78281105490822, 39.016121152537096], [-107.78321136845331, 39.015715096039244], [-107.78341228025988, 39.015327375697865], [-107.78363165334382, 39.014868645440586], [-107.78397201692013, 39.014437098519046], [-107.7845107033584, 39.01401101976164], [-107.7847568112035, 39.01363646249904], [-107.78495337336744, 39.01334394997943], [-107.78503992065521, 39.01311990726558], [-107.78514493640685, 39.01282486446958], [-107.78527939444197, 39.012554486307664], [-107.78544544532724, 39.012261138691464], [-107.7855515453455, 39.011942283392045], [-107.78585327058475, 39.011688423677626], [-107.78608443405687, 39.01130629047232], [-107.7862651903634, 39.01102526459485], [-107.78653345246002, 39.01077691242349], [-107.78682180717468, 39.01054007179335], [-107.78718345902658, 39.01031171131768], [-107.78749164854268, 39.00991500500338], [-107.78755142334002, 39.00960680568267], [-107.78765233019757, 39.00906496410647], [-107.78796536881953, 39.008561148176916], [-107.78842268496102, 39.007906373995986], [-107.78906647069427, 39.00751892287155], [-107.78942488142464, 39.007361951269694], [-107.79083734027505, 39.00686457183654], [-107.79124150399946, 39.00670885947163], [-107.79132854625892, 39.00647290780891], [-107.79147264770863, 39.005988262473586], [-107.79174417607966, 39.00538795296559], [-107.79244410202656, 39.00510928609206], [-107.79343859004662, 39.00481846534215], [-107.79371488667519, 39.00470330388989], [-107.79431789428439, 39.004541128854854], [-107.79461794775898, 39.0043229535376], [-107.79507861192151, 39.00393042656832], [-107.79560458719847, 39.00344436065732], [-107.7966294391735, 39.00273365382834], [-107.7971711852736, 39.00223609595009], [-107.79787190892446, 39.001599895682354], [-107.79849420426109, 39.00100920592144], [-107.79919491443722, 39.00037299043248], [-107.80108592919575, 38.99975752865543], [-107.80230492686665, 38.99948112317784], [-107.8039210346903, 38.99920368757688], [-107.80440032721687, 38.99907381434263], [-107.80529282860451, 38.998585832890306], [-107.80635472620355, 38.99738743730843], [-107.80725530973373, 38.996638992301705], [-107.80735424209428, 38.99655676213151], [-107.80772326372482, 38.996503009679095], [-107.80825806135616, 38.99660106919621], [-107.80913030124252, 38.996796084041556], [-107.80990500295366, 38.99688879320785], [-107.81008695042622, 38.996792489248044], [-107.81033073882128, 38.99667326892391], [-107.8112285474556, 38.996662823129284], [-107.81196444643808, 38.996599533253764], [-107.81243676534311, 38.99662436664575], [-107.8130896860444, 38.996368126394], [-107.81454913307243, 38.995835979343695], [-107.81487424864515, 38.99573760598885], [-107.81553067277605, 38.995743629050764], [-107.81589407903776, 38.99581314172422], [-107.81775647616624, 38.9951489590049], [-107.81880648007092, 38.9948915935419], [-107.81955921258346, 38.99479296613553], [-107.81975024112522, 38.99461941815078], [-107.82102166447613, 38.99338750036061], [-107.82241110848899, 38.99283285816834], [-107.82397045536315, 38.99211264348874], [-107.8253577362328, 38.991483057071136], [-107.82651354011836, 38.99090673165192], [-107.8270643915422, 38.99054037338238], [-107.82784419029426, 38.989834628377565], [-107.82833796456151, 38.9895030271278], [-107.82845816453641, 38.989422309403096], [-107.82910565492188, 38.98928499465954], [-107.82928977631745, 38.98924326576062], [-107.83018551523335, 38.9890402632957], [-107.83044247113384, 38.98887676272549], [-107.83093992220554, 38.9885602416579], [-107.83181155033922, 38.98819065934529], [-107.83243702122043, 38.987862048644345], [-107.83300239570742, 38.987853573384314], [-107.83344256121346, 38.98791320252148], [-107.83345327272495, 38.98808587041135], [-107.83346033078811, 38.98819969943981], [-107.83383935336265, 38.98860327386514], [-107.83410380211096, 38.98883689228015], [-107.8344120275597, 38.98877376018879], [-107.83527422697613, 38.98827280287956], [-107.83535616949972, 38.98823075568556], [-107.83602434628952, 38.987887971566195], [-107.83708333783862, 38.98708248177271], [-107.83761142685144, 38.98688228776266], [-107.83831047155098, 38.98661523468579], [-107.83850726997187, 38.98631071981362], [-107.83883307994229, 38.98550916285624], [-107.8388742964441, 38.984926318618356], [-107.83878977665401, 38.98442349133081], [-107.83863686991793, 38.98408565423784], [-107.83882994841517, 38.98386445583449], [-107.83936967779745, 38.98340239322801], [-107.83975582491054, 38.98295999425367], [-107.84010616697304, 38.98263580251222], [-107.84123521004628, 38.98196142664608], [-107.8422053231795, 38.981828079842366], [-107.84303460473066, 38.98163459004749], [-107.84370834748198, 38.98113945568577], [-107.84427611058926, 38.98046886439927], [-107.84498482116132, 38.979913292768806], [-107.84524511160818, 38.98003753500445], [-107.84562373263584, 38.9801073696652], [-107.8465718702822, 38.980073423006345], [-107.84764202519533, 38.98004278706164], [-107.8493796274663, 38.979806974828456], [-107.85013633053237, 38.97957392228307], [-107.85098516840726, 38.979024806665734], [-107.85131650391499, 38.978783488191226], [-107.85201593938172, 38.97850444279903], [-107.8525996520769, 38.97842485640574], [-107.85318073181007, 38.97840479393891], [-107.8536356009407, 38.978476661664835], [-107.85437124569988, 38.97875870091422], [-107.85483978179923, 38.97886668105882], [-107.85542718297704, 38.97870376663518], [-107.85610556822171, 38.978555213767706], [-107.85652679454661, 38.97835205634914], [-107.85684813180525, 38.97799127987406], [-107.85738609060807, 38.97791044147872], [-107.85783097137109, 38.977862845401866], [-107.85829267937594, 38.97777994954666], [-107.85852354460738, 38.977392894228636], [-107.85867606147458, 38.97705138728689], [-107.85891954803574, 38.976724254967735], [-107.85952377016719, 38.97618040870302], [-107.85998653099756, 38.97572808558161], [-107.86062018912432, 38.97520886376045], [-107.8609845979058, 38.97490881478659], [-107.86133533792196, 38.97457264889375], [-107.8617617834587, 38.974250444039676], [-107.86223398558279, 38.97392945708994], [-107.86278572544038, 38.9731899184824], [-107.8628682240211, 38.97295313711076], [-107.86313539646136, 38.97218634037622], [-107.86321266505048, 38.97181897451224], [-107.86351080331686, 38.97129069644482], [-107.86419538693703, 38.97065364530119], [-107.86451873732017, 38.97024522561512], [-107.864503484825, 38.969899212926464], [-107.86461543826555, 38.969437432843115], [-107.86490041531471, 38.96886113259082], [-107.86563645802762, 38.9677487551712], [-107.86584359695568, 38.96741347514295], [-107.86637069422848, 38.96667683411979], [-107.86678139229826, 38.966087232352244], [-107.86717254392579, 38.96573305391114], [-107.86731353181472, 38.96544367642109], [-107.86747881014887, 38.96522644992612], [-107.86737807217457, 38.96490537737755], [-107.86736251335385, 38.96470850754519], [-107.86757971610811, 38.96440800338462], [-107.86792508599551, 38.96424641004218], [-107.86853836224672, 38.96387455159497], [-107.86897277224674, 38.963497898211855], [-107.86977036033637, 38.963006712711014], [-107.87037375691604, 38.96285789711472], [-107.87163830096851, 38.962606385655235], [-107.8725317141461, 38.96232465856824], [-107.87265514356442, 38.962105526791795], [-107.87272841465057, 38.96179683845531], [-107.87291060017671, 38.961273591707425], [-107.87317158951285, 38.96076799870728], [-107.87393338063674, 38.95973217000381], [-107.87474249500978, 38.958977199403286], [-107.87573928810691, 38.958025323973], [-107.87634214659579, 38.9574356795433], [-107.8771998733004, 38.95710163672855], [-107.87751670281293, 38.95695333194093], [-107.87771370874458, 38.95655595628787], [-107.87799724220115, 38.95598881340105], [-107.87836717651997, 38.95571913389276], [-107.87893310077587, 38.955516805129115], [-107.8794154439812, 38.955405453752704], [-107.8799388788225, 38.95526412126854], [-107.88046232534197, 38.955122798282474], [-107.8808658620423, 38.95503550488811], [-107.88116528130628, 38.95497073805329], [-107.88128372956636, 38.95447014516075], [-107.88171860309713, 38.9532411544173], [-107.88189035199628, 38.95250015283856], [-107.88225536175072, 38.95188858099791], [-107.88279372389715, 38.95140591410335], [-107.88345335770859, 38.95087987444365], [-107.88405878358252, 38.95007947995186], [-107.88412231243942, 38.94962332380847], [-107.8840344095939, 38.94896927029882], [-107.88385000253403, 38.94863815325578], [-107.88367443399832, 38.94810533237555], [-107.88391814693486, 38.947537115822065], [-107.88435577290367, 38.94708280729967], [-107.88494132534855, 38.94643051959212], [-107.88524284038208, 38.94589175332649], [-107.8858765802555, 38.9450400080108], [-107.88648204565527, 38.944490537343306], [-107.8870241447933, 38.94399051530683], [-107.8874552103655, 38.94353079863859], [-107.88771534270889, 38.943040672278826], [-107.88783980429147, 38.94246926473924], [-107.8881218348665, 38.941933127601246], [-107.8882695466453, 38.94128466610991], [-107.88859605730158, 38.94064098343646], [-107.88859433433294, 38.93977107061042], [-107.88917647677302, 38.938284529797144], [-107.88990144864829, 38.93716993598743], [-107.89013469890675, 38.9363839556262], [-107.89019323402904, 38.93504499108895], [-107.89012635355776, 38.93434815859457], [-107.8900975895024, 38.93404832299348], [-107.88992130770428, 38.933531012935845], [-107.88933352564086, 38.933328936687076], [-107.88788661550095, 38.93304252597603], [-107.88745040437873, 38.932850074088], [-107.88736047852724, 38.93251515442858], [-107.88742563423311, 38.93102569914633], [-107.88746159918384, 38.93020339153125], [-107.8876496929296, 38.92954048026014], [-107.88809514322448, 38.92844950147601], [-107.88819815663132, 38.927458118250414], [-107.88838150906902, 38.926480313044884], [-107.88858577159162, 38.92584281153083], [-107.88888859636883, 38.925078921727035], [-107.88898730594723, 38.92449635741518], [-107.88908595174519, 38.92408417525621], [-107.88920570885065, 38.92365000829782], [-107.88931840070643, 38.92328729763512], [-107.88950154653156, 38.92265528023055], [-107.88957909898839, 38.922188132340494], [-107.88964962302639, 38.92169899556998], [-107.88969915972443, 38.92149424448506], [-107.89083133881637, 38.91716357003639], [-107.89140208343211, 38.9172018208442], [-107.89182819928718, 38.91722509688451], [-107.8923462882542, 38.917238900211444], [-107.89330260146801, 38.917347798156314], [-107.8941481047966, 38.91754908400522], [-107.8955648504076, 38.917944331290336], [-107.8962794674026, 38.91799909461059], [-107.89685901460989, 38.91800261442431], [-107.8974217642196, 38.91804142042927], [-107.89835456852245, 38.91834033820459], [-107.89919212715058, 38.918374523420184], [-107.89980979885853, 38.91798533266834], [-107.90049940675601, 38.91714451836278], [-107.90132269384934, 38.91621028323897], [-107.90209855438717, 38.91538889286538], [-107.90294681284868, 38.914124304919646], [-107.90413668354476, 38.913071370761564], [-107.90479583316434, 38.91194476633726], [-107.9059071632568, 38.91059178681241], [-107.90682396227623, 38.90985334806825], [-107.90911299179105, 38.90613755183027], [-107.90920270204691, 38.906048537190536], [-107.91019843692864, 38.905204285416346], [-107.91162276432058, 38.90331131871158], [-107.91292645874974, 38.90244007702605], [-107.91491503863291, 38.900413330378335], [-107.91531990663654, 38.90000065458913], [-107.91614097399275, 38.899250780011116], [-107.91720952720976, 38.89827484778753], [-107.91799030153221, 38.8971489859241], [-107.91846832384098, 38.895969829801444], [-107.91898998271296, 38.89483949593286], [-107.91981288712391, 38.89344300255148], [-107.92023232490313, 38.892776511362534], [-107.92115560975888, 38.891309402981506], [-107.92201715250688, 38.89042900692014], [-107.92248607847506, 38.889103952352855], [-107.92285394577046, 38.88764777188819], [-107.92413192682282, 38.88559583565425], [-107.92455174099618, 38.884701148663765], [-107.92476464082019, 38.88436114468223], [-107.92528574632998, 38.883945835884184], [-107.92597900408249, 38.883427794153], [-107.92698404461228, 38.88275112401252], [-107.9278658632345, 38.88219905346349], [-107.92864876566586, 38.8816270062468], [-107.93053053676013, 38.87971008006834], [-107.93115715838316, 38.8793213570781], [-107.9318029554443, 38.879195330587265], [-107.93249086283099, 38.87915382428018], [-107.93288134251867, 38.8789376502464], [-107.93398443146675, 38.87775101460907], [-107.9349772863497, 38.87664490820805], [-107.9358044361987, 38.87539258494023], [-107.93628941865431, 38.87460227177197], [-107.9367096730021, 38.87382829748155], [-107.9375047853348, 38.87275738976864], [-107.937947581108, 38.872203260928956], [-107.93920932600997, 38.870718843573435], [-107.93982865151631, 38.86995323102679], [-107.9404916602983, 38.86913359680176], [-107.94075455945271, 38.86898107037477], [-107.94106454829434, 38.86880123007971], [-107.9416830590287, 38.86858916230596], [-107.94260932988449, 38.868305744038054], [-107.94342314514138, 38.86797967664442], [-107.94414370808528, 38.86686706591324], [-107.94475344856754, 38.86596989510488], [-107.94485657336553, 38.86588814909853], [-107.94584422161304, 38.865105175208896], [-107.94662296753962, 38.86441092599038], [-107.94755552480571, 38.86389915662853], [-107.9476760212247, 38.86383303286223], [-107.94824002308593, 38.86311330699372], [-107.94852328435285, 38.86272369862567], [-107.9486886453321, 38.86212257463125], [-107.94923615232807, 38.860974070857814], [-107.9498999336612, 38.85992103203936], [-107.95046979433471, 38.859062497797076], [-107.95087265729858, 38.85826266309828], [-107.95120499263122, 38.857602826661434], [-107.95139271177948, 38.85707175443224], [-107.95186573765868, 38.85639925792243], [-107.95234186182724, 38.855652852451975], [-107.95269143942339, 38.854636567069036], [-107.9530739151219, 38.85337755507705], [-107.95309765400161, 38.85252082719307], [-107.95336821848035, 38.851535357839694], [-107.95384414681621, 38.85079344727276], [-107.95398261582908, 38.85052312164165], [-107.95434166705826, 38.85032557334724], [-107.9546715077693, 38.85014408798294], [-107.955106831356, 38.849758425673805], [-107.9552582055662, 38.8494028981905], [-107.95533253217285, 38.84922835967197], [-107.95549694093779, 38.848944798467336], [-107.95588406362128, 38.84879609268606], [-107.95608281138635, 38.84877397866069], [-107.95675126845052, 38.84869960219331], [-107.9575056332019, 38.84857039763666], [-107.95790923637757, 38.848332780413386], [-107.95815054003259, 38.84803138654823], [-107.95839777256847, 38.8475911813584], [-107.9590371592517, 38.84628776329745], [-107.95943819055073, 38.84581186494104], [-107.9597251151474, 38.84503523689851], [-107.96051279481944, 38.844122753603514], [-107.96122228602748, 38.843257880690466], [-107.96226514383409, 38.842014577286164], [-107.96263698976784, 38.84162723854775], [-107.96266146706269, 38.84134995890309], [-107.96267030379018, 38.840843995440686], [-107.96266373261388, 38.84062183799559], [-107.96263388429192, 38.83961228800003], [-107.9628802948693, 38.837698131911935], [-107.96294563742474, 38.83556586767535], [-107.963280692856, 38.83395375588564], [-107.96351175302183, 38.83329477089258], [-107.96382136996093, 38.832280502644956], [-107.96385639168057, 38.831755360935695], [-107.9637608423754, 38.831018399430135], [-107.96376164367267, 38.8307008006774], [-107.9638440227775, 38.83055406096759], [-107.96412621954082, 38.830184236592814], [-107.96463144912458, 38.82934378954855], [-107.96494442666113, 38.82854795812156], [-107.96570476880248, 38.827376684488236], [-107.9658263207419, 38.82724054165293], [-107.96639755314287, 38.826600655852076], [-107.96672768850132, 38.82599782131096], [-107.96729408976272, 38.824910819068066], [-107.9676032207132, 38.82420421983385], [-107.96797819817408, 38.82314200948145], [-107.96856708965687, 38.821523572158085], [-107.96940034535487, 38.820125870678524], [-107.96992884579606, 38.81925238011006], [-107.97028720172922, 38.81866007155944], [-107.97090707880115, 38.81814159333682], [-107.97139210437582, 38.8177359023422], [-107.97241702552112, 38.81630344704621], [-107.9724105837023, 38.81585662788732], [-107.97229135031458, 38.81537711312988], [-107.97217335300877, 38.81515702712085], [-107.97216079186616, 38.815037175904415], [-107.97261622513878, 38.81459646214548], [-107.97306724409015, 38.8141317414978], [-107.97358247102468, 38.81364882453539], [-107.97403768780335, 38.813084946666095], [-107.9740565865603, 38.81263878768383], [-107.9743732301215, 38.81205146813329], [-107.97559664211369, 38.81102114412829], [-107.97647167576059, 38.81042843042665], [-107.97706497347991, 38.80989789438342], [-107.97774101412168, 38.80921068600266], [-107.97796598281157, 38.808690460376795], [-107.9780463362154, 38.807690067335194], [-107.97807787786167, 38.80724423577293], [-107.97835298512078, 38.80703796407199], [-107.97879261433266, 38.80684089849006], [-107.97922794510585, 38.80644522212928], [-107.97942042532517, 38.80609288602482], [-107.97947509948825, 38.805399515605856], [-107.9794207568035, 38.80458421780294], [-107.9793940615682, 38.80431553677744], [-107.97903487379509, 38.8041577316007], [-107.97887445444826, 38.80400433780152], [-107.97894326180578, 38.803877077359665], [-107.97937773378959, 38.80350122415167], [-107.97958679690905, 38.80327042904961], [-107.9797099191036, 38.80309724892538], [-107.97984560513565, 38.802810659568564], [-107.97994014383612, 38.802522993757165], [-107.97994558672845, 38.802394195421186], [-107.97998345161595, 38.802148058199116], [-107.98038632805462, 38.802362621661544], [-107.98061949926132, 38.8023686499468], [-107.98092307503012, 38.80233351982911], [-107.98100809428354, 38.80227124942848], [-107.98122755001255, 38.80227692488674], [-107.98135655257894, 38.802473667760324], [-107.98152579787336, 38.8026929486789], [-107.98183086215062, 38.80294796010836], [-107.98213771766851, 38.8031600401489], [-107.9823983351021, 38.8031667796278], [-107.98264522717653, 38.80317315577486], [-107.98307315493345, 38.80311974467475], [-107.98351571085647, 38.80304522669003], [-107.98383615069805, 38.80293531838327], [-107.98424630079559, 38.802978149586174], [-107.98470495722343, 38.803172658032146], [-107.98522282161167, 38.8035219654317], [-107.98655201202521, 38.804075672350635], [-107.98727122300463, 38.80418130649268], [-107.98771420652574, 38.80410132992121], [-107.98835241012776, 38.803945887647174], [-107.98888477062977, 38.80360327765983], [-107.98932598357146, 38.803326303542796], [-107.98938607188079, 38.80326575685528], [-107.98974183797095, 38.802907239576214], [-107.99053149752991, 38.80208951061243], [-107.99080340498996, 38.8018278972205], [-107.9912760984925, 38.80168965852279], [-107.9914699180999, 38.80165167386475], [-107.99171184428734, 38.80177609668192], [-107.9917894569313, 38.80183755823067], [-107.99196432028955, 38.80197601436377], [-107.99226986516541, 38.80222027179373], [-107.99295585285238, 38.80256028138507], [-107.9935009038544, 38.80266027944984], [-107.99409908032398, 38.80263275848653], [-107.99518739198561, 38.80239210291879], [-107.99633623302942, 38.80217454044609], [-107.9975138525017, 38.80192546286185], [-107.99782213005271, 38.80221550152068], [-107.99793655116537, 38.802323149716955], [-107.9983621918116, 38.80259308157225], [-107.99838092707516, 38.8029496983629], [-107.9983197491094, 38.804807914404144], [-107.99827524746851, 38.805466274013284], [-107.99826196048718, 38.80578249705125], [-107.9976659660254, 38.80592544183086], [-107.99645933366442, 38.80615820451945], [-107.99522056048085, 38.80630175967086], [-107.99441252498451, 38.806466822186344], [-107.99397238912286, 38.80637118294183], [-107.99361821215237, 38.80637524940795], [-107.99333028773074, 38.806407408013136], [-107.993219273928, 38.80664196539374], [-107.99305907197346, 38.8072445752827], [-107.99299129139034, 38.808054014342176], [-107.99296228209488, 38.80902059425668], [-107.99294937150759, 38.80945107074033], [-107.99293551050275, 38.809780468900534], [-107.99276897632386, 38.81013230517356], [-107.99156618515899, 38.81147307126612], [-107.99037619588529, 38.812561119300696], [-107.9886781985386, 38.813997036240515], [-107.9875194984845, 38.81508828015733], [-107.98659615074669, 38.81659448266422], [-107.98590504895088, 38.817790125586015], [-107.985545981552, 38.818308443988016], [-107.98512178000684, 38.81877232059171], [-107.98508566683408, 38.82042672763712], [-107.98511872393829, 38.82164106156682], [-107.98494656450899, 38.8221246242108], [-107.98438155743298, 38.82312698900303], [-107.98395427646302, 38.824461316798214], [-107.98381426953439, 38.825380991829476], [-107.9837560955349, 38.825959848214495], [-107.98376593657883, 38.82605567740667], [-107.98381583170472, 38.826541751853426], [-107.98392427183418, 38.82676878066482], [-107.98450131364008, 38.82787845871506], [-107.98469691730163, 38.828437481026974], [-107.98457653407041, 38.829291720699786], [-107.98422696276246, 38.829945583150874], [-107.98380757169568, 38.83096790772623], [-107.98346060550202, 38.83148821695416], [-107.98315803135475, 38.83213442817923], [-107.98321497286561, 38.83278220451921], [-107.98325172114731, 38.83288739232266], [-107.9834707250237, 38.83351425992721], [-107.98357987392392, 38.83412381915028], [-107.98362666087891, 38.834613054563775], [-107.98339319861799, 38.83494995869658], [-107.9817833718148, 38.83562710484089], [-107.98056132885513, 38.836116578327285], [-107.9782866831646, 38.837662912861234], [-107.97804420092002, 38.83789401915146], [-107.97626567589629, 38.839589050896834], [-107.97470560677667, 38.84058535394887], [-107.9736876556596, 38.8410907720948], [-107.97222841434579, 38.84248397658574], [-107.97191390787661, 38.842784247191865], [-107.97007629526684, 38.84491650923872], [-107.96872693138695, 38.845946218957984], [-107.96776950965207, 38.84664678562272], [-107.96708220862818, 38.84734118028593], [-107.96664195598558, 38.84777818975218], [-107.96609058533551, 38.84884541948209], [-107.96526539920374, 38.85014827088108], [-107.96491529429649, 38.850701012230665], [-107.96452893338436, 38.85106027812758], [-107.96414287610281, 38.85129321159999], [-107.96253802057637, 38.85226151038261], [-107.96082000786683, 38.8533906691496], [-107.95886154939343, 38.85501475481683], [-107.95796793499318, 38.85579603919725], [-107.95669067438959, 38.85647498343874], [-107.95626493492871, 38.85656940045517], [-107.95526066425514, 38.85678062127102], [-107.95493207579557, 38.85696988807616], [-107.95487529508307, 38.857904883690274], [-107.9547014764655, 38.85849895234577], [-107.95385422771034, 38.860088843804576], [-107.95367949909937, 38.86062506766876], [-107.95345228462129, 38.86121835745168], [-107.9529538121651, 38.86214186350255], [-107.95252031844667, 38.86367065218818], [-107.9512714185549, 38.86526037275663], [-107.95036744568108, 38.86627874382203], [-107.94987136004865, 38.866832932835685], [-107.94908921130379, 38.868157848100886], [-107.94826944560646, 38.86917840038966], [-107.94734249382768, 38.870337266826446], [-107.9460726398336, 38.871623020356004], [-107.94578567840597, 38.87210192260342], [-107.94459813973641, 38.87335184137302], [-107.94412718177901, 38.87410451057737], [-107.94351615221434, 38.874793836777854], [-107.94333942934344, 38.87499321305036], [-107.94309880391648, 38.87526465274345], [-107.94263677431468, 38.87595623356752], [-107.94199892105563, 38.87691092174677], [-107.94168921608163, 38.877443586423134], [-107.94151451981004, 38.877805700538595], [-107.94133732622191, 38.87817298849537], [-107.94098145323224, 38.878994607335486], [-107.93982302536766, 38.881608772295], [-107.93908033152849, 38.883185241156156], [-107.93818376167093, 38.88441474166988], [-107.93758390445349, 38.885414601837475], [-107.93693063610407, 38.88647900956658], [-107.93530118470518, 38.88787389949129], [-107.93438889612682, 38.88868087568647], [-107.93158823024362, 38.89022957816605], [-107.93115489103545, 38.89051291879422], [-107.9309979814064, 38.89061551669438], [-107.93042470982977, 38.89099034988754], [-107.92936912828547, 38.8915956703087], [-107.92877664533813, 38.892028527311275], [-107.92825027659912, 38.89288518184803], [-107.92744961447457, 38.89384013198841], [-107.92653890333783, 38.894997936263366], [-107.92526403315121, 38.89677132295552], [-107.92468452277492, 38.89807501739252], [-107.92365377336002, 38.89966488914138], [-107.9236012740182, 38.900098752615904], [-107.92362204037266, 38.90118086443233], [-107.9236951066429, 38.90222477080735], [-107.92367520267112, 38.9026858842133], [-107.92386615575448, 38.90295471960138], [-107.9243905239454, 38.90371111584632], [-107.92506376723338, 38.90492912926474], [-107.92598256769925, 38.9063250682202], [-107.9264745615056, 38.90705027452473], [-107.92664696617494, 38.907358184847396], [-107.92693057688653, 38.90782729188237], [-107.92648057123485, 38.90964879627444], [-107.92619003181747, 38.9108572454473], [-107.92592501892716, 38.91195948636817], [-107.9255685773039, 38.91317673128322], [-107.92503950822913, 38.914481743297635], [-107.92431197166364, 38.916863080276855], [-107.92375460565742, 38.91882154509149], [-107.92381786052815, 38.91931122728437], [-107.92376534501662, 38.91974509999182], [-107.92322318119994, 38.92017924611551], [-107.92259668444271, 38.920611162173415], [-107.92221256213226, 38.9209043891485], [-107.92202024091482, 38.921311015371664], [-107.92202034781431, 38.9222398403387], [-107.92193601128051, 38.92308072565808], [-107.9217813115071, 38.923960092781506], [-107.92142258906131, 38.9247900149076], [-107.92095831007809, 38.92555398469639], [-107.92043069627407, 38.92630147299885], [-107.91969132799801, 38.927663446134034], [-107.91763057387162, 38.929802552141204], [-107.9161430715589, 38.93200137746382], [-107.91570109774422, 38.932711173128084], [-107.91554710853816, 38.93295846171946], [-107.91489067722077, 38.93401264296867], [-107.91452219368112, 38.93511081449039], [-107.91450218999633, 38.93557192457044], [-107.91411709750541, 38.93627396889884], [-107.91335383314446, 38.93693507177379], [-107.91327483889161, 38.93700348645716], [-107.91218838853926, 38.93791118376464], [-107.91176106624683, 38.938639366680846], [-107.91108649075721, 38.9397888515324], [-107.91074163560447, 38.940486835139524], [-107.9095388534228, 38.941754332107685], [-107.90930065883704, 38.94218327312812], [-107.90889147712342, 38.94266044196833], [-107.90818205508566, 38.94305051184149], [-107.9075930189741, 38.94339100821821], [-107.90719126003968, 38.94369690726321], [-107.90681807651448, 38.944122262818276], [-107.90651810568491, 38.94441766468269], [-107.9062495776869, 38.944766654473575], [-107.90644482561562, 38.945325796665266], [-107.90654031473369, 38.94546022734407], [-107.90643336311261, 38.94558928787783], [-107.9062023047434, 38.945807093676166], [-107.90613395373008, 38.94587151606367], [-107.90556776177617, 38.94623969417028], [-107.9055215075222, 38.94630707146085], [-107.90508991284223, 38.94691144440987], [-107.90453720819404, 38.94761552617961], [-107.90428746037536, 38.947933655475694], [-107.90415370841605, 38.9481095164935], [-107.90343574160335, 38.94873051678605], [-107.90213351681807, 38.949741687912606], [-107.90050696158758, 38.95124752074906], [-107.90005049255738, 38.95169469154579], [-107.89977868031876, 38.95214678181489], [-107.89961331394969, 38.952470461337676], [-107.89889493840347, 38.95352746468064], [-107.89829900143391, 38.954089031681065], [-107.8967156524737, 38.95493928091279], [-107.8957757335138, 38.955294841280924], [-107.89536060944461, 38.95541961849069], [-107.89453247953362, 38.95566854354794], [-107.89246047041502, 38.956545089634666], [-107.89135737877199, 38.95717184257907], [-107.89024149422102, 38.95770638635709], [-107.88875141284517, 38.95872566927814], [-107.88733701363368, 38.95993462433967], [-107.88625490663571, 38.9612311687502], [-107.88615603086902, 38.9615697239731], [-107.88617998085282, 38.962174022657834], [-107.8856105549639, 38.962893717687464], [-107.88507411341554, 38.96362740645613], [-107.88412808770838, 38.96526877130913], [-107.8839163790504, 38.96587989940243], [-107.88387487598597, 38.966443087405274], [-107.88350963536446, 38.96672203015638], [-107.88272060911783, 38.967081511150155], [-107.88152043025386, 38.967999526888214], [-107.88041900588398, 38.96934799057131], [-107.88009372771626, 38.969864213745], [-107.87987553232362, 38.97023894755712], [-107.88012981843112, 38.970573826592656], [-107.88066550359798, 38.971008098058284], [-107.88120580700367, 38.97133750704303], [-107.88172989492023, 38.97165336480556], [-107.8823547306925, 38.97197190370841], [-107.88279890088808, 38.972193750362045], [-107.88309539883082, 38.972332906401036], [-107.88323156546154, 38.972677763933504], [-107.8828883784803, 38.97321975285111], [-107.88214273726862, 38.97373786137026], [-107.8814486243199, 38.97423109692416], [-107.88113841628942, 38.97478708746423], [-107.88093701220605, 38.9751622708181], [-107.88078137818478, 38.975643663400675], [-107.88115724138449, 38.975889935567295], [-107.88136227016994, 38.97610467812477], [-107.88163943007953, 38.976394954141924], [-107.88177157405448, 38.97683154405416], [-107.881812077294, 38.977266938499106], [-107.88184011371402, 38.97756827221015], [-107.88205679364877, 38.9779940145703], [-107.88232281894035, 38.97818031096481], [-107.88275817576468, 38.97848519600916], [-107.88320768195311, 38.978969650524334], [-107.88356171788807, 38.97934039829902], [-107.88406842430213, 38.980076979543284], [-107.88412468578838, 38.98028034499937], [-107.88485342879123, 38.98092961098214], [-107.88534861970177, 38.98113969101565], [-107.886743885696, 38.98191186408481], [-107.88735434752543, 38.98217750339384], [-107.8888735531811, 38.982808597096195], [-107.88958953381875, 38.98335262777585], [-107.88989026192809, 38.98378058661749], [-107.88985466079505, 38.98459327548178], [-107.88966093640906, 38.98594503601621], [-107.88984239429988, 38.98794459195387], [-107.89006733783687, 38.9885673825064], [-107.89017070158675, 38.98927878252646], [-107.8902081559442, 38.990342757195464], [-107.8903800135395, 38.991410311635995], [-107.89066263251104, 38.99225248092354], [-107.89105612784313, 38.992866638124674], [-107.89142236469631, 38.99333571508892], [-107.8922125362949, 38.993724238802116], [-107.89306322020775, 38.99454621723785], [-107.8931483050382, 38.99462842879906], [-107.89338782284239, 38.9949509151396], [-107.89385123944298, 38.995473931937745], [-107.8948706440341, 38.99677401819213], [-107.89515464910615, 38.99720153075808], [-107.89549954288643, 38.9977750081512], [-107.89571751909013, 38.99817451018104], [-107.89598242418255, 38.99865399746498], [-107.89584937111258, 38.99900477680941], [-107.89562887333787, 38.99943196383477], [-107.89555445510315, 38.999595332509216], [-107.89573585819664, 38.999783861208115], [-107.89602097089139, 39.00008019198224], [-107.89645618757858, 39.00051171899169], [-107.89684501885776, 39.00085015345826], [-107.89682267865494, 39.001361353052445], [-107.89689823685178, 39.001940786454625], [-107.89713664793155, 39.00264265776872], [-107.89757797226434, 39.003704257684724], [-107.89841400465488, 39.00458606896203], [-107.89876754741472, 39.004962924741946], [-107.89903193867084, 39.00545551623278], [-107.89899871627665, 39.006215768520086], [-107.89893934302629, 39.006804726913], [-107.89877801278783, 39.00741722768993], [-107.89867683463898, 39.00780822823251], [-107.89834616478292, 39.008061888272906], [-107.89805059659659, 39.00827201133101], [-107.89763443317656, 39.00856786678864], [-107.89737778899149, 39.00905184458165], [-107.89673702339424, 39.01024211307135], [-107.8964559378469, 39.01058930019973], [-107.89618581084771, 39.01092295461779], [-107.89564129793659, 39.01106593293194], [-107.89503474827019, 39.01108914115889], [-107.89453802213892, 39.01103698144508], [-107.89419757322267, 39.01100122850293], [-107.89453432107997, 39.011377648750276], [-107.8945379323074, 39.011679574347426], [-107.8944767857826, 39.01230785170175], [-107.89395757302316, 39.013409482174985], [-107.89335849374667, 39.014797685739424], [-107.89295580775087, 39.01515833463665], [-107.8924803357592, 39.015644337504234], [-107.89181889184248, 39.01615161791764], [-107.89026245910308, 39.017120574751154], [-107.88953550644258, 39.01758672913599], [-107.88875122599559, 39.01820883026473], [-107.88830182760502, 39.018866106086215], [-107.88805463369673, 39.01951565600016], [-107.88811910039479, 39.01996356130501], [-107.88831930253225, 39.020384910678224], [-107.88908534628068, 39.02056283562117], [-107.89035317906537, 39.02080664279053], [-107.89091126911372, 39.02112336787045], [-107.89127820485614, 39.021579335705816], [-107.89151417431496, 39.02195308040886], [-107.8913143961823, 39.0222889535814], [-107.89103762973478, 39.02284585773917], [-107.89071908444015, 39.02321253027829], [-107.88997453827477, 39.023303046245054], [-107.88952497728911, 39.02357975643574], [-107.8894625102409, 39.02385367260085], [-107.88919204817014, 39.02426639110706], [-107.88836396317494, 39.02511827591063], [-107.88807611511008, 39.02554365826037], [-107.88725857903128, 39.025771163511195], [-107.8868970529435, 39.02595835163068], [-107.8867099078187, 39.02600584138894], [-107.88675064911173, 39.02661059293094], [-107.88653345893393, 39.02695911145918], [-107.88612151220592, 39.027144952365646], [-107.88618999078004, 39.02750110135029], [-107.88616524219395, 39.02806473354607], [-107.88612425655911, 39.02861480850454], [-107.88602641205837, 39.02892714619631], [-107.88540903230289, 39.02898553067026], [-107.88669711131745, 39.02974557327876], [-107.8867969788242, 39.02983849745731], [-107.88755383101064, 39.03054271294083], [-107.88848827833215, 39.03148627877167], [-107.88959003058712, 39.032391715956216], [-107.89000871557809, 39.03287985285373], [-107.89011431433637, 39.03312134831416], [-107.88974883116973, 39.0338177821487], [-107.88992335586317, 39.03405864988567], [-107.89018132506327, 39.03431487362], [-107.8904068426238, 39.03454398065603], [-107.89107578926976, 39.03502114062084], [-107.89166773053297, 39.035719330161086], [-107.89201678890292, 39.036201068597485], [-107.89245677564426, 39.03652775921232], [-107.89331751709499, 39.036852532272476], [-107.89368076435487, 39.037011089302595], [-107.89437421704179, 39.03731376716698], [-107.89503861641583, 39.037895762592015], [-107.89573376691862, 39.038544186630595], [-107.89610196209912, 39.038973932067606], [-107.89609293942041, 39.039564230081304], [-107.89601480934685, 39.03981148547747], [-107.89598479393827, 39.04011251657341], [-107.89597704147741, 39.040289507146376], [-107.89620793006499, 39.040383346130845], [-107.89697568869731, 39.04043067688404], [-107.89818759057569, 39.04059223725041], [-107.89942770224901, 39.040650363698894], [-107.90078009524805, 39.04084349883982], [-107.90103381990846, 39.040863685938476], [-107.90073202819381, 39.04122310435835], [-107.90044590040274, 39.0416091853897], [-107.9003585985302, 39.04206617089835], [-107.90013356965319, 39.042978804631026], [-107.89998723948331, 39.04363105769629], [-107.9000422675827, 39.04391204536882], [-107.90057819349803, 39.04457493226069], [-107.90119976479254, 39.04515015483206], [-107.90183639813948, 39.04560014420464], [-107.90211833618805, 39.04608007110525], [-107.90248451105738, 39.04694280389292], [-107.90302421888013, 39.048351051581704], [-107.90333388522654, 39.04907163193865], [-107.9038462330606, 39.05005635737072], [-107.90406210001998, 39.05050827790329], [-107.90425065010993, 39.050815122732885], [-107.90433375774846, 39.05122413501504], [-107.90426863617857, 39.05194417052683], [-107.90405028717406, 39.05231894058698], [-107.90395478368293, 39.05257886446035], [-107.90394618231412, 39.05277548220105], [-107.9040814003239, 39.05328967301049], [-107.90415363655083, 39.053673262565205], [-107.90419977402382, 39.05397519726524], [-107.90452540433118, 39.054330823169124], [-107.90479632005122, 39.05458089604131], [-107.90491198443222, 39.05498877247998], [-107.90493152009469, 39.055220604178416], [-107.90497542435591, 39.05542004741588], [-107.90500578381923, 39.055557981566004], [-107.9052696369845, 39.055969784560546], [-107.90564141015474, 39.05669250473622], [-107.90567981582805, 39.05676714735897], [-107.90597129218833, 39.057225952388585], [-107.90638161386401, 39.05734094318909], [-107.90732536234192, 39.05747008160805], [-107.90802698790131, 39.05770845447941], [-107.90847642402113, 39.058287099677436], [-107.90866873266224, 39.05863917639041], [-107.90883343876958, 39.05894425041159], [-107.90906567123682, 39.05940148160529], [-107.90911907338551, 39.059877086292275], [-107.90889449456444, 39.06026436137031], [-107.90867461842394, 39.06076003912137], [-107.90844561629848, 39.06069195603997], [-107.90743095840527, 39.06082694123336], [-107.90671163783139, 39.06099290233647], [-107.90631932378386, 39.06114440488966], [-107.90610984384615, 39.06118510856398], [-107.90627018953109, 39.06138542079968], [-107.90642462519979, 39.061699372757275], [-107.90651226573722, 39.06214265616708], [-107.9064296800199, 39.06228347323435], [-107.9062086414594, 39.062444450026554], [-107.90585764272848, 39.06278073966961], [-107.90552399136396, 39.063069810506526], [-107.90526824998571, 39.06332521059991], [-107.90478190209089, 39.06361023374203], [-107.90418225058758, 39.06368963781315], [-107.90370942593104, 39.06366515161086], [-107.90312608783333, 39.063721153341056], [-107.90289355083718, 39.06365821922271], [-107.90258265290049, 39.06356369552979], [-107.90226408155465, 39.0635075590582], [-107.90185563556128, 39.06375888211887], [-107.90156932631055, 39.0640134566811], [-107.90134410878738, 39.064269656866074], [-107.90118896883946, 39.06467071941938], [-107.90109907532731, 39.06497818833287], [-107.90082343087562, 39.065518933141995], [-107.90035311970524, 39.06568819691177], [-107.89988690575089, 39.065721007452616], [-107.8994485296889, 39.06576767257761], [-107.89914965929557, 39.06586091903842], [-107.89853238913462, 39.066019291688896], [-107.89812414077059, 39.06612955327652], [-107.89757696974449, 39.06620751982139], [-107.89673000395862, 39.06624954297562], [-107.89647565047751, 39.06624696513407], [-107.89615093914674, 39.06621911802192], [-107.89578077575747, 39.066210444306236], [-107.89533987453123, 39.066167490705304], [-107.8950375034032, 39.06612105042972], [-107.89469976380585, 39.066057460039474], [-107.89442012634271, 39.06600141622211], [-107.89405965667368, 39.06594740688304], [-107.89375730890193, 39.065900933681526], [-107.89345604360001, 39.06588148050399], [-107.89285135614125, 39.06588396280532], [-107.8922312419141, 39.06592977900023], [-107.89204981636269, 39.06603205469551], [-107.89182060672637, 39.06616125603179], [-107.89169316273697, 39.06637684959428], [-107.89146290746172, 39.06657728798662], [-107.89116764200756, 39.06657576821103], [-107.89062211939002, 39.06656274584578], [-107.89004292432244, 39.066559409173905], [-107.88952440326571, 39.066651934108464], [-107.88886688588505, 39.06684703962256], [-107.8883727073759, 39.06708764548612], [-107.88807219126896, 39.0672872902456], [-107.88796737763826, 39.067416868700626], [-107.8878176500399, 39.06734365177993], [-107.88752179259608, 39.06728662487101], [-107.88725481059868, 39.067245601791555], [-107.8868395167479, 39.06733906251182], [-107.88680165814854, 39.06750490717481], [-107.88678647033201, 39.06785009800646], [-107.88694034904523, 39.06843579217023], [-107.88707259632645, 39.06864429623909], [-107.88685997587845, 39.068690435651185], [-107.88652819570466, 39.06881992504736], [-107.88611500211505, 39.06886048480764], [-107.88559983536757, 39.06894398183567], [-107.88524859678647, 39.06899675999127], [-107.88495558969694, 39.06904077965166], [-107.88441739643383, 39.06919558892685], [-107.88361939422083, 39.06944270711799], [-107.88318972103733, 39.069610003779346], [-107.88245253476907, 39.069971850830605], [-107.88203418395133, 39.070204528830146], [-107.88162308343632, 39.07042884670727], [-107.88131936034378, 39.07062942772384], [-107.88107918766775, 39.07081413971018], [-107.88090317266928, 39.070997263185234], [-107.88074642653368, 39.071054955922456], [-107.8804602421488, 39.071158383999865], [-107.87984943087473, 39.071252138731545], [-107.8792412570543, 39.07141018335557], [-107.87861496331632, 39.07156241397073], [-107.87842930849658, 39.0715473344521], [-107.87829554755415, 39.07146032413011], [-107.8778916542226, 39.071258806052256], [-107.87755409069506, 39.07093991492714], [-107.87690272407916, 39.07080328013816], [-107.8764298895412, 39.07077869318488], [-107.87601285295872, 39.07087476037566], [-107.87574327932171, 39.07109397937668], [-107.87516672350439, 39.07134069199803], [-107.87459390288204, 39.07219530031618], [-107.87421274052042, 39.07266147219375], [-107.87364630332642, 39.07307969263428], [-107.87317855774455, 39.0733741965635], [-107.87268613993336, 39.073699621735294], [-107.8721645187906, 39.07394492070044], [-107.87154174375355, 39.07426603337804], [-107.87101301154699, 39.07466851549534], [-107.87077303111042, 39.07481990431407], [-107.87027270363312, 39.075000923158484], [-107.86997720282045, 39.07492296772195], [-107.86974686669676, 39.074752338304194], [-107.86945250674444, 39.07452714779156], [-107.8691839814414, 39.074368385561996], [-107.86867063018916, 39.07431020666437], [-107.86827394404116, 39.07432881995563], [-107.86796900912131, 39.07439187427418], [-107.86752017487277, 39.074514081563265], [-107.86710134974456, 39.0747366213608], [-107.86690432943985, 39.07499411392536], [-107.86678339015141, 39.075209322054384], [-107.86665686603696, 39.075606564988625], [-107.8665554210885, 39.07598298495806], [-107.86642029740182, 39.07616821711754], [-107.86620665017948, 39.07633517355977], [-107.86595086568214, 39.07642230967367], [-107.86555383547935, 39.07654324633205], [-107.86519729144814, 39.07670360690972], [-107.86491764949345, 39.07684186210518], [-107.86471652837942, 39.07699838930422], [-107.86423016162001, 39.07747523388395], [-107.86349086251421, 39.07810986636629], [-107.86307852501903, 39.078493924272685], [-107.8627786871401, 39.078774151194814], [-107.86262855260499, 39.078909227331266], [-107.86241864596751, 39.078641774921486], [-107.8622407723547, 39.078342122137755], [-107.86205128711858, 39.07802284251782], [-107.86182352466815, 39.07765011755839], [-107.86156343274901, 39.07752344285572], [-107.86131857446046, 39.07759381585902], [-107.86104967725487, 39.0777505791878], [-107.86080655361314, 39.077863818974976], [-107.86050842882145, 39.07797839819374], [-107.86038387561071, 39.07807441862405], [-107.86034266629538, 39.0781898461757], [-107.86037679688627, 39.07835347287763], [-107.86038372649037, 39.07852491296981], [-107.86037319464198, 39.07871825206287], [-107.86031913312989, 39.07896986614725], [-107.86018345697926, 39.07924492249861], [-107.85999235297898, 39.0794489428302], [-107.85958927262276, 39.079741817005065], [-107.85922438953074, 39.07996824746887], [-107.85889930719571, 39.08007358363039], [-107.85849017399119, 39.080065919261244], [-107.85827578655704, 39.079966052963776], [-107.8579199342286, 39.07982319032966], [-107.85764383433107, 39.07972890864271], [-107.85745531029228, 39.07961767878148], [-107.85729849318977, 39.07952514643795], [-107.85709441302518, 39.07928760384909], [-107.8569409214859, 39.0790185064498], [-107.85679021113064, 39.07849669204267], [-107.85665528686995, 39.07804522261961]]]]}, "properties": {"huc12": "140200050111", "name": "Surface Creek", "role": "main", "areasqkm": 118.62}}]}