{"type": "FeatureCollection", "features": [{"type": "Feature", "geometry": {"type": "Point", "coordinates": [-107.853889, 38.984722]}, "properties": {"WDID": "SURCEDCO", "name": "SURFACE CREEK NEAR CEDAREDGE (USGS 09143000)", "structType": "Stream Gage", "subBasin": "Gage", "waterSrc": "SURFACE CREEK"}}, {"type": "Feature", "geometry": {"type": "Point", "coordinates": [-107.921176, 38.9016487]}, "properties": {"WDID": "SURACECO", "name": "SURFACE CREEK AT CEDAREDGE (USGS 09143500)", "structType": "Stream Gage", "subBasin": "Gage", "waterSrc": "SURFACE CREEK"}}, {"type": "Feature", "geometry": {"type": "Point", "coordinates": [-107.871697, 39.054543]}, "properties": {"WDID": "4003125", "name": "BLANCHE PARK RES", "structType": "Reservoir", "subBasin": "Within Grand Mesa NF (Surface Creek HUC12 headwaters)", "waterSrc": "WEST FORK BONITA SURFACE CREEK [00175308]"}}, {"type": "Feature", "geometry": {"type": "Point", "coordinates": [-107.807741, 39.064696]}, "properties": {"WDID": "4003138", "name": "LEON TUNNEL OUTLET", "structType": "Pipeline", "subBasin": "Within Grand Mesa NF (Surface Creek HUC12 headwaters)", "waterSrc": "MARCOTT CREEK [00175356]"}}, {"type": "Feature", "geometry": {"type": "Point", "coordinates": [-107.845307, 39.053109]}, "properties": {"WDID": "4003341", "name": "BONITA RES", "structType": "Reservoir", "subBasin": "Within Grand Mesa NF (Surface Creek HUC12 headwaters)", "waterSrc": "SURFACE CREEK [00175359]"}}, {"type": "Feature", "geometry": {"type": "Point", "coordinates": [-107.88321, 39.03961]}, "properties": {"WDID": "4003342", "name": "CABIN LAKE RESERVOIR", "structType": "Reservoir", "subBasin": "Within Grand Mesa NF (Surface Creek HUC12 headwaters)", "waterSrc": "WEST FORK BONITA SURFACE CREEK [00175308]"}}, {"type": "Feature", "geometry": {"type": "Point", "coordinates": [-107.846714, 39.049309]}, "properties": {"WDID": "4003343", "name": "CEDAR MESA RESERVOIR", "structType": "Reservoir", "subBasin": "Within Grand Mesa NF (Surface Creek HUC12 headwaters)", "waterSrc": "SURFACE CREEK [00175359]"}}, {"type": "Feature", "geometry": {"type": "Point", "coordinates": [-107.845717, 39.019009]}, "properties": {"WDID": "4003344", "name": "COLE RESERVOIR NO. 4", "structType": "Reservoir", "subBasin": "Within Grand Mesa NF (Surface Creek HUC12 headwaters)", "waterSrc": "SURFACE CREEK [00175359]"}}, {"type": "Feature", "geometry": {"type": "Point", "coordinates": [-107.846037, 39.003947]}, "properties": {"WDID": "4003345", "name": "COLE RESERVOIR NO. 5", "structType": "Reservoir", "subBasin": "Within Grand Mesa NF (Surface Creek HUC12 headwaters)", "waterSrc": "SURFACE CREEK [00175359]"}}, {"type": "Feature", "geometry": {"type": "Point", "coordinates": [-107.863916, 39.04641]}, "properties": {"WDID": "4003346", "name": "DESERTED PARK RESERVOIR", "structType": "Reservoir", "subBasin": "Within Grand Mesa NF (Surface Creek HUC12 headwaters)", "waterSrc": "SURFACE CREEK [00175359]"}}, {"type": "Feature", "geometry": {"type": "Point", "coordinates": [-107.86181, 39.020011]}, "properties": {"WDID": "4003347", "name": "DREYFUS RESERVOIR", "structType": "Reservoir", "subBasin": "Within Grand Mesa NF (Surface Creek HUC12 headwaters)", "waterSrc": "SURFACE CREEK [00175359]"}}, {"type": "Feature", "geometry": {"type": "Point", "coordinates": [-107.886811, 39.045205]}, "properties": {"WDID": "4003348", "name": "ELK PARK RESERVOIR", "structType": "Reservoir", "subBasin": "Within Grand Mesa NF (Surface Creek HUC12 headwaters)", "waterSrc": "WEST FORK BONITA SURFACE CREEK [00175308]"}}, {"type": "Feature", "geometry": {"type": "Point", "coordinates": [-107.886907, 39.040203]}, "properties": {"WDID": "4003350", "name": "FISH LAKE RESERVOIR", "structType": "Reservoir", "subBasin": "Within Grand Mesa NF (Surface Creek HUC12 headwaters)", "waterSrc": "WEST FORK BONITA SURFACE CREEK [00175308]"}}, {"type": "Feature", "geometry": {"type": "Point", "coordinates": [-107.89211, 39.053605]}, "properties": {"WDID": "4003351", "name": "GREENWOOD RESERVOIR", "structType": "Reservoir", "subBasin": "Within Grand Mesa NF (Surface Creek HUC12 headwaters)", "waterSrc": "WEST FORK BONITA SURFACE CREEK [00175308]"}}, {"type": "Feature", "geometry": {"type": "Point", "coordinates": [-107.833113, 39.058208]}, "properties": {"WDID": "4003352", "name": "KEHMEIER RESERVOIR", "structType": "Reservoir", "subBasin": "Within Grand Mesa NF (Surface Creek HUC12 headwaters)", "waterSrc": "BONITA CREEK [00175342]"}}, {"type": "Feature", "geometry": {"type": "Point", "coordinates": [-107.878109, 39.042006]}, "properties": {"WDID": "4003353", "name": "KNOX RESERVOIR", "structType": "Reservoir", "subBasin": "Within Grand Mesa NF (Surface Creek HUC12 headwaters)", "waterSrc": "SURFACE CREEK [00175359]"}}, {"type": "Feature", "geometry": {"type": "Point", "coordinates": [-107.887811, 39.058703]}, "properties": {"WDID": "4003354", "name": "MILITARY PARK RESERVOIR", "structType": "Reservoir", "subBasin": "Within Grand Mesa NF (Surface Creek HUC12 headwaters)", "waterSrc": "WEST FORK BONITA SURFACE CREEK [00175308]"}}, {"type": "Feature", "geometry": {"type": "Point", "coordinates": [-107.875099, 39.046134]}, "properties": {"WDID": "4003355", "name": "PARK RESERVOIR", "structType": "Reservoir", "subBasin": "Within Grand Mesa NF (Surface Creek HUC12 headwaters)", "waterSrc": "SURFACE CREEK [00175359]"}}, {"type": "Feature", "geometry": {"type": "Point", "coordinates": [-107.832415, 39.068207]}, "properties": {"WDID": "4003356", "name": "ROUND LAKE RESERVOIR", "structType": "Reservoir", "subBasin": "Within Grand Mesa NF (Surface Creek HUC12 headwaters)", "waterSrc": "BONITA CREEK [00175342]"}}, {"type": "Feature", "geometry": {"type": "Point", "coordinates": [-107.83211, 39.065205]}, "properties": {"WDID": "4003357", "name": "SACKETT RESERVOIR", "structType": "Reservoir", "subBasin": "Within Grand Mesa NF (Surface Creek HUC12 headwaters)", "waterSrc": "BONITA CREEK [00175342]"}}, {"type": "Feature", "geometry": {"type": "Point", "coordinates": [-107.833313, 39.047608]}, "properties": {"WDID": "4003359", "name": "TRIO RESERVOIR", "structType": "Reservoir", "subBasin": "Within Grand Mesa NF (Surface Creek HUC12 headwaters)", "waterSrc": "SURFACE CREEK [00175359]"}}, {"type": "Feature", "geometry": {"type": "Point", "coordinates": [-107.840214, 39.064702]}, "properties": {"WDID": "4003360", "name": "TWIN LAKE RESERVOIR NO. 1", "structType": "Reservoir", "subBasin": "Within Grand Mesa NF (Surface Creek HUC12 headwaters)", "waterSrc": "BONITA CREEK [00175342]"}}, {"type": "Feature", "geometry": {"type": "Point", "coordinates": [-107.842107, 39.068106]}, "properties": {"WDID": "4003361", "name": "TWIN LAKE RESERVOIR NO. 2", "structType": "Reservoir", "subBasin": "Within Grand Mesa NF (Surface Creek HUC12 headwaters)", "waterSrc": "BONITA CREEK [00175342]"}}, {"type": "Feature", "geometry": {"type": "Point", "coordinates": [-107.871717, 39.06301]}, "properties": {"WDID": "4003362", "name": "VELA RESERVOIR", "structType": "Reservoir", "subBasin": "Within Grand Mesa NF (Surface Creek HUC12 headwaters)", "waterSrc": "WEST FORK BONITA SURFACE CREEK [00175308]"}}, {"type": "Feature", "geometry": {"type": "Point", "coordinates": [-107.831215, 39.066803]}, "properties": {"WDID": "4003363", "name": "WEIR & JOHNSON RESERVOIR NO. 2", "structType": "Reservoir", "subBasin": "Within Grand Mesa NF (Surface Creek HUC12 headwaters)", "waterSrc": "BONITA CREEK [00175342]"}}, {"type": "Feature", "geometry": {"type": "Point", "coordinates": [-107.88471, 39.035609]}, "properties": {"WDID": "4003364", "name": "WEIR PARK RESERVOIR", "structType": "Reservoir", "subBasin": "Within Grand Mesa NF (Surface Creek HUC12 headwaters)", "waterSrc": "WEST FORK BONITA SURFACE CREEK [00175308]"}}, {"type": "Feature", "geometry": {"type": "Point", "coordinates": [-107.878717, 39.003505]}, "properties": {"WDID": "4003366", "name": "CARBONATE CAMP RESERVOIR NO. 3", "structType": "Reservoir", "subBasin": "Within Grand Mesa NF (Surface Creek HUC12 headwaters)", "waterSrc": "SURFACE CREEK [00175359]"}}, {"type": "Feature", "geometry": {"type": "Point", "coordinates": [-107.815408, 39.046204]}, "properties": {"WDID": "4003378", "name": "CALUMET RESERVOIR", "structType": "Reservoir", "subBasin": "Within Grand Mesa NF (Surface Creek HUC12 headwaters)", "waterSrc": "MARCOTT CREEK [00175356]"}}, {"type": "Feature", "geometry": {"type": "Point", "coordinates": [-107.82211, 39.055808]}, "properties": {"WDID": "4003379", "name": "COLE RESERVOIR NO. 1", "structType": "Reservoir", "subBasin": "Within Grand Mesa NF (Surface Creek HUC12 headwaters)", "waterSrc": "MARCOTT CREEK [00175356]"}}, {"type": "Feature", "geometry": {"type": "Point", "coordinates": [-107.814514, 39.052208]}, "properties": {"WDID": "4003380", "name": "COLE RESERVOIR NO. 2", "structType": "Reservoir", "subBasin": "Within Grand Mesa NF (Surface Creek HUC12 headwaters)", "waterSrc": "MARCOTT CREEK [00175356]"}}, {"type": "Feature", "geometry": {"type": "Point", "coordinates": [-107.821215, 39.046109]}, "properties": {"WDID": "4003381", "name": "COLE RESERVOIR NO. 3", "structType": "Reservoir", "subBasin": "Within Grand Mesa NF (Surface Creek HUC12 headwaters)", "waterSrc": "SURFACE CREEK [00175359]"}}, {"type": "Feature", "geometry": {"type": "Point", "coordinates": [-107.813703, 39.047201]}, "properties": {"WDID": "4003382", "name": "DOUGHTY RESERVOIR NO. 1", "structType": "Reservoir", "subBasin": "Within Grand Mesa NF (Surface Creek HUC12 headwaters)", "waterSrc": "MARCOTT CREEK [00175356]"}}, {"type": "Feature", "geometry": {"type": "Point", "coordinates": [-107.81641, 39.043505]}, "properties": {"WDID": "4003383", "name": "DOUGHTY RESERVOIR NO. 2", "structType": "Reservoir", "subBasin": "Within Grand Mesa NF (Surface Creek HUC12 headwaters)", "waterSrc": "MARCOTT CREEK [00175356]"}}, {"type": "Feature", "geometry": {"type": "Point", "coordinates": [-107.789516, 39.03971]}, "properties": {"WDID": "4003384", "name": "HALE RES", "structType": "Reservoir", "subBasin": "Within Grand Mesa NF (Surface Creek HUC12 headwaters)", "waterSrc": "BEAVER CREEK [00175357]"}}, {"type": "Feature", "geometry": {"type": "Point", "coordinates": [-107.813729, 39.066488]}, "properties": {"WDID": "4003385", "name": "LEON PARK RES", "structType": "Reservoir", "subBasin": "Within Grand Mesa NF (Surface Creek HUC12 headwaters)", "waterSrc": "MARCOTT CREEK [00175356]"}}, {"type": "Feature", "geometry": {"type": "Point", "coordinates": [-107.788307, 39.040405]}, "properties": {"WDID": "4003386", "name": "LITTLE GIANT NO 1 RES", "structType": "Reservoir", "subBasin": "Within Grand Mesa NF (Surface Creek HUC12 headwaters)", "waterSrc": "BEAVER CREEK [00175357]"}}, {"type": "Feature", "geometry": {"type": "Point", "coordinates": [-107.784826, 39.045885]}, "properties": {"WDID": "4003387", "name": "LITTLE GIANT NO 2 RES", "structType": "Reservoir", "subBasin": "Within Grand Mesa NF (Surface Creek HUC12 headwaters)", "waterSrc": "BEAVER CREEK [00175357]"}}, {"type": "Feature", "geometry": {"type": "Point", "coordinates": [-107.809218, 39.034606]}, "properties": {"WDID": "4003388", "name": "MARCOTT PARK RES", "structType": "Reservoir", "subBasin": "Within Grand Mesa NF (Surface Creek HUC12 headwaters)", "waterSrc": "SURFACE CREEK [00175359]"}}, {"type": "Feature", "geometry": {"type": "Point", "coordinates": [-107.797611, 39.033209]}, "properties": {"WDID": "4003389", "name": "TRICKLE RESERVOIR", "structType": "Reservoir", "subBasin": "Within Grand Mesa NF (Surface Creek HUC12 headwaters)", "waterSrc": "BEAVER CREEK [00175357]"}}, {"type": "Feature", "geometry": {"type": "Point", "coordinates": [-107.808015, 39.053806]}, "properties": {"WDID": "4003390", "name": "Y & S RESERVOIR", "structType": "Reservoir", "subBasin": "Within Grand Mesa NF (Surface Creek HUC12 headwaters)", "waterSrc": "MARCOTT CREEK [00175356]"}}, {"type": "Feature", "geometry": {"type": "Point", "coordinates": [-107.792264, 39.046927]}, "properties": {"WDID": "4003461", "name": "ZIGZAG RESERVOIR", "structType": "Reservoir", "subBasin": "Within Grand Mesa NF (Surface Creek HUC12 headwaters)", "waterSrc": "SURFACE CREEK [00175359]"}}, {"type": "Feature", "geometry": {"type": "Point", "coordinates": [-107.787618, 39.0469]}, "properties": {"WDID": "4003468", "name": "LAST CHANCE RES", "structType": "Reservoir", "subBasin": "Within Grand Mesa NF (Surface Creek HUC12 headwaters)", "waterSrc": "BEAVER CREEK [00175357]"}}, {"type": "Feature", "geometry": {"type": "Point", "coordinates": [-107.893812, 39.050302]}, "properties": {"WDID": "4003523", "name": "PEAK RESERVOIR", "structType": "Reservoir", "subBasin": "Within Grand Mesa NF (Surface Creek HUC12 headwaters)", "waterSrc": "WEST FORK BONITA SURFACE CREEK [00175308]"}}, {"type": "Feature", "geometry": {"type": "Point", "coordinates": [-107.877487, 39.042949]}, "properties": {"WDID": "4004004", "name": "SURFACE CREEK RESERVOIR GROUP", "structType": "Reservoir System", "subBasin": "Within Grand Mesa NF (Surface Creek HUC12 headwaters)", "waterSrc": "SURFACE CREEK [00175359]"}}, {"type": "Feature", "geometry": {"type": "Point", "coordinates": [-107.846714, 39.049309]}, "properties": {"WDID": "4004032", "name": "BONITA CREEK RESERVOIR GROUP", "structType": "Reservoir System", "subBasin": "Within Grand Mesa NF (Surface Creek HUC12 headwaters)", "waterSrc": "BONITA CREEK [00175342]"}}, {"type": "Feature", "geometry": {"type": "Point", "coordinates": [-107.809218, 39.034606]}, "properties": {"WDID": "4004033", "name": "MARCOTT CREEK RESERVOIR GROUP", "structType": "Reservoir System", "subBasin": "Within Grand Mesa NF (Surface Creek HUC12 headwaters)", "waterSrc": "MARCOTT CREEK [00175356]"}}, {"type": "Feature", "geometry": {"type": "Point", "coordinates": [-107.797611, 39.033209]}, "properties": {"WDID": "4004040", "name": "BEAVER CREEK RESERVOIR GROUP", "structType": "Reservoir System", "subBasin": "Within Grand Mesa NF (Surface Creek HUC12 headwaters)", "waterSrc": "BEAVER CREEK [00175357]"}}, {"type": "Feature", "geometry": {"type": "Point", "coordinates": [-107.863887, 38.979906]}, "properties": {"WDID": "4000692", "name": "SOONER DITCH", "structType": "Ditch", "subBasin": "Below Grand Mesa NF to Alfalfa Ditch (Surface Creek HUC12)", "waterSrc": ""}}, {"type": "Feature", "geometry": {"type": "Point", "coordinates": [-107.86534, 38.979591]}, "properties": {"WDID": "4000675", "name": "CEDAR MESA DITCH", "structType": "Ditch", "subBasin": "Below Grand Mesa NF to Alfalfa Ditch (Surface Creek HUC12)", "waterSrc": ""}}, {"type": "Feature", "geometry": {"type": "Point", "coordinates": [-107.871755, 38.975812]}, "properties": {"WDID": "4018230", "name": "BEAN P/A POD", "structType": "Measuring Point", "subBasin": "Below Grand Mesa NF to Alfalfa Ditch (Surface Creek HUC12)", "waterSrc": "Measuring Point"}}, {"type": "Feature", "geometry": {"type": "Point", "coordinates": [-107.879239, 38.969663]}, "properties": {"WDID": "4000685", "name": "KLONDYKE DITCH", "structType": "Ditch", "subBasin": "Below Grand Mesa NF to Alfalfa Ditch (Surface Creek HUC12)", "waterSrc": ""}}, {"type": "Feature", "geometry": {"type": "Point", "coordinates": [-107.871755, 38.975812]}, "properties": {"WDID": "4006216", "name": "USCDWUA DIV.PT", "structType": "Pipeline/Diversion Point", "subBasin": "Below Grand Mesa NF to Alfalfa Ditch (Surface Creek HUC12)", "waterSrc": "Pipeline; not sure about water source"}}, {"type": "Feature", "geometry": {"type": "Point", "coordinates": [-107.882553, 38.966023]}, "properties": {"WDID": "4003197", "name": "HEYN PUMP", "structType": "Pump", "subBasin": "Below Grand Mesa NF to Alfalfa Ditch (Surface Creek HUC12)", "waterSrc": "Mill Creek"}}, {"type": "Feature", "geometry": {"type": "Point", "coordinates": [-107.876, 38.965212]}, "properties": {"WDID": "4000686", "name": "LONE PINE DITCH", "structType": "Ditch", "subBasin": "Below Grand Mesa NF to Alfalfa Ditch (Surface Creek HUC12)", "waterSrc": ""}}, {"type": "Feature", "geometry": {"type": "Point", "coordinates": [-107.883644, 38.964473]}, "properties": {"WDID": "4004158", "name": "EASTMENT PUMP", "structType": "Pump", "subBasin": "Below Grand Mesa NF to Alfalfa Ditch (Surface Creek HUC12)", "waterSrc": "Mill Creek"}}, {"type": "Feature", "geometry": {"type": "Point", "coordinates": [-107.886673, 38.959218]}, "properties": {"WDID": "4000689", "name": "REED DITCH", "structType": "Ditch", "subBasin": "Below Grand Mesa NF to Alfalfa Ditch (Surface Creek HUC12)", "waterSrc": ""}}, {"type": "Feature", "geometry": {"type": "Point", "coordinates": [-107.901444, 38.949626]}, "properties": {"WDID": "4000688", "name": "PARADISE DITCH", "structType": "Ditch", "subBasin": "Below Grand Mesa NF to Alfalfa Ditch (Surface Creek HUC12)", "waterSrc": ""}}, {"type": "Feature", "geometry": {"type": "Point", "coordinates": [-107.901244, 38.94728]}, "properties": {"WDID": "4000682", "name": "HARRIS DITCH", "structType": "Ditch", "subBasin": "Below Grand Mesa NF to Alfalfa Ditch (Surface Creek HUC12)", "waterSrc": ""}}, {"type": "Feature", "geometry": {"type": "Point", "coordinates": [-107.905323, 38.944611]}, "properties": {"WDID": "4018271", "name": "HIDDEN MESA P/A POD", "structType": "Measuring Point", "subBasin": "Below Grand Mesa NF to Alfalfa Ditch (Surface Creek HUC12)", "waterSrc": "Measuring point"}}, {"type": "Feature", "geometry": {"type": "Point", "coordinates": [-107.907227, 38.942086]}, "properties": {"WDID": "4002963", "name": "DANZEISEN PUMP", "structType": "Pump", "subBasin": "Below Grand Mesa NF to Alfalfa Ditch (Surface Creek HUC12)", "waterSrc": ""}}, {"type": "Feature", "geometry": {"type": "Point", "coordinates": [-107.908682, 38.940707]}, "properties": {"WDID": "4000671", "name": "BEESON DITCH", "structType": "Ditch", "subBasin": "Below Grand Mesa NF to Alfalfa Ditch (Surface Creek HUC12)", "waterSrc": ""}}, {"type": "Feature", "geometry": {"type": "Point", "coordinates": [-107.911905, 38.937447]}, "properties": {"WDID": "4000687", "name": "METZGER DITCH", "structType": "Ditch", "subBasin": "Below Grand Mesa NF to Alfalfa Ditch (Surface Creek HUC12)", "waterSrc": ""}}, {"type": "Feature", "geometry": {"type": "Point", "coordinates": [-107.912937, 38.932223]}, "properties": {"WDID": "4000694", "name": "WILD CHERRY DITCH", "structType": "Ditch", "subBasin": "Below Grand Mesa NF to Alfalfa Ditch (Surface Creek HUC12)", "waterSrc": ""}}, {"type": "Feature", "geometry": {"type": "Point", "coordinates": [-107.912352, 38.931174]}, "properties": {"WDID": "4000679", "name": "GREGG DITCH", "structType": "Ditch", "subBasin": "Below Grand Mesa NF to Alfalfa Ditch (Surface Creek HUC12)", "waterSrc": ""}}, {"type": "Feature", "geometry": {"type": "Point", "coordinates": [-107.913299, 38.930349]}, "properties": {"WDID": "4000680", "name": "GURNEY DITCH", "structType": "Ditch", "subBasin": "Below Grand Mesa NF to Alfalfa Ditch (Surface Creek HUC12)", "waterSrc": ""}}, {"type": "Feature", "geometry": {"type": "Point", "coordinates": [-107.914071, 38.929204]}, "properties": {"WDID": "4000676", "name": "CEDAREDGE PIPELINE", "structType": "Pipeline/Diversion Point", "subBasin": "Below Grand Mesa NF to Alfalfa Ditch (Surface Creek HUC12)", "waterSrc": ""}}, {"type": "Feature", "geometry": {"type": "Point", "coordinates": [-107.915793, 38.925638]}, "properties": {"WDID": "4000672", "name": "C AND D DITCH", "structType": "Ditch", "subBasin": "Below Grand Mesa NF to Alfalfa Ditch (Surface Creek HUC12)", "waterSrc": ""}}, {"type": "Feature", "geometry": {"type": "Point", "coordinates": [-107.916934, 38.922808]}, "properties": {"WDID": "4000684", "name": "JACKSON DITCH", "structType": "Ditch", "subBasin": "Below Grand Mesa NF to Alfalfa Ditch (Surface Creek HUC12)", "waterSrc": ""}}, {"type": "Feature", "geometry": {"type": "Point", "coordinates": [-107.917001, 38.9205]}, "properties": {"WDID": "4000690", "name": "ROSE DITCH", "structType": "Ditch", "subBasin": "Below Grand Mesa NF to Alfalfa Ditch (Surface Creek HUC12)", "waterSrc": ""}}, {"type": "Feature", "geometry": {"type": "Point", "coordinates": [-107.916404, 38.92056]}, "properties": {"WDID": "4000683", "name": "HORSESHOE DITCH", "structType": "Ditch", "subBasin": "Below Grand Mesa NF to Alfalfa Ditch (Surface Creek HUC12)", "waterSrc": ""}}, {"type": "Feature", "geometry": {"type": "Point", "coordinates": [-107.898758, 38.919972]}, "properties": {"WDID": "4018154", "name": "ROSIES WELL P/A POD", "structType": "Measuring Point", "subBasin": "Below Grand Mesa NF to Alfalfa Ditch (Surface Creek HUC12)", "waterSrc": "Measuring point"}}, {"type": "Feature", "geometry": {"type": "Point", "coordinates": [-107.919283, 38.912019]}, "properties": {"WDID": "4006014", "name": "MELSON PUMP", "structType": "Pump", "subBasin": "Below Grand Mesa NF to Alfalfa Ditch (Surface Creek HUC12)", "waterSrc": ""}}, {"type": "Feature", "geometry": {"type": "Point", "coordinates": [-107.918883, 38.911272]}, "properties": {"WDID": "4000681", "name": "HARD LABOR DITCH", "structType": "Ditch", "subBasin": "Below Grand Mesa NF to Alfalfa Ditch (Surface Creek HUC12)", "waterSrc": ""}}, {"type": "Feature", "geometry": {"type": "Point", "coordinates": [-107.918991, 38.911378]}, "properties": {"WDID": "4000693", "name": "TRICKLE DITCH", "structType": "Ditch", "subBasin": "Below Grand Mesa NF to Alfalfa Ditch (Surface Creek HUC12)", "waterSrc": ""}}, {"type": "Feature", "geometry": {"type": "Point", "coordinates": [-107.918859, 38.911246]}, "properties": {"WDID": "4002598", "name": "LOWRANCE PUMP", "structType": "Pump", "subBasin": "Below Grand Mesa NF to Alfalfa Ditch (Surface Creek HUC12)", "waterSrc": ""}}, {"type": "Feature", "geometry": {"type": "Point", "coordinates": [-107.920225, 38.907428]}, "properties": {"WDID": "4000755", "name": "COOK DITCH", "structType": "Ditch", "subBasin": "Below Grand Mesa NF to Alfalfa Ditch (Surface Creek HUC12)", "waterSrc": ""}}, {"type": "Feature", "geometry": {"type": "Point", "coordinates": [-107.9208, 38.906846]}, "properties": {"WDID": "4000760", "name": "FRANK DITCH", "structType": "Ditch", "subBasin": "Below Grand Mesa NF to Alfalfa Ditch (Surface Creek HUC12)", "waterSrc": ""}}, {"type": "Feature", "geometry": {"type": "Point", "coordinates": [-107.920824, 38.906846]}, "properties": {"WDID": "4000778", "name": "SETTLE DITCH", "structType": "Ditch", "subBasin": "Below Grand Mesa NF to Alfalfa Ditch (Surface Creek HUC12)", "waterSrc": ""}}, {"type": "Feature", "geometry": {"type": "Point", "coordinates": [-107.922437, 38.899238]}, "properties": {"WDID": "4006214", "name": "LINDSEY PUMP", "structType": "Pump", "subBasin": "Below Grand Mesa NF to Alfalfa Ditch (Surface Creek HUC12)", "waterSrc": ""}}, {"type": "Feature", "geometry": {"type": "Point", "coordinates": [-107.92317, 38.895192]}, "properties": {"WDID": "4002154", "name": "ALFALFA DITCH DIV PT NO3", "structType": "Ditch", "subBasin": "Below Grand Mesa NF to Alfalfa Ditch (Surface Creek HUC12)", "waterSrc": ""}}, {"type": "Feature", "geometry": {"type": "Point", "coordinates": [-107.923317, 38.89345]}, "properties": {"WDID": "4002738", "name": "SEAVER PUMP", "structType": "Pump", "subBasin": "Below Grand Mesa NF to Alfalfa Ditch (Surface Creek HUC12)", "waterSrc": ""}}, {"type": "Feature", "geometry": {"type": "Point", "coordinates": [-107.923755, 38.892322]}, "properties": {"WDID": "4000779", "name": "SHEPHERD DITCH", "structType": "Ditch", "subBasin": "Below Grand Mesa NF to Alfalfa Ditch (Surface Creek HUC12)", "waterSrc": ""}}, {"type": "Feature", "geometry": {"type": "Point", "coordinates": [-107.923585, 38.891272]}, "properties": {"WDID": "4000751", "name": "ALFALFA DITCH", "structType": "Ditch", "subBasin": "Below Grand Mesa NF to Alfalfa Ditch (Surface Creek HUC12)", "waterSrc": ""}}, {"type": "Feature", "geometry": {"type": "Point", "coordinates": [-107.924965, 38.888931]}, "properties": {"WDID": "4006397", "name": "OTIS WILLOUGHBY PUMP", "structType": "Pump", "subBasin": "Below Grand Mesa NF to Alfalfa Ditch (Surface Creek HUC12)", "waterSrc": ""}}, {"type": "Feature", "geometry": {"type": "Point", "coordinates": [-107.922251, 38.884035]}, "properties": {"WDID": "4018278", "name": "HALIKOYTAKIS P/A POD", "structType": "Measuring Point", "subBasin": "Fruit Growers Reservoir-Gunnison River HUC12", "waterSrc": "Measuring point"}}, {"type": "Feature", "geometry": {"type": "Point", "coordinates": [-107.950954, 38.85679]}, "properties": {"WDID": "4000769", "name": "LAMAR DITCH", "structType": "Ditch", "subBasin": "Fruit Growers Reservoir-Gunnison River HUC12", "waterSrc": "water source: CEDAR RUN"}}, {"type": "Feature", "geometry": {"type": "Point", "coordinates": [-107.905494, 38.854949]}, "properties": {"WDID": "4000826", "name": "WHITING DITCH", "structType": "Ditch", "subBasin": "Fruit Growers Reservoir-Gunnison River HUC12", "waterSrc": "Poison Gulch"}}, {"type": "Feature", "geometry": {"type": "Point", "coordinates": [-107.956911, 38.847333]}, "properties": {"WDID": "4000750", "name": "ALBERT WEIR DITCH", "structType": "Ditch", "subBasin": "Fruit Growers Reservoir-Gunnison River HUC12", "waterSrc": "Cedar Run"}}, {"type": "Feature", "geometry": {"type": "Point", "coordinates": [-107.955354, 38.826706]}, "properties": {"WDID": "4000791", "name": "CIRCLE DITCH", "structType": "Ditch", "subBasin": "Fruit Growers Reservoir-Gunnison River HUC12", "waterSrc": "Alfalfa run \u2013 at the reservoir outlet"}}, {"type": "Feature", "geometry": {"type": "Point", "coordinates": [-107.954728, 38.826604]}, "properties": {"WDID": "4003365", "name": "FRUIT GROWERS RESERVOIR", "structType": "Reservoir", "subBasin": "Fruit Growers Reservoir-Gunnison River HUC12", "waterSrc": "Alfalfa Run \u2013 reservoir outlet"}}, {"type": "Feature", "geometry": {"type": "Point", "coordinates": [-107.87951, 39.04433]}, "properties": {"WDID": "SNOTEL-682", "name": "Park Reservoir SNOTEL (site #682)", "structType": "SNOTEL", "subBasin": "Within Grand Mesa NF (Surface Creek HUC12 headwaters)", "waterSrc": null}}]}