{"type": "FeatureCollection", "features": [{"type": "Feature", "id": 1, "geometry": {"type": "Polygon", "coordinates": [[[-107.317804931265, 41.0029268653225], [-107.31020272617, 41.0029208737146], [-107.307236646308, 41.0029568769107], [-107.302538520254, 41.0029428829392], [-107.300071455429, 41.0029348859952], [-107.294653308116, 41.0029198927397], [-107.292182243093, 41.0029128957503], [-107.274873778185, 41.0028359179715], [-107.257877322429, 41.0028519389999], [-107.250624127196, 41.0028879463012], [-107.241204853963, 41.0028109888314], [-107.240240826017, 41.0028129928168], [-107.238279769616, 41.0028170007874], [-107.223653347159, 41.0028470639489], [-107.218522197206, 41.002836088134], [-107.216682143873, 41.0028400947472], [-107.206536851329, 41.0029071380296], [-107.171631839886, 41.0029702898877], [-107.145279075611, 41.0030184037084], [-107.139452908106, 41.0030354300714], [-107.125620508325, 41.0030634891555], [-107.122148406565, 41.0030785040723], [-107.1184152984, 41.0030875199357], [-107.106860963298, 41.0031175700931], [-107.105734931377, 41.0031205747013], [-107.102273831284, 41.003128589249], [-107.092013532823, 41.0032526322493], [-107.07315198679, 41.003289715212], [-107.070111899222, 41.0032957271243], [-107.045174177353, 41.0033448352348], [-107.039979026029, 41.0033548571138], [-107.030442749925, 41.0033738988831], [-107.003128958977, 41.0034280168521], [-107.00061688676, 41.0034510272123], [-106.974163883975, 41.0033792918354], [-106.902216157274, 41.0031040127459], [-106.901356124594, 41.0031000217411], [-106.875612150385, 41.0030032803081], [-106.857784478107, 41.0026694643271], [-106.847751097681, 41.0026725631894], [-106.834474595161, 41.0026766952315], [-106.833635563296, 41.0026767040447], [-106.816419911424, 41.0026818760458], [-106.814688846194, 41.0026818929943], [-106.794444077879, 41.0026870941465], [-106.793135028593, 41.002688106988], [-106.764916959343, 41.0026883890109], [-106.75859471968, 41.0026934511849], [-106.757293670789, 41.0026944640264], [-106.75567760878, 41.002729478911], [-106.751913467415, 41.0027085170315], [-106.750607416705, 41.0027015308668], [-106.739149015387, 41.002646600807], [-106.735745895257, 41.0026306231169], [-106.719678329845, 41.0025527223308], [-106.696217504778, 41.0024398667697], [-106.685357122725, 41.0023869330328], [-106.653894017072, 41.0022441283374], [-106.647712800332, 41.0022161651726], [-106.632623270295, 41.0021482581633], [-106.625603022588, 41.0021173011511], [-106.593905905804, 41.0021354938127], [-106.585966626764, 41.0021155432387], [-106.576205284054, 41.002090602979], [-106.568733021164, 41.0020716482939], [-106.531892725086, 41.001978874052], [-106.526289526621, 41.0019799072429], [-106.500598624878, 41.0019020639912], [-106.493990349052, 41.0021471531129], [-106.48965817239, 41.0021472107382], [-106.483404917053, 41.0021462948345], [-106.479023738191, 41.0021463551716], [-106.456303810333, 41.0021436616957], [-106.453869711883, 41.0020636966667], [-106.451701624351, 41.0020437257327], [-106.448422489696, 41.0020297702101], [-106.439574129962, 41.0019848908296], [-106.437430046313, 41.0018019208875], [-106.434500927633, 41.0017789607977], [-106.43096078298, 41.001759008082], [-106.428848697322, 41.0017180368959], [-106.411114981636, 41.0013742796824], [-106.403186661145, 41.0012203882361], [-106.398648479229, 41.0011044511183], [-106.39700441224, 41.0011014728585], [-106.391863201156, 41.0011825420877], [-106.389568108013, 41.0011065731199], [-106.38712000842, 41.0011396071844], [-106.386366976769, 41.0011506171796], [-106.383540864309, 41.0010686557208], [-106.375593548042, 41.0007277649236], [-106.358879880141, 41.000145994998], [-106.353992684771, 40.9999790626946], [-106.351435580907, 40.999979097271], [-106.346425379226, 40.9996441690157], [-106.338250047183, 40.9995362807204], [-106.326467568745, 40.9992824441546], [-106.32117635428, 40.99912951733], [-106.31422907313, 40.9989296137384], [-106.298528433578, 40.9987838272552], [-106.283608827064, 40.9986460297791], [-106.271257325182, 40.9985131982366], [-106.262207956623, 40.9984173212795], [-106.250588483782, 40.9982944787033], [-106.247207302308, 40.9982335102235], [-106.245347201273, 40.9981845271219], [-106.241674001754, 40.9981475592564], [-106.240412934182, 40.9981355697473], [-106.234479612934, 40.9980456232737], [-106.228717301272, 40.9979226762725], [-106.225676136625, 40.9979057021498], [-106.220061833186, 40.9977907538127], [-106.217583700219, 40.9977407757701], [-106.214078509913, 40.9977258070966], [-106.211278357866, 40.9977148311068], [-106.209073239083, 40.9976978508286], [-106.204322981997, 40.9976628929341], [-106.203375930414, 40.9976559021666], [-106.200613780697, 40.997635925829], [-106.195329494937, 40.9975849727166], [-106.190736699045, 40.9975851720462], [-106.186610021886, 40.997587050084], [-106.184388901413, 40.9975770686854], [-106.177061504439, 40.9975481346894], [-106.163785784352, 40.9975292519212], [-106.160938629755, 40.9975292770069], [-106.159492550556, 40.9975072897044], [-106.150085042558, 40.9973713737055], [-106.129265915705, 40.9973335572129], [-106.12830486298, 40.9973355661107], [-106.125581716316, 40.9973445888617], [-106.120726454258, 40.9972426340093], [-106.115204153575, 40.9972386819734], [-106.103450517346, 40.9972307860367], [-106.088743719028, 40.9972199150538], [-106.083021410244, 40.9971759666769], [-106.078722178397, 40.9971440038944], [-106.061192230262, 40.9970061602763], [-106.051577708201, 40.9970402439021], [-106.045107356111, 40.9970633012403], [-106.038729011268, 40.9970863572144], [-106.037146924441, 40.9970923710486], [-106.021260061436, 40.9971985100467], [-106.018087888284, 40.9972195367321], [-106.016639810334, 40.9972295507287], [-106.014007666601, 40.9972055740862], [-106.009174405183, 40.9972406162947], [-106.003505097, 40.997251664909], [-106.000574938071, 40.9972576922879], [-105.977371842354, 40.9972139107232], [-105.951559623132, 40.9971761558378], [-105.932070701789, 40.9971473409932], [-105.899962185352, 40.9970966451419], [-105.89899414014, 40.9970946552207], [-105.875569032988, 40.9970658769523], [-105.872452885963, 40.9970489059989], [-105.869246734934, 40.9970449363234], [-105.862003392422, 40.9970360050611], [-105.860194306713, 40.9970330218714], [-105.843175501771, 40.9970541828532], [-105.839213315124, 40.9970472211751], [-105.827532763131, 40.9970273307588], [-105.822683534158, 40.997019377845], [-105.8176062948, 40.9970104262392], [-105.805951743645, 40.996991535859], [-105.797435342849, 40.9969776172347], [-105.770581074305, 40.9969348721439], [-105.765922854111, 40.9969269158289], [-105.764278777241, 40.9969239312783], [-105.750563128803, 40.9969030611162], [-105.741374930108, 40.9969143450527], [-105.730431692843, 40.9968926829846], [-105.724814571389, 40.9969168556825], [-105.719726460619, 40.996929012201], [-105.717713416915, 40.9969330747693], [-105.705674155054, 40.9969614462967], [-105.702038076617, 40.9969695592251], [-105.696671959725, 40.9969817238699], [-105.681630633286, 40.9970621879687], [-105.669506370137, 40.9970825631425], [-105.665541283728, 40.9970886847785], [-105.645518851142, 40.997122303934], [-105.635973643987, 40.9971385989058], [-105.629053494653, 40.9971188122506], [-105.625560418129, 40.997156919727], [-105.618379262391, 40.997182143222], [-105.613781162846, 40.997198284274], [-105.604460961212, 40.9972305731461], [-105.593862731813, 40.9972669008203], [-105.588636619154, 40.9972850622769], [-105.581248459236, 40.9973112911892], [-105.56684814633, 40.997362736737], [-105.558062956126, 40.9973940078597], [-105.553928867866, 40.9974081372522], [-105.550707797616, 40.9974322372158], [-105.545928694728, 40.9974483849865], [-105.536435489248, 40.9974796791203], [-105.500557713743, 40.9976017909838], [-105.491051326385, 40.9976207211907], [-105.478339805789, 40.9976496280352], [-105.474884665119, 40.9976586032837], [-105.472527569356, 40.9976635858412], [-105.460978096835, 40.9976615010182], [-105.449430623964, 40.997692416054], [-105.446602509159, 40.9977323958084], [-105.443612386785, 40.9977553749356], [-105.441561303023, 40.9977593588061], [-105.434855029084, 40.9977553098485], [-105.428361763665, 40.9977782618481], [-105.414515196555, 40.9978081612004], [-105.412235104379, 40.9978131437465], [-105.393088320785, 40.9978550041699], [-105.375552603669, 40.997893875314], [-105.363274103379, 40.9978807840267], [-105.343644300148, 40.9979566400986], [-105.341167198447, 40.9979806218918], [-105.323461475164, 40.9980354927875], [-105.305567742577, 40.998091362312], [-105.277148581858, 40.9981801527573], [-105.275613519141, 40.9981851420551], [-105.256537739286, 40.9981980020888], [-105.25478966715, 40.9982169890752], [-105.250547492697, 40.9984019602072], [-105.24881041594, 40.9984479668015], [-105.241030067739, 40.9984369949998], [-105.237187896013, 40.9984310090856], [-105.231503641661, 40.9984230298999], [-105.226514419235, 40.9984160480267], [-105.222311230766, 40.9984100627886], [-105.210327694995, 40.9983941057669], [-105.191528854962, 40.9983681742424], [-105.180011340006, 40.9983522158546], [-105.175943158444, 40.9983462319667], [-105.173280039902, 40.9983422406738], [-105.164333638936, 40.9983302728956], [-105.161936532211, 40.9983272829846], [-105.160592471984, 40.9983252876766], [-105.158862394002, 40.9983232937246], [-105.157149319332, 40.998277299247], [-105.155065225178, 40.9982543060641], [-105.140500573575, 40.9982673599881], [-105.13659639923, 40.9982703743091], [-105.129413077655, 40.9982774009447], [-105.125541904719, 40.9982824139647], [-105.108896161132, 40.9983134758318], [-105.084187056011, 40.9983415660795], [-105.077626761899, 40.9983495907001], [-105.074878640273, 40.9983046003361], [-105.052673647398, 40.9982996808797], [-105.041568151036, 40.9982977208261], [-105.032739756359, 40.9982957539926], [-105.024743398365, 40.9982937830911], [-105.013066876215, 40.9982918257492], [-105.000536315843, 40.9982828709264], [-104.982158100263, 40.99825066325], [-104.962588871331, 40.9982104410911], [-104.961470856874, 40.9982334288654], [-104.96052084624, 40.9982324179892], [-104.943381643695, 40.9982202250999], [-104.940331608183, 40.9982191898161], [-104.938403586429, 40.9982171680634], [-104.907620224274, 40.9981988190616], [-104.906536210152, 40.9982198067829], [-104.905521198323, 40.9982407958534], [-104.899107123888, 40.9982057236674], [-104.882462928098, 40.998193534841], [-104.875534844844, 40.9982894582265], [-104.870060780997, 40.9983063963173], [-104.86913376993, 40.9982903850317], [-104.867882755404, 40.9982683708636], [-104.862041688441, 40.9981693043045], [-104.855283607761, 40.9980552262846], [-104.835504368885, 40.9990160118288], [-104.829514298366, 40.999276945781], [-104.81684614933, 40.9992948029513], [-104.80974206545, 40.9993577236918], [-104.797877924763, 40.9994645892187], [-104.778857700318, 40.9997763772592], [-104.773951643022, 40.9998303219105], [-104.772655627392, 40.9998443070513], [-104.771324611602, 40.9998582921893], [-104.759675473694, 40.9999891610179], [-104.757161444947, 40.9999891332212], [-104.750533366659, 40.9999890579668], [-104.736572938086, 41.0002260599808], [-104.720049430954, 41.0004260626907], [-104.703690928171, 41.0006260661497], [-104.694164635942, 41.0007420678372], [-104.679620190145, 41.0009200712919], [-104.676010079309, 41.0009640720871], [-104.66435772184, 41.0010720739758], [-104.625529532192, 41.0014350832265], [-104.622444437232, 41.0014200842061], [-104.577590063893, 41.0015660980735], [-104.550294226674, 41.0015421067377], [-104.543627023162, 41.0015611090315], [-104.527739535828, 41.0016091126971], [-104.503006779862, 41.0018041201529], [-104.500525704014, 41.0017861212932], [-104.497159599864, 41.0018351396835], [-104.467682687271, 41.0014803039912], [-104.452967232786, 41.001501384903], [-104.447848074444, 41.0014874129947], [-104.420562230982, 41.0014615626856], [-104.419612202382, 41.0014625680886], [-104.390283296215, 41.0015067278401], [-104.375521839005, 41.0015298087001], [-104.371053701427, 41.0015028336858], [-104.355708226993, 41.0015009191502], [-104.343711856991, 41.0015509838312], [-104.336994650555, 41.001677018906], [-104.31451295591, 41.0016501429326], [-104.295590372947, 41.0017342459881], [-104.276754790022, 41.0017013498455], [-104.257482194677, 41.0016804561119], [-104.250517980284, 41.0017274942906], [-104.243713866336, 41.0016265041616], [-104.23865078263, 41.0016265109411], [-104.223299529334, 41.0016255319807], [-104.216280414402, 41.001656542104], [-104.214080378288, 41.0016675452334], [-104.2129933602, 41.0016675459114], [-104.211483335326, 41.0015985488701], [-104.191183000822, 41.0017005769829], [-104.18151884235, 41.0017495900131], [-104.173446708768, 41.0017776008324], [-104.162286522972, 41.0015756192173], [-104.143111207986, 41.0016466447096], [-104.125515917296, 41.0017116689163], [-104.123596884982, 41.0016326728322], [-104.104600570995, 41.0015496997917], [-104.086078265644, 41.0015697257894], [-104.070198002561, 41.001588747736], [-104.066971950255, 41.0015107541949], [-104.066125933988, 41.0013277571743], [-104.053259722602, 41.0014127738435], [-104.051539695869, 41.0015337747158], [-104.049684664028, 41.0015217776872], [-104.044352577115, 41.0014867852113], [-104.041060521992, 41.0015087901691], [-104.039248493401, 41.0015087928809], [-104.023393233128, 41.001893809979], [-104.018233146643, 41.0016238201558], [-104.010847025002, 41.0016918300758], [-104.000513856104, 41.0018238430304], [-103.992976687239, 41.0017738382161], [-103.987909574589, 41.0017318358783], [-103.972652233868, 41.0016218269815], [-103.971383205425, 41.0015308269832], [-103.953535808839, 41.0016028138579], [-103.952267780221, 41.0015808129992], [-103.934842392392, 41.0016497998898], [-103.913944926159, 41.0015787872819], [-103.906334755703, 41.0013937837099], [-103.897637562668, 41.0016297752723], [-103.896217531918, 41.0017567722061], [-103.886214309732, 41.0017147657898], [-103.877675119576, 41.0017027599808], [-103.87551107087, 41.0017027593029], [-103.858459691219, 41.0016877481403], [-103.842737341184, 41.0016857366632], [-103.811527645782, 41.0017397150051], [-103.783087012633, 41.0017966939036], [-103.763332574445, 41.0019976789377], [-103.75050828833, 41.0020616689306], [-103.7340888106, 41.0017406837946], [-103.731236727845, 41.0017416858035], [-103.728006634019, 41.0017436877876], [-103.710002112207, 41.0017536997409], [-103.687675464086, 41.0018287127335], [-103.657268581375, 41.0017937339796], [-103.65141341176, 41.0017877382011], [-103.649294349786, 41.0017857389302], [-103.646149259043, 41.0017537417737], [-103.62550465868, 41.0015487587954], [-103.620226505719, 41.0017237587895], [-103.618355452424, 41.0017327599233], [-103.615298363341, 41.0017087618686], [-103.595016773982, 41.001725775689], [-103.592674707034, 41.0017277769955], [-103.576581239599, 41.0017417881739], [-103.574532179741, 41.0017277891986], [-103.556813665346, 41.0016088028738], [-103.54861042714, 41.0015308086785], [-103.54405429419, 41.0014968127965], [-103.540356187083, 41.0014698160742], [-103.539044149102, 41.0014578170001], [-103.534896028259, 41.0014278203222], [-103.526582786854, 41.0015018248937], [-103.525536757096, 41.0015108247019], [-103.500501031725, 41.0017358378132], [-103.497456935874, 41.0016418482117], [-103.495947891063, 41.0018708478874], [-103.486707603556, 41.0019208743224], [-103.469556068938, 41.0018809208367], [-103.463471879232, 41.0018479379898], [-103.461374814303, 41.0018369437039], [-103.447328375635, 41.0017739839752], [-103.428639795718, 41.0019770327487], [-103.421935587006, 41.0019760510817], [-103.415625391056, 41.0019290700279], [-103.413405320714, 41.001919075728], [-103.406703114346, 41.0021580897219], [-103.404412043859, 41.0022410958938], [-103.397001815928, 41.0025651110217], [-103.382502362252, 41.002259156322], [-103.381455329076, 41.0022811589881], [-103.375497144258, 41.0023061751054], [-103.365324823203, 41.0018532097143], [-103.362989751436, 41.001851215869], [-103.353663461021, 41.00184524179], [-103.34551820727, 41.0018402649723], [-103.334102851424, 41.0018332970201], [-103.32388153266, 41.0018273249733], [-103.315443270921, 41.001871348213], [-103.297182703203, 41.0019673970899], [-103.286938384873, 41.0020224239841], [-103.280704190887, 41.0020424410249], [-103.276881072429, 41.002055452166], [-103.268126800441, 41.0020854749981], [-103.250493246909, 41.0017835288171], [-103.249016213563, 41.0022175352983], [-103.246058134096, 41.0021065611399], [-103.241785021664, 41.0021835946841], [-103.236292874731, 41.0020316440538], [-103.229895709284, 41.0022436937755], [-103.219425428728, 41.002018784768], [-103.210669200209, 41.0022548540899], [-103.200754938186, 41.0021729387486], [-103.191808699815, 41.0020800148232], [-103.191061680587, 41.0020820208647], [-103.179675379851, 41.0021151161334], [-103.172448189048, 41.0021751752884], [-103.165274997774, 41.0020912368584], [-103.161788908346, 41.0021602652473], [-103.153129679911, 41.0022313362098], [-103.143651429585, 41.0023194139833], [-103.136965252755, 41.0022464713123], [-103.13318315317, 41.0021995033323], [-103.129991067961, 41.0021975298357], [-103.125489948737, 41.0021605689666], [-103.114989673433, 41.0023416532313], [-103.096927195913, 41.0023238050219], [-103.091091041837, 41.0023178526799], [-103.089961010617, 41.0023158629163], [-103.086638923915, 41.0023118901682], [-103.077814690234, 41.0023049649764], [-103.076546656227, 41.0022599759563], [-103.059548208906, 41.0023751158146], [-103.058008168624, 41.0023751286955], [-103.044966824385, 41.0023532379214], [-103.043454782793, 41.0023512508706], [-103.040532705108, 41.0022932772303], [-103.038714656907, 41.0022582919436], [-103.021689208924, 41.0024324317789], [-103.019540152201, 41.0024544493018], [-103.002036690893, 41.0024935943337], [-103.000486649667, 41.0024936072146], [-102.98270021006, 41.0021637478503], [-102.981493179746, 41.0021187580559], [-102.965711794227, 41.0021838760311], [-102.963679744867, 41.002192891339], [-102.962739720804, 41.0020999003252], [-102.960716670767, 41.0020659162618], [-102.959634644617, 41.0021019233146], [-102.944840285711, 41.0023100312475], [-102.943119240289, 41.0020580500551], [-102.928609888976, 41.0022471560358], [-102.925577815279, 41.0022871777719], [-102.924038774821, 41.0021491916939], [-102.906557350085, 41.0022833209505], [-102.904806306322, 41.002214334723], [-102.887416880749, 41.0021854671673], [-102.885755839195, 41.0021384821952], [-102.875483592243, 41.0023565537403], [-102.867688396686, 41.0021406177223], [-102.866481369965, 41.0022326249817], [-102.865794348317, 41.0019956349287], [-102.861024233073, 41.0020856688906], [-102.849272948633, 41.0023077526797], [-102.846464879734, 41.0022627751866], [-102.843749814314, 41.0022777957094], [-102.830313487132, 41.0023578960672], [-102.827290409165, 41.0021499231966], [-102.773556100308, 41.0024213236962], [-102.772711077578, 41.0023533321555], [-102.771692053873, 41.0023583387639], [-102.768604977229, 41.002282363694], [-102.766732930398, 41.0022823779308], [-102.754627636075, 41.0023684679079], [-102.750480533023, 41.0023224999811], [-102.747271474147, 41.0021875260853], [-102.742195381937, 41.0022205636756], [-102.739634337164, 41.0022375827874], [-102.735714265334, 41.0022206118097], [-102.734835250354, 41.0022176186855], [-102.729732155685, 41.0021956580308], [-102.714911889367, 41.0022057688953], [-102.712373843262, 41.0022007880371], [-102.70869077575, 41.0022018151231], [-102.705520720825, 41.0022478380475], [-102.692358483111, 41.0022949348024], [-102.687921402987, 41.002340967831], [-102.670895096215, 41.0023270957584], [-102.664886986627, 41.0023311396895], [-102.659791895947, 41.0023351788748], [-102.653472780624, 41.0023392261952], [-102.64966671219, 41.0023432538549], [-102.63673847932, 41.002353349782], [-102.6254782751, 41.0023614349291], [-102.620486187946, 41.0026044668273], [-102.606938942182, 41.00248157104], [-102.598260785346, 41.0024246367999], [-102.581367476847, 41.002314766004], [-102.578706428922, 41.0022977862328], [-102.575506370267, 41.0022068129298], [-102.566058200027, 41.0022068827581], [-102.564096163564, 41.0022528961877], [-102.556799032628, 41.0022259519768], [-102.543719795653, 41.0022520501136], [-102.542655777132, 41.0022540568278], [-102.527862509679, 41.0022851669911], [-102.517165317377, 41.002309246867], [-102.510451195756, 41.0023242972087], [-102.502917059604, 41.0023413529026], [-102.500476016278, 41.0023473710029], [-102.487964835262, 41.0024524608982], [-102.485501799381, 41.0024284800542], [-102.478998704597, 41.0023645297382], [-102.47721867759, 41.0023195448264], [-102.473461623933, 41.0023585712983], [-102.470547581678, 41.0023895919239], [-102.469233562911, 41.0024316012999], [-102.46400448671, 41.0024076407865], [-102.460344434036, 41.0023906678188], [-102.430510000044, 41.0022568926673], [-102.411746727008, 41.0023000309038], [-102.408591681135, 41.0022990539873], [-102.402600594622, 41.0022981001207], [-102.39487348238, 41.0023411549432], [-102.389742407885, 41.0023281940264], [-102.383463316102, 41.0023132413094], [-102.380385272917, 41.0023122637151], [-102.379603259818, 41.0023082713065], [-102.376238212086, 41.002292296246], [-102.375474200326, 41.0022883011245], [-102.364076034642, 41.00218138933], [-102.332665579248, 41.0022056217814], [-102.319022380836, 41.0022157231531], [-102.292631997813, 41.0022369177242], [-102.291363979077, 41.0022139279564], [-102.28819493296, 41.0023279492889], [-102.287290920561, 41.002322956237], [-102.277814783071, 41.0022800268222], [-102.272109700381, 41.002252069774], [-102.267821638187, 41.0023900976691], [-102.25970252002, 41.002433157855], [-102.250472386171, 41.0023732277441], [-102.247938349247, 41.0023952398632], [-102.244686304189, 41.002435254052], [-102.240671247195, 41.0023912738994], [-102.232703133133, 41.0023483140217], [-102.231941121922, 41.002334317887], [-102.229021080717, 41.0022813332197], [-102.224528016686, 41.0023313532416], [-102.212209841403, 41.0024694087662], [-102.210059810009, 41.0024544201504], [-102.209092796962, 41.0024484251098], [-102.207772778348, 41.0024474312469], [-102.197420629844, 41.0023574818442], [-102.195017596035, 41.0023474950665], [-102.191293542888, 41.0023345131347], [-102.190504531015, 41.0023275167611], [-102.189549517663, 41.0023195210984], [-102.188577503695, 41.0023115261127], [-102.183145427104, 41.0023355510656], [-102.179252372106, 41.0023505702159], [-102.177350344002, 41.00235757879], [-102.170553246795, 41.0023376120127], [-102.163780150775, 41.0024006430648], [-102.152894995881, 41.0024126948468], [-102.147409917791, 41.0024187210759], [-102.139109799874, 41.0024537611908], [-102.137480776073, 41.0024607677201], [-102.135790752173, 41.0024437757837], [-102.132832710435, 41.0024127911146], [-102.128456648377, 41.0023878123246], [-102.124981598346, 41.0023448300726], [-102.122057556943, 41.0023518440708], [-102.119061513774, 41.0023608579997], [-102.10812135773, 41.0023929097748], [-102.10628033242, 41.0023989190572], [-102.101844269189, 41.0024009400036], [-102.09881322586, 41.0023879540146], [-102.093954156741, 41.0023969781078], [-102.089229089314, 41.0024050002009], [-102.07540489205, 41.002422066043], [-102.070607823754, 41.002430088811], [-102.068682796983, 41.002354098909], [-102.065295747713, 41.0023391170463], [-102.063200718367, 41.0023461269776], [-102.059651666919, 41.0023581428385], [-102.055667609887, 41.0023711620525], [-102.051624553305, 41.0023841812641], [-102.051436559272, 41.0000002322225], [-102.051482579066, 40.9919693387655], [-102.051500587593, 40.9888003821955], [-102.051501599994, 40.9839764459854], [-102.051504623723, 40.9742825759934], [-102.05153563716, 40.9692976416833], [-102.051477659892, 40.9597867699906], [-102.051539674189, 40.9547798360318], [-102.051511697058, 40.9450849669413], [-102.051572707038, 40.9414500139885], [-102.05155272671, 40.9332731241088], [-102.051545734224, 40.9306581590521], [-102.051559736264, 40.929472174271], [-102.0516067469, 40.9255592268055], [-102.051579751627, 40.923487254083], [-102.051565754976, 40.9223572690698], [-102.051539758631, 40.9203572959385], [-102.051497766883, 40.9170043421191], [-102.051487768633, 40.9162083521544], [-102.051463799785, 40.9036605197251], [-102.051460804802, 40.9016435469613], [-102.051460809293, 40.9002535662411], [-102.051461818102, 40.8964766170212], [-102.051452829559, 40.8917236802461], [-102.051436853021, 40.882429803891], [-102.051434856067, 40.8814318178966], [-102.051432871688, 40.8750019042561], [-102.051429876705, 40.872445936976], [-102.051438881417, 40.8708769592212], [-102.051461891763, 40.8668670118628], [-102.051463911176, 40.859391111719], [-102.051433913734, 40.8579731309388], [-102.051464928967, 40.8522112082369], [-102.051484962296, 40.8387433869701], [-102.051488967884, 40.8365114173286], [-102.051496981755, 40.8313024869907], [-102.051500987343, 40.8289815181448], [-102.051563004335, 40.8228995991403], [-102.05156502285, 40.8154686983191], [-102.051567038669, 40.8089057860538], [-102.051567041364, 40.8081977946643], [-102.051538060815, 40.7998059078648], [-102.051540076634, 40.793609990707], [-102.05145109581, 40.7851961039933], [-102.051452108212, 40.7802341703017], [-102.051452111805, 40.7790221860841], [-102.051425147973, 40.7643433830269], [-102.051396161136, 40.7590164541376], [-102.051396164729, 40.7577584707702], [-102.051336168048, 40.7559294960088], [-102.051302185679, 40.7495985721071], [-102.051273260825, 40.7398344921535], [-102.0513694129, 40.7207193368753], [-102.051375433409, 40.7181223153335], [-102.051402525699, 40.7062682189619], [-102.051344594245, 40.6975571470231], [-102.05143768037, 40.6866730577642], [-102.051348707631, 40.6830600293388], [-102.051440794829, 40.6720619391768], [-102.0514418234, 40.6685409098732], [-102.051414935925, 40.6540447918882], [-102.051422958779, 40.6511537689763], [-102.051424963819, 40.6505497639158], [-102.051507023123, 40.6430917032428], [-102.051448048725, 40.6395936742047], [-102.051510136684, 40.6285035840303], [-102.0514801617, 40.6253905581705], [-102.051417196985, 40.6207705212349], [-102.051416249262, 40.6140114657439], [-102.051405253883, 40.6133334613177], [-102.05135727666, 40.6103754369295], [-102.051404359161, 40.6000453519098], [-102.051485502184, 40.5820452050945], [-102.051516532689, 40.5780441719644], [-102.05148758897, 40.5708871139498], [-102.051428618165, 40.5670910839285], [-102.051489644316, 40.5637760562612], [-102.051491702356, 40.5565269968582], [-102.051432732449, 40.5525259646874], [-102.051454752852, 40.5499649441205], [-102.051527819122, 40.5417088749818], [-102.051554843141, 40.5386238503107], [-102.051734852049, 40.5378458417291], [-102.051585859273, 40.5366798332513], [-102.051585872747, 40.5348958189254], [-102.051525885948, 40.5330898047278], [-102.051616928405, 40.527853761004], [-102.05149796002, 40.5236007287726], [-102.05152898783, 40.5201016987152], [-102.051558146246, 40.5000015349859], [-102.051308249307, 40.4883414090667], [-102.051290274018, 40.4856733800027], [-102.051333291642, 40.4838923591373], [-102.051377333346, 40.4795003098044], [-102.051519466587, 40.465515152335], [-102.051499567106, 40.4547960337172], [-102.051496582903, 40.453015012691], [-102.051491611626, 40.4499849798097], [-102.051478677683, 40.4428189012813], [-102.051474704434, 40.4400148699633], [-102.051539910446, 40.4181696248684], [-102.051642980447, 40.4108945429415], [-102.051850122968, 40.39640337913], [-102.051582144739, 40.3930873467245], [-102.051565313904, 40.3750001451779], [-102.051808460902, 40.3600759759583], [-102.051595555688, 40.3492198583195], [-102.051318648205, 40.3383877420986], [-102.051398798589, 40.3224175640312], [-102.051509006603, 40.300500318225], [-102.05151902731, 40.298508296215], [-102.051608183306, 40.2821001122308], [-102.051611198052, 40.2805660947732], [-102.051678453121, 40.2536557949305], [-102.051688488201, 40.2499987538109], [-102.051735471887, 40.2425716969321], [-102.051932461649, 40.2353516390059], [-102.05190444589, 40.2292005931756], [-102.051897442624, 40.2282035847615], [-102.051656427328, 40.2257465700678], [-102.051624422151, 40.2239635559957], [-102.051843417943, 40.2186485141596], [-102.05194141875, 40.217436502014], [-102.051915413421, 40.2151494859806], [-102.051777401651, 40.2133454739171], [-102.051717396885, 40.2125584689326], [-102.051891396064, 40.2088724379463], [-102.051933389608, 40.2054394117137], [-102.051981382102, 40.2015293810921], [-102.051842351642, 40.1916263083335], [-102.051884338899, 40.1854102600238], [-102.051663312915, 40.1788802117478], [-102.05191928516, 40.1626810873044], [-102.051875274898, 40.1594580621946], [-102.051831266432, 40.1561180382966], [-102.051862250224, 40.1494179860361], [-102.05201125378, 40.1483659761861], [-102.051913216142, 40.1343878700554], [-102.051848189793, 40.1249977998741], [-102.051836158657, 40.1121817018817], [-102.051868102748, 40.0885365217645], [-102.05184305682, 40.0703223829132], [-102.051837047091, 40.0665283552517], [-102.051834043124, 40.0649013423388], [-102.051829035915, 40.0616663180204], [-102.051800979732, 40.0395371488995], [-102.051769921379, 40.0151949639474], [-102.05176891886, 40.0144379581381], [-102.051753890045, 40.0030848711627], [-102.051750884282, 40.0006128527913], [-102.051778883871, 39.9999968482556], [-102.051729781958, 39.9851600177055], [-102.051735735093, 39.9781720967627], [-102.051718704832, 39.9736541490064], [-102.051674619111, 39.961317289096], [-102.051611498987, 39.943778490208], [-102.05154336896, 39.9247607070618], [-102.051499285035, 39.9125548460331], [-102.051483253701, 39.9081078977035], [-102.05151425007, 39.9072139071134], [-102.051505237272, 39.9053029289109], [-102.051426118154, 39.8881631257887], [-102.051367027873, 39.8749982763429], [-102.051514915721, 39.8574634747356], [-102.051578866786, 39.8498125631115], [-102.051667856593, 39.847731586071], [-102.051372815718, 39.8434776349905], [-102.051327746342, 39.8333177522679], [-102.051306714086, 39.8287808029376], [-102.051291689763, 39.8252228448027], [-102.051263647055, 39.818998915872], [-102.051200549389, 39.8046570800299], [-102.051137449029, 39.7902102442558], [-102.0510332741, 39.7648355352861], [-102.051017251749, 39.7615795713092], [-102.050966178932, 39.7509336926937], [-102.050962170649, 39.7499997038677], [-102.050876126418, 39.7418007649912], [-102.050692022988, 39.7232009073274], [-102.050652001246, 39.719096937166], [-102.050754946381, 39.7075460226761], [-102.05070488866, 39.6969471043147], [-102.05067685763, 39.6910661479889], [-102.050607780778, 39.6765732570654], [-102.050603776088, 39.675601265026], [-102.050592770828, 39.6746662722548], [-102.050544747791, 39.670730301186], [-102.050517697721, 39.6611263736877], [-102.050292668844, 39.6571904037527], [-102.050104645167, 39.6540364291854], [-102.05031761506, 39.6462444857049], [-102.050306587341, 39.6409605266645], [-102.050278506005, 39.625440643008], [-102.050285482322, 39.6206786790856], [-102.050255432777, 39.6112047503114], [-102.050197404305, 39.6061507881578], [-102.050053336093, 39.5938238819377], [-102.049964324726, 39.5923378931182], [-102.049935312736, 39.5904859079561], [-102.049816225774, 39.5740650317671], [-102.049774192703, 39.5681770769158], [-102.049765162838, 39.562357119797], [-102.049650091345, 39.5489592217578], [-102.049564036334, 39.5389392982953], [-102.049683028075, 39.5366983138978], [-102.049625950918, 39.521764426782], [-102.049688873412, 39.5061905440206], [-102.049778845976, 39.500304587923], [-102.049684802248, 39.4956056822647], [-102.049599667111, 39.4808089919032], [-102.049689639675, 39.4773790643479], [-102.049571619912, 39.4755271016992], [-102.049602581246, 39.471159194348], [-102.049456534944, 39.4665392909168], [-102.04951552641, 39.4653503163028], [-102.049465327654, 39.443245777902], [-102.049379147777, 39.4233401947007], [-102.049380101788, 39.4182173020956], [-102.049176008149, 39.408520505305], [-102.049176964854, 39.4036036091324], [-102.049188881007, 39.3940708071538], [-102.049213712238, 39.3750042061245], [-102.048969691179, 39.3737192349991], [-102.049028678154, 39.3719582710088], [-102.048795610253, 39.3653264119562], [-102.048885564851, 39.3598145258984], [-102.048887485449, 39.3508497141203], [-102.048804316725, 39.3322801030005], [-102.048746308016, 39.3314801197894], [-102.048687288702, 39.3296271590764], [-102.04865827222, 39.3277981982421], [-102.048623233432, 39.323538286742], [-102.048573175711, 39.3173464171866], [-102.048458083557, 39.3074896249522], [-102.048458078167, 39.306762638985], [-102.048459045652, 39.3031447153207], [-102.048229780321, 39.274146324074], [-102.047910582849, 39.2531287662993], [-102.048082560819, 39.2500068299087], [-102.048024491922, 39.243073957194], [-102.047850404708, 39.2345891127522], [-102.047761264882, 39.220297372731], [-102.047628052811, 39.1986727649281], [-102.047316560189, 39.1482866818654], [-102.047272515791, 39.1439197611693], [-102.047255472055, 39.1393858443021], [-102.047259448897, 39.1370268863059], [-102.047170408784, 39.1331539567813], [-102.047143375782, 39.1297080191793], [-102.047115328582, 39.1250091038814], [-102.047022290967, 39.1212541739157], [-102.046937151339, 39.1070544317979], [-102.046920122875, 39.104205483101], [-102.046665703816, 39.061382261054], [-102.046658693364, 39.0602182820201], [-102.046580564189, 39.0470445210624], [-102.046552516091, 39.0422306090494], [-102.046544504017, 39.0409856310204], [-102.046495423663, 39.0327747812122], [-102.046408278097, 39.0179660498893], [-102.046434269952, 39.0169680669423], [-102.046292101676, 39.0000113753413], [-102.04605607742, 38.9817827391225], [-102.04605906881, 38.9743948862278], [-102.046051068414, 38.9732619088316], [-102.045878025941, 38.9387315972065], [-102.045770000833, 38.9172290249183], [-102.045615964017, 38.8863656387674], [-102.045467946811, 38.8750138649687], [-102.04559595045, 38.8730089051649], [-102.045559945974, 38.8705779543254], [-102.045378927359, 38.8582042008212], [-102.045370926065, 38.8575962126547], [-102.045360925121, 38.8569042272538], [-102.045418913169, 38.8427915062768], [-102.045408899649, 38.8306897482032], [-102.045407898925, 38.8290577788583], [-102.045405895682, 38.8259788410657], [-102.04539788271, 38.8133990913069], [-102.045456884058, 38.8126671062459], [-102.045343867012, 38.7994703692651], [-102.045457855137, 38.783459685733], [-102.045296821342, 38.7555352422195], [-102.045384822104, 38.7543462649645], [-102.045312815846, 38.7500163512097], [-102.045404865315, 38.7422235437123], [-102.0453259573, 38.7262949376553], [-102.045290000434, 38.7188491228576], [-102.045220082759, 38.7045264766956], [-102.04522212463, 38.6975736488845], [-102.045167175582, 38.6887488661387], [-102.045137186225, 38.686731916814], [-102.045168207746, 38.6832560019043], [-102.045170255007, 38.6752282009566], [-102.04509028159, 38.6704253188233], [-102.045084287132, 38.6696243388581], [-102.045204354157, 38.6587376091064], [-102.045123377322, 38.6546127102206], [-102.045066522948, 38.6297363249962], [-102.044979546265, 38.6254544322488], [-102.045297616351, 38.6152556831686], [-102.045187729934, 38.5955631696808], [-102.045209787168, 38.586007405891], [-102.045221815609, 38.5810845268943], [-102.045107857129, 38.5737427086759], [-102.045166882731, 38.5696258097125], [-102.044963893121, 38.5670868737043], [-102.045135934871, 38.560686032131], [-102.045140939386, 38.5601110457864], [-102.045198948994, 38.5587390802858], [-102.04523303916, 38.5438034487457], [-102.045118068279, 38.5382455866546], [-102.045179122277, 38.5294398041299], [-102.045122154715, 38.5237909432115], [-102.045131161224, 38.52269597004], [-102.045272266792, 38.505539394778], [-102.045330299756, 38.5001715280224], [-102.045029338085, 38.494475505854], [-102.045126408238, 38.4857534680341], [-102.045131513364, 38.4723184078383], [-102.045132541935, 38.4686903910658], [-102.045283583768, 38.4637753688595], [-102.045308591069, 38.4629713646637], [-102.045336599641, 38.4619663608834], [-102.045333664845, 38.4536543241845], [-102.045283686176, 38.4508493109082], [-102.045110702992, 38.4481273000229], [-102.044880788178, 38.4365762496847], [-102.044970856862, 38.4279532113398], [-102.044943902013, 38.4220981862108], [-102.044943919081, 38.4199701762845], [-102.044451936953, 38.4158091620032], [-102.044438002286, 38.407568126017], [-102.044906040719, 38.4042781070993], [-102.044833060687, 38.4013980948281], [-102.044921084805, 38.3987670821207], [-102.044951094824, 38.3975320757603], [-102.045065109898, 38.396139069327], [-102.044894129058, 38.3929350572499], [-102.044954197605, 38.3844260180127], [-102.045096276048, 38.375021974693], [-102.044666416015, 38.3554698941976], [-102.044533459065, 38.3494228698791], [-102.044622751604, 38.3123307047155], [-102.044479794608, 38.3061776812771], [-102.044481859835, 38.2978286440377], [-102.044602977888, 38.2833275779181], [-102.044546024699, 38.27705955184], [-102.044955104005, 38.2688485059111], [-102.044405133828, 38.2624894908545], [-102.04437922911, 38.2503064390901], [-102.044456246171, 38.2446023707203], [-102.044490259981, 38.2390413047225], [-102.044453270951, 38.2334802402559], [-102.044493275626, 38.2318472201824], [-102.044466284845, 38.2272001650617], [-102.044491292145, 38.2246421347116], [-102.044451298251, 38.2215340987581], [-102.044434303922, 38.2184580629537], [-102.044428305871, 38.2172000490974], [-102.044371319444, 38.2108309747939], [-102.044366332896, 38.2044218992794], [-102.04437233993, 38.201652866088], [-102.044334350177, 38.1961558029182], [-102.044328355719, 38.1935977720123], [-102.044309368927, 38.1874466997007], [-102.044307382752, 38.1815056292691], [-102.044316396448, 38.1755655587456], [-102.04433339976, 38.1742905441966], [-102.044353404343, 38.1727895258189], [-102.044385412214, 38.1696734888845], [-102.044395419447, 38.1666874526518], [-102.044387430729, 38.1612143882334], [-102.044377436073, 38.158896361256], [-102.044363443016, 38.1553463188516], [-102.044383455684, 38.1501002577753], [-102.044405465307, 38.1462012107752], [-102.044346466654, 38.1444201909623], [-102.044260470931, 38.1417851611175], [-102.044279479283, 38.1380561166898], [-102.044297487809, 38.134448074092], [-102.044297494996, 38.1314380389524], [-102.04428750034, 38.1293060132002], [-102.044284501764, 38.1285960048398], [-102.044598518651, 38.1250199570374], [-102.044264535808, 38.1130178219486], [-102.044280544685, 38.1094477789927], [-102.044438626615, 38.0750623701571], [-102.044631694333, 38.0481570503209], [-102.044653700362, 38.0455390186952], [-102.04466470203, 38.0447390081441], [-102.044717711614, 38.0412639671823], [-102.04469671619, 38.0389069398126], [-102.044669721815, 38.0358389042944], [-102.044625732214, 38.0308058450922], [-102.044619734163, 38.0302018377374], [-102.044593739614, 38.0269528003329], [-102.044589744806, 38.0246067719946], [-102.044562788161, 38.0048695400328], [-102.044529799328, 38.000018483721], [-102.044524684321, 37.9845814671071], [-102.044123423952, 37.9510424366837], [-102.044027361709, 37.9430404301471], [-102.043853245749, 37.9281084156848], [-102.0438542312, 37.9261414128562], [-102.04370213744, 37.914010400648], [-102.043216834286, 37.8750183637639], [-102.043228782777, 37.8679353563121], [-102.043205673616, 37.8533643399443], [-102.043055552556, 37.8374713248759], [-102.042868467618, 37.82673831425], [-102.043042453323, 37.8241533097107], [-102.042931352383, 37.8108852960137], [-102.042845321627, 37.8070422916552], [-102.042962298446, 37.8035422866709], [-102.042710195245, 37.7904472739143], [-102.042678181085, 37.788765272109], [-102.042507125685, 37.7819262662096], [-102.04245206884, 37.7745602580206], [-102.04216795597, 37.7601712431177], [-102.042185880953, 37.7500182306527], [-102.042350860148, 37.7482142623405], [-102.042164714848, 37.738547430681], [-102.04202360389, 37.7311345597506], [-102.041885495102, 37.7238816878443], [-102.04163609583, 37.6967061627502], [-102.041614987217, 37.6892492927668], [-102.041609962041, 37.687510324183], [-102.041583858796, 37.6804424463228], [-102.041703650037, 37.6656877030112], [-102.041618566105, 37.660083800714], [-102.041705548177, 37.6586418261967], [-102.041591484594, 37.6545018982253], [-102.04159242513, 37.650409970277], [-102.041594337644, 37.644289076804], [-102.041597249083, 37.638142183749], [-102.041598230942, 37.6369072062119], [-102.041603059387, 37.625020413074], [-102.041627811566, 37.6078747113267], [-102.041802721637, 37.6012408260424], [-102.041839401646, 37.5790282131628], [-102.04190410011, 37.557983579156], [-102.041907875729, 37.5424638503054], [-102.041908857587, 37.5411928720929], [-102.042025776017, 37.5352679740171], [-102.04197468164, 37.5288510858538], [-102.041844440297, 37.5123923741378], [-102.041795347366, 37.5060724853279], [-102.04174225334, 37.4996635966707], [-102.041743185791, 37.4954136780617], [-102.041716117755, 37.4910897591255], [-102.041719109145, 37.4904887698423], [-102.041747019801, 37.4847298780638], [-102.041719975121, 37.4818479328768], [-102.0417498998, 37.4769070252866], [-102.041807791728, 37.4698611561305], [-102.041841677079, 37.4624032960234], [-102.041869585938, 37.4564524071607], [-102.041872577328, 37.4558614179543], [-102.041764247691, 37.4348618130026], [-102.04168113107, 37.4275409508418], [-102.041826871046, 37.4104792701478], [-102.041685857106, 37.4099042821792], [-102.041803817581, 37.4071323331035], [-102.041651535174, 37.3891966708712], [-102.041607453945, 37.3840437682486], [-102.041602444041, 37.383416779659], [-102.041597433238, 37.3827187928069], [-102.041533310595, 37.3750249376522], [-102.042098986017, 37.3528253491284], [-102.041900869768, 37.3458244808816], [-102.04184575543, 37.3385046198027], [-102.041789690675, 37.33452369634], [-102.041850529976, 37.3240238908628], [-102.04182630421, 37.3094971646735], [-102.041674115227, 37.2976563878114], [-102.041774075261, 37.2947884408609], [-102.041949851307, 37.280009715946], [-102.041894730681, 37.2723698602153], [-102.041954632141, 37.2658499816531], [-102.041946515863, 37.258405120989], [-102.042026473109, 37.2554261760075], [-102.042133394188, 37.2500272757792], [-102.042183231821, 37.2282693712717], [-102.042189212805, 37.2256583828668], [-102.041978177883, 37.2220524010167], [-102.041975117323, 37.2138304368958], [-102.041978071882, 37.2077664643067], [-102.041988904666, 37.1855295609527], [-102.042011578144, 37.1417507530232], [-102.042069525768, 37.1343357849974], [-102.04213047107, 37.1267208176828], [-102.042137465353, 37.1258378210131], [-102.042101457283, 37.1250278259504], [-102.042086450926, 37.1243158291661], [-102.041818348729, 37.1119798858216], [-102.041934329317, 37.1088228978572], [-102.041877315941, 37.1073359052835], [-102.041992314671, 37.1065579081739], [-102.042041306091, 37.1051469141001], [-102.042049199588, 37.0909319759214], [-102.042066081627, 37.07511604482], [-102.042073030994, 37.068226075082], [-102.042076008011, 37.0651420891258], [-102.04209587605, 37.0473511666461], [-102.041929777554, 37.0350892219003], [-102.04175876707, 37.0344032261116], [-102.041930755819, 37.032184234223], [-102.042073756833, 37.0316122356454], [-102.041959747148, 37.0308112402149], [-102.042074733301, 37.0283402510186], [-102.042053710927, 37.025543262249], [-102.041961701882, 37.0247482666816], [-102.042098697658, 37.0234432720639], [-102.042220662823, 37.0183662928175], [-102.042079598577, 37.0105183290425], [-102.042275529225, 37.0000283731339], [-102.042249503235, 36.993089376328], [-102.045472618948, 36.9930903542691], [-102.054512946862, 36.9931152921233], [-102.072994615125, 36.9931161653103], [-102.074257661686, 36.9931191558145], [-102.076637747133, 36.9930971403051], [-102.077945793899, 36.9931051310088], [-102.08473304108, 36.9932410840536], [-102.108047885421, 36.9932929227069], [-102.1254615161, 36.9933538031241], [-102.148340344253, 36.9934566450853], [-102.154406564959, 36.9934836039829], [-102.175124315135, 36.9935744601473], [-102.184280646993, 36.9935993971252], [-102.188773809839, 36.9936323663574], [-102.196631095151, 36.9936913107257], [-102.197520126347, 36.9936713050607], [-102.208325518928, 36.9937362310763], [-102.221208986053, 36.9938711412058], [-102.235145491592, 36.9940190439953], [-102.248486977341, 36.9942049500486], [-102.250466047659, 36.9941339373175], [-102.252209118873, 36.9941769331216], [-102.255583259352, 36.9942629246568], [-102.260798472752, 36.9943949122761], [-102.264940643154, 36.9943929011814], [-102.270354863033, 36.9943308901301], [-102.283749411368, 36.9941808591799], [-102.28501646172, 36.9941588568924], [-102.299337049145, 36.9942558223159], [-102.306531343642, 36.9942948059012], [-102.307603387712, 36.9942978028165], [-102.343722868419, 36.99441571774], [-102.355297342851, 36.9945126900107], [-102.374949147619, 36.994578644171], [-102.388589708578, 36.9947826098746], [-102.390049769155, 36.9947836071659], [-102.402325271767, 36.9947985780124], [-102.403825333426, 36.9947995738685], [-102.434260578645, 36.9948335032797], [-102.446300071374, 36.9947504762832], [-102.470256053215, 36.9948474187105], [-102.494455046409, 36.9949453611734], [-102.496309120646, 36.994967356776], [-102.497166155648, 36.994969354941], [-102.500476292061, 36.9949733469659], [-102.52461622372, 36.9948673049653], [-102.53043444922, 36.9948792946876], [-102.539022780816, 36.9948972789088], [-102.540950855571, 36.9949102759606], [-102.541826889941, 36.9949112739676], [-102.570906016848, 36.995142220048], [-102.578514311622, 36.9951332071602], [-102.592904867028, 36.9951171809774], [-102.602093222029, 36.9950961662034], [-102.625481126353, 36.9950431241417], [-102.635684520133, 36.9950621063292], [-102.651441129218, 36.9950540778051], [-102.655912303102, 36.9950920687164], [-102.662131546427, 36.9952780560909], [-102.683380366226, 36.9952060190947], [-102.698151935771, 36.9951559940803], [-102.703619150862, 36.9954529810682], [-102.705818238356, 36.9955779741773], [-102.721695862188, 36.9965029357396], [-102.742069662713, 36.997695884286], [-102.750486001068, 36.9988128547228], [-102.751960061889, 36.9990068489082], [-102.759869390199, 37.0000258198139], [-102.760830427653, 37.0000258176616], [-102.762533496888, 37.0000258147919], [-102.772991909801, 36.99951879865], [-102.778579129933, 36.9992487908519], [-102.782511290391, 36.9994107807232], [-102.792239683796, 36.9998117553055], [-102.796297849143, 37.0000257437667], [-102.806772268238, 37.0000257208091], [-102.814625582098, 37.0007896991544], [-102.819591770823, 37.0004813446542], [-102.82251913689, 37.0003441296922], [-102.823902644836, 37.0002792559507], [-102.829091161203, 37.0002026730684], [-102.830545114135, 37.000135380766], [-102.841998674432, 36.9996046528549], [-102.865459613585, 36.9995976048202], [-102.875491015921, 36.9996345833202], [-102.893159721427, 36.9994495478713], [-102.904272166258, 36.9993335261665], [-102.906632259698, 36.999309522297], [-102.922469892331, 36.9991434909011], [-102.927915111274, 36.9990864806593], [-102.936281444908, 36.9989984642349], [-102.964503571848, 36.9987254112149], [-102.975565014828, 36.9986193887952], [-102.979623176582, 36.9985553816848], [-102.984103356975, 36.9986463702556], [-102.98581642356, 36.9985773683514], [-102.986985472206, 36.9985303659787], [-103.000616028627, 37.0000253147458], [-103.00223406693, 37.0002123217109], [-103.013569348749, 37.0002183817952], [-103.025142635608, 37.0002264420582], [-103.037473941566, 37.0002355081492], [-103.038970977698, 37.0002365146954], [-103.070071748779, 37.0002596788861], [-103.074280852654, 37.0002627006761], [-103.08611614664, 37.0002707638041], [-103.101690533369, 37.0002828459395], [-103.103822584982, 37.0002848568785], [-103.105575629293, 37.0002858648589], [-103.116498899705, 37.0002939236799], [-103.120999011019, 37.0002979477094], [-103.123294068229, 37.0002999586479], [-103.125499124129, 37.0001809709719], [-103.127586176436, 37.0001839820037], [-103.144796601909, 37.0002170732131], [-103.149524719117, 37.0002260976945], [-103.156011881382, 37.0000261333291], [-103.17337631223, 37.0000262251597], [-103.177520414011, 36.9999542479034], [-103.18367356828, 36.9999192812249], [-103.188235681315, 36.9998933060496], [-103.200509984676, 36.9998313712264], [-103.216881391758, 36.9997494588317], [-103.220167472187, 36.9997334766676], [-103.222796538291, 36.9997204897667], [-103.250502225571, 36.999583639321], [-103.25161726301, 36.9995806368746], [-103.255113379434, 36.9995736311661], [-103.269165843102, 36.9995466112934], [-103.273119973658, 36.9995736039037], [-103.29832880708, 36.9995625662345], [-103.300101864957, 36.9995625640822], [-103.304326004832, 36.9995625583428], [-103.311843252657, 36.99957454589], [-103.325844716272, 36.9995405253281], [-103.336746076774, 36.9995625088401], [-103.349142487233, 36.9995054903033], [-103.350578534046, 36.9995034879529], [-103.369365155195, 36.9994694601849], [-103.375506359176, 36.9994644503607], [-103.379984506681, 36.9994364439805], [-103.380722531976, 36.9994344430632], [-103.392716929278, 36.9994024247917], [-103.397815096687, 36.9994204172698], [-103.406248374573, 36.9994504037673], [-103.41993182829, 36.9994053841992], [-103.425684018633, 36.999386375116], [-103.44194455744, 36.9993283513237], [-103.447759750228, 36.999323342925], [-103.462554240288, 36.9992623209304], [-103.470757511732, 36.9992463092491], [-103.476967717106, 36.9992352987948], [-103.478193757569, 36.9992322970522], [-103.487643071364, 36.999214283724], [-103.489713139223, 36.9992102797253], [-103.499977480102, 36.9991902647507], [-103.501493546146, 36.999230273889], [-103.510870029029, 36.9991353681065], [-103.515118247348, 36.9990924116951], [-103.538929470173, 36.9989266517336], [-103.540548553216, 36.9989156677782], [-103.549788026849, 36.9988517620759], [-103.560423572265, 36.9988138691795], [-103.573398237256, 36.9987679990704], [-103.599088554195, 36.9986322589415], [-103.625516906311, 36.9986355240081], [-103.643605832928, 36.9984767071609], [-103.663869871003, 36.998406910895], [-103.670380204413, 36.9983689768828], [-103.682201808973, 36.9983020962044], [-103.693611393143, 36.9982372106765], [-103.720863786937, 36.9981414843334], [-103.730178262709, 36.9980515792177], [-103.733257420703, 36.9980226102232], [-103.734374476658, 36.9980476210742], [-103.735977559808, 36.9980366377094], [-103.737430634187, 36.9980276509926], [-103.738566692205, 36.998020663077], [-103.740535793019, 36.9979746827202], [-103.750523302772, 36.9979827841155], [-103.76747404506, 36.9977758230426], [-103.769648141422, 36.9977758273473], [-103.772163249944, 36.9977478332593], [-103.773635313811, 36.9977038371991], [-103.774797366377, 36.9977198391609], [-103.780091597386, 36.9976658518973], [-103.782774715121, 36.997675858151], [-103.794904245092, 36.9975968849758], [-103.800098472948, 36.9975218971527], [-103.808882858262, 36.997433916942], [-103.817866250953, 36.9973449379371], [-103.824453537643, 36.9973259520147], [-103.833107916971, 36.9973029720328], [-103.84065324703, 36.9973199892733], [-103.852670773255, 36.9972880153109], [-103.868516465572, 36.9972340506992], [-103.875528773969, 36.9971310682031], [-103.877225847848, 36.9970740722365], [-103.891996495721, 36.9968701062217], [-103.904734053986, 36.9967861351232], [-103.926457006389, 36.9966941836506], [-103.936688452759, 36.9966522073427], [-103.957145350143, 36.9965872529659], [-103.967264792767, 36.9965342750807], [-103.976072177647, 36.9964882959774], [-103.985559595281, 36.9964013168632], [-103.993446940918, 36.9963063358036], [-103.997507119389, 36.9962583462347], [-104.000534252352, 36.9962233520279], [-104.007865592032, 36.9962453551529], [-104.040424099749, 36.9960133720997], [-104.042795211026, 36.9959973726487], [-104.049826535859, 36.9959473761359], [-104.051285603798, 36.9959373768294], [-104.056576848806, 36.9959003800297], [-104.095748662915, 36.9956234006632], [-104.096497697962, 36.995618402065], [-104.097399740356, 36.9956124011638], [-104.120022787605, 36.9954534137022], [-104.125186027177, 36.9954174168198], [-104.138450641393, 36.9953004239645], [-104.142091809683, 36.9952844257983], [-104.146099994565, 36.9952664280368], [-104.149746162878, 36.9952504298635], [-104.162862769769, 36.9951914357631], [-104.171766181857, 36.9951214420467], [-104.172571219675, 36.9951154418238], [-104.175798368824, 36.9950914437975], [-104.181234620784, 36.9950494472332], [-104.199342458735, 36.9948964566828], [-104.215644213145, 36.9947604671359], [-104.219040368637, 36.9948514681398], [-104.25054582716, 36.9946504851726], [-104.274188546698, 36.9943734682496], [-104.296238218167, 36.9941154521133], [-104.299708323871, 36.9940754488936], [-104.312263705593, 36.993944440085], [-104.321981002108, 36.9938934327225], [-104.33884351636, 36.9935414227286], [-104.366480356756, 36.9934704000505], [-104.367284381275, 36.9934553988081], [-104.368891429589, 36.9934513980936], [-104.375549631982, 36.9935303913586], [-104.40816562469, 36.993478362733], [-104.413537788143, 36.9936003571225], [-104.429830282719, 36.9937573402166], [-104.436577488394, 36.9937363351116], [-104.450553914166, 36.9937273227747], [-104.461987260572, 36.9938403108986], [-104.476966717342, 36.9938642971225], [-104.478010748348, 36.9938652958608], [-104.48003680864, 36.9938672947722], [-104.486136994647, 36.9938732900712], [-104.486995021388, 36.9938732893537], [-104.491885170419, 36.9938832839092], [-104.493374215139, 36.9938832831917], [-104.497865351385, 36.9938872788611], [-104.500553434109, 36.9938262783335], [-104.5037864798, 36.9938342861802], [-104.519267697758, 36.9937723277673], [-104.537249951232, 36.9939843709079], [-104.574699479345, 36.9941244636867], [-104.589467688293, 36.9940985037515], [-104.591581717905, 36.9941035089069], [-104.598933822143, 36.9941195281285], [-104.604181895915, 36.9941225422702], [-104.614574041907, 36.9941285676832], [-104.624566180678, 36.9943835882982], [-104.62555520245, 36.9936056091261], [-104.631601287419, 36.9935986258266], [-104.645039477706, 36.9933846659152], [-104.680833983876, 36.9934607591624], [-104.701117271051, 36.9934638120746], [-104.706038340094, 36.9935058231468], [-104.70707735401, 36.9935048258388], [-104.732041708232, 36.9934538942352], [-104.733730731409, 36.993495896703], [-104.750556968995, 36.9935319396967], [-104.764896400379, 36.9935049772288], [-104.785243010697, 36.9934680301873], [-104.80130549434, 36.9934390709266], [-104.840083658606, 36.9933691710233], [-104.856621155202, 36.9933392136973], [-104.875087710208, 36.9933062608403], [-104.895727329413, 36.9933043142909], [-104.899509443371, 36.9933133230905], [-104.900710479228, 36.9933163257842], [-105.000564477129, 36.9932705800721], [-105.029238128771, 36.9927355308475], [-105.031696184391, 36.9928175232647], [-105.054131690359, 36.9937204456742], [-105.066469969938, 36.9938744150865], [-105.085291397211, 36.9944633547546], [-105.119630178073, 36.9954012507903], [-105.120810204131, 36.9954342472226], [-105.125567312669, 36.9952182419417], [-105.136681564909, 36.9951732191505], [-105.155051984011, 36.995268173644], [-105.157084029777, 36.9952791703232], [-105.161121122444, 36.9953001599352], [-105.166319240006, 36.9952891489096], [-105.220623476011, 36.9951750300499], [-105.222902527938, 36.995171025121], [-105.251153170997, 36.9956129457219], [-105.26092834417, 36.9956108621951], [-105.277793638708, 36.9956107172666], [-105.279391667936, 36.9956107029173], [-105.28074169118, 36.9956106921552], [-105.290553863264, 36.9956106067766], [-105.334556637307, 36.9956732280665], [-105.375572360317, 36.9957718718654], [-105.38449851685, 36.9957897948908], [-105.393122668768, 36.9958077200645], [-105.403254846808, 36.9958286320443], [-105.404764872579, 36.9958316188545], [-105.413078018763, 36.995848548176], [-105.419320128703, 36.9958624928372], [-105.433963388283, 36.9959553658226], [-105.438112462238, 36.9959773288471], [-105.442469539301, 36.9960002912931], [-105.447265623044, 36.9960232501447], [-105.456085778373, 36.9959991742013], [-105.465191938424, 36.9959970971423], [-105.470853036903, 36.9959940479191], [-105.483565260881, 36.9959899382836], [-105.484487277315, 36.9959899296741], [-105.485688297901, 36.9959729207455], [-105.488362344448, 36.9959368989977], [-105.490746386075, 36.9959048792535], [-105.495000459613, 36.9958478443422], [-105.498475518628, 36.9958018160362], [-105.500574558951, 36.9959217942094], [-105.507051705001, 36.9958917152023], [-105.508955749822, 36.9959416902277], [-105.509897771738, 36.9959656779412], [-105.511466805146, 36.9958816606437], [-105.51240082487, 36.9957906522629], [-105.514540874185, 36.9958276240047], [-105.516486918839, 36.9958705980447], [-105.52225805016, 36.9958325278837], [-105.526124137734, 36.9958234813568], [-105.528669195189, 36.9958014501285], [-105.533023295235, 36.9958743941543], [-105.533932315743, 36.9958813822671], [-105.548062636397, 36.9958842076456], [-105.555169798803, 36.9959071191796], [-105.562419964019, 36.9959070302139], [-105.569931133842, 36.9959229356961], [-105.573210209208, 36.9959298958233], [-105.578548331003, 36.9959518301567], [-105.579266348121, 36.9959508206839], [-105.588388554779, 36.9959317081396], [-105.591307620413, 36.9959256721074], [-105.596045725988, 36.9958556152123], [-105.604979928732, 36.9958525042815], [-105.609490032007, 36.9958744479642], [-105.616466188603, 36.9958163626599], [-105.618339230768, 36.9958013403562], [-105.62336334376, 36.9957362790675], [-105.625577393593, 36.9957072517936], [-105.627480435895, 36.9956852291413], [-105.629278476818, 36.995686207049], [-105.636546643374, 36.9957201159756], [-105.645462845675, 36.9957610051188], [-105.660649191642, 36.9957878168364], [-105.663617261273, 36.9958347792914], [-105.664730288283, 36.995880763812], [-105.681714673376, 36.9958585539513], [-105.684022724717, 36.9958495260817], [-105.693731943582, 36.9958134067001], [-105.694782967973, 36.995782394944], [-105.697671031848, 36.9957443577422], [-105.707547258304, 36.9958342361698], [-105.71317038769, 36.9958781651525], [-105.716481461945, 36.9958551237484], [-105.718413506356, 36.9958471010477], [-105.735057881809, 36.9957778957128], [-105.750580231828, 36.9957007041896], [-105.759497432157, 36.9957315430695], [-105.779914890805, 36.9958021718994], [-105.800723353757, 36.9957747969757], [-105.823093853139, 36.9957453930466], [-105.827439950095, 36.9957403141002], [-105.843699312108, 36.9956900196696], [-105.871770937102, 36.9956055141892], [-105.876058032709, 36.9956324350168], [-105.877015053795, 36.9956154181162], [-105.878552089213, 36.9956113909689], [-105.899655558904, 36.9955570097532], [-105.903933654291, 36.995557933135], [-105.929790232321, 36.9955684648528], [-105.946049596132, 36.9955711711432], [-105.969084111307, 36.9955757550479], [-105.986574499433, 36.995412441167], [-105.996769728426, 36.995469254707], [-105.997482742827, 36.9954232426737], [-106.000585810381, 36.9952841890328], [-106.005372962174, 36.9953571407295], [-106.006645001769, 36.9953491287383], [-106.008622065251, 36.9953371111088], [-106.015166269637, 36.9952690496762], [-106.027672662634, 36.9951949312858], [-106.037294965901, 36.9951378398791], [-106.039906048632, 36.9951218151323], [-106.050594384444, 36.9950587148337], [-106.053350472329, 36.9950416877601], [-106.058636637365, 36.9949796377767], [-106.066171874851, 36.9949335680492], [-106.06876895644, 36.9949565422899], [-106.070767019838, 36.9949785221048], [-106.07806224904, 36.9949304542108], [-106.081639362061, 36.994946420165], [-106.085996499311, 36.9948863783158], [-106.099832934323, 36.994792247725], [-106.114778405131, 36.9947371068337], [-106.125589748153, 36.9948650018706], [-106.127764815594, 36.9948519811343], [-106.141961263932, 36.9947708468592], [-106.153869637664, 36.9947007336546], [-106.155638692648, 36.99451871898], [-106.16349093931, 36.9944716452207], [-106.168656102175, 36.9944525961603], [-106.170106148333, 36.9944465822525], [-106.176230340918, 36.9944245240786], [-106.179395440735, 36.9944134949893], [-106.201479134996, 36.9941282871477], [-106.220498735112, 36.9941381058866], [-106.234802186275, 36.9941449693172], [-106.236042226083, 36.9942549563165], [-106.247715595147, 36.9942728438255], [-106.248685625635, 36.9942948353177], [-106.250593685028, 36.9941668180676], [-106.287212558065, 36.9941446708448], [-106.292890693094, 36.9940806492056], [-106.298065813784, 36.9938976300042], [-106.304163962411, 36.9940816027396], [-106.308959076871, 36.9941725830314], [-106.322545400248, 36.9940555301449], [-106.327623521751, 36.9942175059677], [-106.339783811835, 36.994141458679], [-106.343149891731, 36.99423644316], [-106.372002579406, 36.9940413297286], [-106.375596664298, 36.9940123147225], [-106.407065414065, 36.9939351888505], [-106.412268538836, 36.9939221679552], [-106.425553854727, 36.9938891149029], [-106.446137345395, 36.993839032341], [-106.476240063043, 36.9937649111219], [-106.483567237235, 36.9937478823235], [-106.498604596713, 36.9937118222126], [-106.49964162086, 36.9937088180995], [-106.500599643568, 36.993774813136], [-106.509279723697, 36.9936998552658], [-106.534705960197, 36.9934799770809], [-106.537674987433, 36.9934569909143], [-106.540402012124, 36.9934330038444], [-106.54532305781, 36.9933430293053], [-106.548006083019, 36.9933670407982], [-106.56221121537, 36.9932081103466], [-106.563118222753, 36.9931921138928], [-106.585684433594, 36.9929812222716], [-106.591188485002, 36.9929292492347], [-106.616292718592, 36.9929133660861], [-106.617135726401, 36.9930103689722], [-106.625651804702, 36.9931644079837], [-106.62866283177, 36.9931814232804], [-106.661355136361, 36.9932495762676], [-106.662188144124, 36.9932415798391], [-106.670411220726, 36.9931356186528], [-106.675636269779, 36.9931296441029], [-106.72287671404, 36.9927118700103], [-106.737450850954, 36.9925829388751], [-106.750601975609, 36.9924670021206], [-106.775610057125, 36.9925347690173], [-106.782164078301, 36.9925207089464], [-106.787502095891, 36.992510659682], [-106.795663123161, 36.9924955850655], [-106.797582130322, 36.9924925672718], [-106.801905144168, 36.9924975273306], [-106.841495273161, 36.9924431611081], [-106.843928281057, 36.9924401390074], [-106.849685299845, 36.9924330860036], [-106.869806365653, 36.9924329001716], [-106.87560230485, 36.998316811666], [-106.877040288431, 37.0000167888516], [-106.878664293344, 37.0001437717705], [-106.891465336448, 37.0001426561744], [-106.905709382919, 37.0001285272024], [-106.907001386673, 37.0001285150062], [-106.914747413841, 37.0001284446985], [-106.918898428158, 37.0001284081098], [-106.921710437068, 37.0001283822825], [-106.923325441761, 37.0001263670349], [-106.937008487642, 37.0001142439813], [-106.937835491066, 37.0001132352812], [-106.939752497678, 37.000113218063], [-106.944456513087, 37.0001121756439], [-106.945900518076, 37.0001121627302], [-106.952818541097, 37.0001111002231], [-106.956028551289, 37.0001120708998], [-106.969471596072, 37.0001169486751], [-106.97033859878, 37.0001179401569], [-106.973433610243, 37.0001219132585], [-106.975013614775, 37.000123897657], [-106.979644630389, 37.000129855874], [-106.984769648442, 37.0001368098767], [-106.985523651173, 37.0001368027025], [-107.000602700565, 37.0001586662322], [-107.014911043953, 37.0000154486992], [-107.019134146274, 37.0000153841308], [-107.027319342716, 37.0000152592986], [-107.028066361045, 37.0000152471024], [-107.059911127624, 37.0000147599699], [-107.107303267693, 37.0000140339344], [-107.108792305226, 37.0000140109768], [-107.125605708581, 37.0000137527033], [-107.136829979292, 37.0000135812384], [-107.143997150955, 37.0000134721896], [-107.146108202653, 37.0000134399054], [-107.150902318186, 37.0000133652931], [-107.156751459207, 37.0000132763322], [-107.157750481922, 37.0000132612662], [-107.186256169268, 37.0000128243536], [-107.197255433559, 37.000012655041], [-107.212934811784, 37.0000124147031], [-107.237045391889, 37.000012045946], [-107.2397274559, 37.0000120050527], [-107.24255252362, 37.0000119620071], [-107.247586644743, 37.0000118838076], [-107.251140734841, 37.00001183574], [-107.255278861029, 37.0000118199566], [-107.264295137449, 37.0000117840853], [-107.277163530844, 37.0000117331481], [-107.308910503228, 37.0000116061636], [-107.310032536747, 37.000011601859], [-107.321528888292, 37.0000115566612], [-107.346810663118, 37.0000114562215], [-107.350776784386, 37.0000114411555], [-107.375612543877, 37.0000113421506], [-107.398376241249, 37.0000112517549], [-107.400857317097, 37.000011241711], [-107.420923930626, 37.0000111620766], [-107.422425975765, 37.0000111563372], [-107.42368501584, 37.0000111513153], [-107.425336066331, 37.0000111448584], [-107.428589166012, 37.0000111319447], [-107.430456221804, 37.0000111247705], [-107.433655321058, 37.0000111118568], [-107.440543530792, 37.0000110838771], [-107.442192581633, 37.0000110781378], [-107.445536684246, 37.0000110652241], [-107.44687672541, 37.0000110602021], [-107.454808967048, 37.0000110279179], [-107.458831091088, 37.0000110121346], [-107.461085159968, 37.000011002808], [-107.468788394989, 37.0000109719587], [-107.470095435643, 37.0000109669366], [-107.472554510851, 37.0000109568927], [-107.478612696127, 37.0000109339351], [-107.481747792214, 37.0000109210214], [-107.495539214444, 37.0000108657795], [-107.497084261037, 37.0000108600401], [-107.500616369361, 37.0000108456916], [-107.508802764155, 37.0000107617527], [-107.510342837675, 37.0000107459693], [-107.520128310931, 37.0000106448122], [-107.533902974191, 37.0000105041967], [-107.541326331899, 37.0000104281494], [-107.559329199912, 37.0000102430535], [-107.561640311813, 37.0000102200958], [-107.574306922035, 37.0000100902416], [-107.581582273317, 37.0000100141944], [-107.585033438941, 37.0000099790405], [-107.588856622977, 37.0000099402995], [-107.594448893437, 37.0000098829054], [-107.595868961018, 37.0000098678394], [-107.596582995904, 37.0000098599478], [-107.597298029718, 37.0000098527735], [-107.600725195053, 37.000009818337], [-107.602171265268, 37.0000098032711], [-107.604941399212, 37.0000097752915], [-107.625622394818, 37.0000095629332], [-107.635637879007, 37.0000094603412], [-107.665386311886, 37.0000091540002], [-107.691182556367, 37.0000088892698], [-107.712487582855, 37.0000086711722], [-107.72903738098, 37.0000085011422], [-107.733395590819, 37.0000084559443], [-107.750628421174, 37.00000827874], [-107.780644128003, 37.0000081940836], [-107.788591314912, 37.0000081696911], [-107.844485630055, 37.0000080111399], [-107.858110951095, 37.0000079716815], [-107.866019135849, 37.0000079501587], [-107.866789154643, 37.000007947289], [-107.868477195063, 37.000007942267], [-107.869185211237, 37.0000079401147], [-107.873378309828, 37.0000079279185], [-107.875631362714, 37.000007922179], [-107.885140586952, 37.0000078941994], [-107.894667810734, 37.0000078676546], [-107.917110337933, 37.0000078030862], [-107.918208364875, 37.0000078002165], [-107.937224811904, 37.0000077456921], [-107.942469935609, 37.0000077313436], [-107.943955970075, 37.000007727039], [-107.969141563182, 37.0000076552964], [-107.984029913714, 37.0000076122508], [-107.984935934747, 37.0000076086637], [-107.992009102207, 37.0000075900106], [-107.997143221991, 37.0000075742272], [-108.000634304255, 37.0000075641832], [-108.013365904893, 36.9999094589276], [-108.033470853129, 36.9997542943017], [-108.037613047786, 36.9997462598161], [-108.042430275175, 36.9997372187768], [-108.047607520381, 36.9997291771151], [-108.060794141066, 36.9997090668591], [-108.062939243405, 36.9997050492552], [-108.070784612565, 36.9996909847706], [-108.082139147975, 36.9996708902879], [-108.090852559194, 36.9996548169936], [-108.112729590634, 36.9996176361881], [-108.11370563714, 36.9996156281013], [-108.124177130422, 36.9995985403489], [-108.125096174331, 36.9996025328483], [-108.126336231207, 36.9995155228596], [-108.129926400342, 36.9995004941123], [-108.14314702316, 36.9994463839972], [-108.144193071782, 36.9994413763237], [-108.16881323291, 36.9993571713119], [-108.187142095048, 36.9992810186782], [-108.188854176182, 36.9992730049482], [-108.196839553169, 36.9992749391485], [-108.201911791606, 36.9992498956992], [-108.21064820329, 36.999207824666], [-108.214748395419, 36.9991557913154], [-108.241151637826, 36.9990535719036], [-108.249369025396, 36.9990215032512], [-108.250646094659, 36.9995674870906], [-108.267900605853, 36.999591251257], [-108.272609745252, 36.9995821872415], [-108.276572862554, 36.9995701329745], [-108.288097202908, 36.9995609749731], [-108.297897492078, 36.9995118417207], [-108.315198005099, 36.999505605092], [-108.319747139275, 36.9994975433177], [-108.320475160931, 36.9995055333489], [-108.352365103786, 36.9994500981411], [-108.354920179253, 36.9994430630058], [-108.355820205828, 36.9994320511452], [-108.357190246231, 36.9994290321919], [-108.375649795276, 36.9995227782395], [-108.378272872312, 36.9995207421703], [-108.379721456014, 36.9995194142055], [-108.382440995044, 36.9995176851967], [-108.390330228939, 36.999512577805], [-108.396114400205, 36.9995084977743], [-108.403749625573, 36.9995043940682], [-108.42227717439, 36.9994441413056], [-108.438860662931, 36.9994169147666], [-108.446518889662, 36.9993678108359], [-108.447236911272, 36.9993638011058], [-108.451585040216, 36.9993937417099], [-108.466161469631, 36.9993325432833], [-108.481113913162, 36.9993173387288], [-108.484006997721, 36.9992952999035], [-108.484764019689, 36.9992732897692], [-108.500189474727, 36.999175080973], [-108.521794119006, 36.9992788950757], [-108.529913361141, 36.9992768267155], [-108.535600529627, 36.9992767786474], [-108.536414554192, 36.9992767721906], [-108.550357968673, 36.9992756551469], [-108.557081168669, 36.9992755991871], [-108.574136675179, 36.9992464563226], [-108.583063941132, 36.9992303807864], [-108.590838171806, 36.9992173170342], [-108.597709376432, 36.9992152587164], [-108.619074012427, 36.9992080800725], [-108.620320050286, 36.999293067969], [-108.625657204596, 36.999115026679], [-108.632619412152, 36.9991119682542], [-108.633649442915, 36.9991109588234], [-108.641222666561, 36.9991078960938], [-108.647149844231, 36.9991058456649], [-108.655937105051, 36.9990717732379], [-108.659241202091, 36.9990597447177], [-108.682103880332, 36.9989755550668], [-108.688042056974, 36.9989765056697], [-108.689850111418, 36.998976491321], [-108.701473456897, 36.9989793933501], [-108.721534052612, 36.99892422608], [-108.73276138478, 36.9988881318344], [-108.737079512689, 36.998874095896], [-108.739050570933, 36.9988730792876], [-108.749300875636, 36.9988689927657], [-108.750660917789, 36.9989039807329], [-108.751413942254, 36.9989009911736], [-108.75878217215, 36.9988780869986], [-108.759731202722, 36.9988760989804], [-108.766775423769, 36.9988551921433], [-108.769876523114, 36.9988982297591], [-108.773501636714, 36.9988842777628], [-108.774565669608, 36.9988892919299], [-108.776194721257, 36.9988973128748], [-108.778774803127, 36.9989093457253], [-108.792077220246, 36.9988505201916], [-108.796052346226, 36.9988695717375], [-108.798478422721, 36.9988826032648], [-108.801673523574, 36.9988996431097], [-108.807088694769, 36.9989287136461], [-108.810330797275, 36.9989467557393], [-108.811619838385, 36.9989477723467], [-108.820561119852, 36.9989608878007], [-108.826444305226, 36.9989699648041], [-108.83923970691, 36.9989511306666], [-108.841738785894, 36.998948164067], [-108.843411837924, 36.9989461860949], [-108.856892261606, 36.9989233608514], [-108.85828630679, 36.9989173788645], [-108.865270525766, 36.9988924701756], [-108.868893639716, 36.9988795168506], [-108.875664851969, 36.9988446063554], [-108.876899889957, 36.9988456222467], [-108.883114087445, 36.9988487022053], [-108.895597479078, 36.998856865207], [-108.921981310688, 36.9988742070988], [-108.927234476112, 36.9988802751816], [-108.929442546758, 36.9988793030544], [-108.939432861051, 36.9988924343037], [-108.947081102109, 36.9989025322279], [-108.948024131935, 36.9989035452487], [-108.951578242695, 36.9988905912083], [-108.954415332568, 36.9989126279985], [-108.958879474439, 36.998919684706], [-108.961082543266, 36.9989247139369], [-109.00066879064, 36.9989412278915], [-109.004863886186, 36.99895126124], [-109.005865908376, 36.9989542680158], [-109.027268391293, 36.9990084301364], [-109.030436461839, 36.9990164539384], [-109.033889541774, 36.999063479686], [-109.043583759671, 36.9990855530154], [-109.045233799558, 36.999212564752], [-109.045526823716, 37.0000035609437], [-109.045484927189, 37.0033015110099], [-109.045442035329, 37.0067694579671], [-109.045399144368, 37.0102784049433], [-109.045372213774, 37.0125243698466], [-109.045335310083, 37.0156073220278], [-109.045283442257, 37.0198592570808], [-109.045250526189, 37.0225512162923], [-109.045243546279, 37.0231902057787], [-109.045227870677, 37.0335610478344], [-109.045216132391, 37.0418699218098], [-109.045210263698, 37.0460608572272], [-109.045177100592, 37.0727484511627], [-109.045069159028, 37.0746674201548], [-109.04501348504, 37.0850662613243], [-109.045006527588, 37.0864352397614], [-109.045143727281, 37.092684146851], [-109.045257748644, 37.0933251377184], [-109.045206829438, 37.0958960982473], [-109.045203880269, 37.0975090729441], [-109.045184254775, 37.1094698909502], [-109.045282278041, 37.1101478822694], [-109.045167335905, 37.1120698509082], [-109.045308542983, 37.1185697538782], [-109.045289594819, 37.1202267281363], [-109.045332746292, 37.1250016557833], [-109.045421966067, 37.1319775507483], [-109.045520207623, 37.139612436808], [-109.045657545657, 37.1503072748428], [-109.045703660672, 37.1539322206815], [-109.045719700092, 37.1551742018697], [-109.045740752111, 37.1568121781959], [-109.046006399211, 37.1772848713192], [-109.046004468732, 37.1795348359922], [-109.045990102874, 37.199724529057], [-109.045989168626, 37.2018374970742], [-109.045846249359, 37.2044394562359], [-109.045638365728, 37.2082693933405], [-109.045498444139, 37.2108503517479], [-109.045500484213, 37.212122332857], [-109.045512654589, 37.2175562498389], [-109.04551772468, 37.2197872159872], [-109.04552984475, 37.2236181580641], [-109.045563262977, 37.2368789569959], [-109.045570357871, 37.2399079102884], [-109.045595655328, 37.2493577680879], [-109.046050681663, 37.2499997659659], [-109.046013568666, 37.2673486997274], [-109.045978460708, 37.2840806361196], [-109.045960404571, 37.2926056036578], [-109.045920284013, 37.3113935332094], [-109.045900221938, 37.3208784960653], [-109.045892199983, 37.3243974832801], [-109.045886183067, 37.3269604728605], [-109.045881166874, 37.3293774637159], [-109.045818970219, 37.3597313477606], [-109.045820871952, 37.3749992903479], [-109.045423738443, 37.394839206358], [-109.044875549626, 37.4223250891924], [-109.044579471197, 37.4339660357138], [-109.044288378417, 37.447583977088], [-109.043822230938, 37.4690288821153], [-109.043797222739, 37.4701368771295], [-109.043764206957, 37.4724848680603], [-109.043636168283, 37.4782008417121], [-109.043589149563, 37.4808158312647], [-109.043499123998, 37.4846908129868], [-109.043148018368, 37.4999987437106], [-109.041876015604, 37.5307324258492], [-109.041821025234, 37.5466982788844], [-109.041875032847, 37.5581641752189], [-109.041929041358, 37.5690580770327], [-109.041871052412, 37.5871249091407], [-109.041817060968, 37.6041777499437], [-109.041800064843, 37.6096616999197], [-109.042142076828, 37.6176686347358], [-109.042026075579, 37.6210786001935], [-109.04210007969, 37.6238015776517], [-109.042084080695, 37.6249975658163], [-109.042118084623, 37.6323034999096], [-109.042202098662, 37.6498613407046], [-109.042280111056, 37.6660731941188], [-109.042257112388, 37.6679231771314], [-109.042114115866, 37.6799890606879], [-109.042019119923, 37.6879579860193], [-109.041743128722, 37.7112207642558], [-109.041771131006, 37.7131887477699], [-109.041742131592, 37.7162557180294], [-109.041693136578, 37.7257076301776], [-109.041647146429, 37.7402164958515], [-109.041892153838, 37.7454024546977], [-109.042109161657, 37.7499964191142], [-109.042052145586, 37.7543904561703], [-109.04184408858, 37.7707215977605], [-109.041789073057, 37.7750826369887], [-109.041635029952, 37.7872117431634], [-109.04147198483, 37.8001118558291], [-109.041515971736, 37.804294896256], [-109.041539960347, 37.8085159341661], [-109.041603935667, 37.8162560063362], [-109.041695900694, 37.8275221102601], [-109.041701898745, 37.8282011156889], [-109.041764876037, 37.8358321857321], [-109.041733853617, 37.8420572427846], [-109.041785803189, 37.858191389063], [-109.041799792653, 37.8615394190008], [-109.041812784987, 37.8641184441223], [-109.041857757345, 37.8730275252502], [-109.041905756128, 37.8737785320308], [-109.041631745712, 37.8749975392986], [-109.041523723299, 37.8811735943141], [-109.041069627617, 37.9072428259431], [-109.0416635847, 37.9247339912171], [-109.0418515428, 37.9389771198991], [-109.042840487317, 37.9628573410494], [-109.042937452367, 37.9744724451055], [-109.043023445394, 37.9771044681423], [-109.042935427564, 37.9816125081228], [-109.042814375986, 37.996693642684], [-109.042821369371, 37.9989746633356], [-109.042825365976, 37.9999986722264], [-109.042814345444, 38.0022606477454], [-109.042770258825, 38.0113655461699], [-109.042740201195, 38.0175644769003], [-109.042543821389, 38.05806502689], [-109.042466669581, 38.0742468467652], [-109.04238350445, 38.0919646510957], [-109.042379497066, 38.092715641878], [-109.042376491303, 38.0934136340241], [-109.042331404859, 38.102558532721], [-109.042313372078, 38.1061894920575], [-109.042297340743, 38.1094174569282], [-109.042220196122, 38.1249972841163], [-109.042187130034, 38.1318992067921], [-109.042156070783, 38.1383101363019], [-109.042084934094, 38.1530229733168], [-109.042072910144, 38.1554959462274], [-109.042037900103, 38.1565509340263], [-109.041888854326, 38.1611678839019], [-109.041773818765, 38.1646968447844], [-109.043166765309, 38.173371740088], [-109.045290682678, 38.1865985788556], [-109.045815661724, 38.1898665392737], [-109.047218607415, 38.198603431323], [-109.049177529419, 38.2107992803529], [-109.049569513785, 38.2132372492925], [-109.049794504035, 38.2146392306789], [-109.05420232603, 38.2420848831567], [-109.0546593071, 38.2449278471539], [-109.055402273128, 38.2499957816949], [-109.055572285584, 38.2510457707087], [-109.056137323203, 38.2536787437818], [-109.059615584712, 38.2729555458853], [-109.060073620404, 38.2754955203396], [-109.060091839136, 38.2966153370682], [-109.060111067575, 38.3186451450207], [-109.060118158875, 38.3274010688683], [-109.060119164989, 38.3280350629134], [-109.060122201294, 38.3313910348972], [-109.060125234905, 38.3347000049541], [-109.060127257013, 38.3368549860475], [-109.060131301228, 38.3410319502207], [-109.06013534185, 38.345029914675], [-109.06014545688, 38.3561268191182], [-109.060162654228, 38.3749946548336], [-109.060167690184, 38.3785406240401], [-109.060181799123, 38.3889985329513], [-109.060175811852, 38.3903235210004], [-109.060177831265, 38.3921745048648], [-109.060180869367, 38.3957224748556], [-109.060182886983, 38.3974984591265], [-109.060186929402, 38.4015604242245], [-109.060187946295, 38.403152410065], [-109.060196039217, 38.412083331919], [-109.060197047127, 38.4128823248247], [-109.060202108235, 38.4187362740534], [-109.060211215356, 38.4290251849084], [-109.060212232249, 38.4306291711571], [-109.060233478303, 38.4543879652902], [-109.060234491603, 38.4557019530894], [-109.060241578412, 38.4640088808491], [-109.060263837767, 38.4889606642703], [-109.06026788288, 38.4932606269136], [-109.059972944413, 38.4999935691223], [-109.059974961131, 38.5018695422449], [-109.060168230071, 38.5322570928131], [-109.060195458007, 38.5583227092976], [-109.060200496658, 38.5629396410286], [-109.060264815134, 38.5993341052944], [-109.060189876774, 38.6066569972802], [-109.060162900366, 38.6092949578141], [-109.060039002926, 38.6215717768684], [-109.06000403241, 38.6249917273014], [-109.059894143298, 38.637992533728], [-109.059810227176, 38.6479423882167], [-109.059807233091, 38.6486833762717], [-109.059815263131, 38.6521653250992], [-109.059858441554, 38.6724710262118], [-109.059861451808, 38.6736730081938], [-109.059552848169, 38.7198943231815], [-109.059410894591, 38.7256902371127], [-109.059163978262, 38.7357950836705], [-109.058852083195, 38.748573892263], [-109.058833090115, 38.7493678797655], [-109.058753093343, 38.7499898699057], [-109.058650071851, 38.7534938980575], [-109.058437027398, 38.7608159576653], [-109.057399814605, 38.7954622417212], [-109.057213786984, 38.7997382746538], [-109.0570087573, 38.8046123148519], [-109.05653969389, 38.8142913906521], [-109.05580558525, 38.8311785257684], [-109.05566556305, 38.8345095529156], [-109.055227478042, 38.8481216632406], [-109.05515846497, 38.850285680245], [-109.054200306617, 38.87499087721], [-109.054053222761, 38.88970700034], [-109.053969173688, 38.8982470708601], [-109.053954138585, 38.9044201228772], [-109.05380813091, 38.9052901281028], [-109.053853114048, 38.9085081563499], [-109.053862089116, 38.9132001959712], [-109.053903079242, 38.9150992119847], [-109.053797051988, 38.9194552481859], [-109.053759031691, 38.923032277156], [-109.053567960929, 38.935010375783], [-109.053303911033, 38.9428844387342], [-109.053235875328, 38.9492014922811], [-109.053149849063, 38.9534725262023], [-109.052934784299, 38.9641926148963], [-109.05276571238, 38.9765597161351], [-109.05254261488, 38.9929628510783], [-109.052447574022, 38.9999919089049], [-109.052416629755, 39.0079237238809], [-109.052360681781, 39.0153375507175], [-109.052327711813, 39.0196694508804], [-109.052310728265, 39.0218893993022], [-109.052267766336, 39.027499268098], [-109.052257775274, 39.028750238819], [-109.052221807628, 39.0334701278132], [-109.051976033058, 39.0658513741378], [-109.051840156583, 39.0837779573134], [-109.051731254719, 39.0980826242943], [-109.05163634232, 39.1106753307129], [-109.051629348037, 39.111659308217], [-109.051598375922, 39.1156892149189], [-109.051593381289, 39.1163402002294], [-109.051589384685, 39.1169171867555], [-109.051584389153, 39.1175251721779], [-109.051575397017, 39.1187141448984], [-109.051570400588, 39.1193131312157], [-109.051527439558, 39.1249889986885], [-109.051523448343, 39.1261019730935], [-109.051470562725, 39.1425215918875], [-109.051437635877, 39.1529443517258], [-109.051329871281, 39.1866195711334], [-109.051311908568, 39.1921344441168], [-109.051307917353, 39.1933274159706], [-109.051304924167, 39.1942703941717], [-109.051300932952, 39.1954773663327], [-109.051270998392, 39.2048831479285], [-109.051266010047, 39.2065711098428], [-109.05119516531, 39.2288845929269], [-109.051192172124, 39.2298455713425], [-109.051177204395, 39.234511463338], [-109.051169221067, 39.2368624079487], [-109.051166226084, 39.2375853910212], [-109.051159242581, 39.2400423349037], [-109.051142250049, 39.2411113101182], [-109.051127311964, 39.2499861051397], [-109.05101690632, 39.2866642630739], [-109.050954679122, 39.3073397881942], [-109.050883419364, 39.3308592478202], [-109.050836246134, 39.3464688901939], [-109.050830227421, 39.3483448483432], [-109.050812157809, 39.3544577070076], [-109.050776023975, 39.3666834269911], [-109.050876937121, 39.3749832350275], [-109.050961712033, 39.3958447550678], [-109.051061448385, 39.4202841918845], [-109.051183125191, 39.4503354977197], [-109.051229999282, 39.4619612307416], [-109.051325742624, 39.4856026853149], [-109.051374612772, 39.4976804057051], [-109.051425590367, 39.4999803529773], [-109.051420549022, 39.5164631996601], [-109.051402546784, 39.5170621947015], [-109.051372492748, 39.5386479939787], [-109.051371492024, 39.5392909888035], [-109.051355461588, 39.5511248792077], [-109.051348450237, 39.5562398323265], [-109.051341437988, 39.5609787883153], [-109.051331420874, 39.567869723749], [-109.051321401066, 39.5757966498239], [-109.051303368285, 39.5886345323347], [-109.051298360177, 39.5921734989825], [-109.051284333882, 39.602739400864], [-109.051286323651, 39.6068763630027], [-109.051289307854, 39.6130823050654], [-109.051285299571, 39.6167002707798], [-109.051275278864, 39.6249791938748], [-109.051272275796, 39.6260301840643], [-109.051221230827, 39.6438880200482], [-109.05117418875, 39.6604788672458], [-109.051007060785, 39.7105804043035], [-109.051002058067, 39.711985391247], [-109.050959025172, 39.7250152702491], [-109.050950017764, 39.7276712460663], [-109.050916992101, 39.7375131538621], [-109.050887970229, 39.7461550742294], [-109.050876964969, 39.7503140360275], [-109.050872971957, 39.7509920279842], [-109.050842141777, 39.7667398419167], [-109.050801365449, 39.7874025989147], [-109.050778488054, 39.7987314651023], [-109.050774510314, 39.8007834412703], [-109.050757600427, 39.8091263420475], [-109.050734723032, 39.8205622082409], [-109.050704886388, 39.8356390310972], [-109.050702893925, 39.8364150213163], [-109.050672061947, 39.851943838684], [-109.050661123162, 39.8575767711882], [-109.050650185275, 39.8632447050793], [-109.050638245767, 39.8690256372703], [-109.05062631075, 39.874976566895], [-109.050643402097, 39.8833144677478], [-109.050676585863, 39.9001102698406], [-109.050709771426, 39.9171160679574], [-109.050738935232, 39.932092890681], [-109.050742956091, 39.9339598687021], [-109.050775032235, 39.9408247872185], [-109.050777041766, 39.9417757761953], [-109.050794115147, 39.9484326966965], [-109.050818217844, 39.9577975862144], [-109.050862335904, 39.9684634586739], [-109.050877376397, 39.9720994158648], [-109.050992684147, 39.9999750848368], [-109.050873356436, 40.0235098506793], [-109.050859436143, 40.0263278230461], [-109.050919466062, 40.0273058117125], [-109.050825300162, 40.0564285221234], [-109.050884373375, 40.0589214959539], [-109.050824390169, 40.0595854902708], [-109.050844575313, 40.0659694260662], [-109.050882909121, 40.0775633102474], [-109.050969993601, 40.0804032801186], [-109.050977315769, 40.0916031677851], [-109.050878336696, 40.0924591600237], [-109.051034867236, 40.1106769773415], [-109.050936964345, 40.1142019417833], [-109.050950000696, 40.1154629291439], [-109.050979081857, 40.1182769012349], [-109.051032130968, 40.1198908837654], [-109.051031224568, 40.1231658508922], [-109.050913273076, 40.1249738343447], [-109.050814553616, 40.1348957372921], [-109.05099493802, 40.1480266031314], [-109.05098804884, 40.1518625648325], [-109.050979283978, 40.1600524828737], [-109.050968540127, 40.1689953929231], [-109.050963655987, 40.1730603520793], [-109.050984881381, 40.1808552738844], [-109.050907929897, 40.1826062577566], [-109.050894138062, 40.189914183904], [-109.050881364917, 40.1978161049978], [-109.050841980978, 40.2192938909188], [-109.050836079047, 40.2226688576861], [-109.050831320671, 40.2310997727173], [-109.050848380576, 40.2331617519432], [-109.050928668403, 40.2430736518447], [-109.050951867396, 40.2499725828745], [-109.050949884814, 40.2519695612502], [-109.05094502942, 40.2674693968442], [-109.05094308277, 40.2731543380194], [-109.050942093725, 40.2744033241608], [-109.050940147076, 40.280104263752], [-109.050939191269, 40.2849122128778], [-109.050938216596, 40.2875641843377], [-109.050938237258, 40.2897551616811], [-109.050938266004, 40.2929031276846], [-109.050933311795, 40.2978540758178], [-109.050931334603, 40.3003380500457], [-109.05092341775, 40.3092359552763], [-109.05091847522, 40.3154218902097], [-109.05090859465, 40.3283637529115], [-109.050902667566, 40.3361936700305], [-109.050898709589, 40.3406956228434], [-109.050890815194, 40.3520805022745], [-109.05088585829, 40.356665453911], [-109.050876934426, 40.3648203667828], [-109.050872963873, 40.3680773327722], [-109.050871975726, 40.3694143192637], [-109.050814026305, 40.3749712598955], [-109.050829094646, 40.3823451818952], [-109.050848182947, 40.3917460817198], [-109.050851196795, 40.3932080666668], [-109.050878321425, 40.4064839259847], [-109.050894396777, 40.4145928396685], [-109.050895403788, 40.4153048318589], [-109.050935583634, 40.434366629947], [-109.050939601799, 40.43633661003], [-109.050941612228, 40.4374865979746], [-109.050948643342, 40.4408185619757], [-109.050950650178, 40.4415645542072], [-109.0509576768, 40.4443745247032], [-109.050833758699, 40.4537174262153], [-109.050740821694, 40.4608123519948], [-109.050637911594, 40.4709322460919], [-109.050630917311, 40.4715722388436], [-109.050552985765, 40.4793331569975], [-109.050545993279, 40.4800661491802], [-109.050483024971, 40.4837871108047], [-109.050326124325, 40.4950989917806], [-109.050709184827, 40.4999699368652], [-109.050475226696, 40.5078348548443], [-109.0501262887, 40.5195727333287], [-109.050082423965, 40.5404435107818], [-109.050061426743, 40.5410535057586], [-109.049361528644, 40.5610672981944], [-109.048817617604, 40.5782001191651], [-109.048786633812, 40.5808770898084], [-109.048421727363, 40.5975759161236], [-109.04805585343, 40.619237687083], [-109.048078890725, 40.6249686267178], [-109.048103917789, 40.6289245836687], [-109.048144960916, 40.6353755147908], [-109.048261085234, 40.6536073202596], [-109.04827409823, 40.6555023011739], [-109.048518174984, 40.6658321890514], [-109.048563189563, 40.6677531680158], [-109.048629211245, 40.6705571378036], [-109.049006316814, 40.6844639881234], [-109.048976321169, 40.6851049809034], [-109.049099517025, 40.7145686682697], [-109.048796735367, 40.7499672931445], [-109.048712674616, 40.7692711582095], [-109.048745634702, 40.7826770648774], [-109.048680603862, 40.7926739950982], [-109.048495513184, 40.8200538047616], [-109.048466494007, 40.826087761721], [-109.048519479338, 40.8320907209124], [-109.04864248026, 40.8337097089781], [-109.048653472944, 40.836069692145], [-109.048852476729, 40.8378276801874], [-109.048862465995, 40.8415816527124], [-109.048820460772, 40.8426536452248], [-109.048870426865, 40.8548425610753], [-109.04888641508, 40.8588825322716], [-109.048899407414, 40.8620155112197], [-109.048754393276, 40.8645904928302], [-109.048796387719, 40.8667704769678], [-109.049083382384, 40.873007432847], [-109.048988373865, 40.874332424022], [-109.049070376576, 40.8749664188012], [-109.049136353342, 40.8839853559352], [-109.049193331684, 40.8918233011592], [-109.049173326202, 40.8935872890255], [-109.049309279034, 40.9113331648451], [-109.049551197137, 40.9427349459407], [-109.049587185443, 40.9474269142122], [-109.049677154414, 40.9591678309271], [-109.049708142698, 40.9632628031858], [-109.049782118962, 40.9728617359982], [-109.049873087757, 40.9845826538249], [-109.049954060999, 40.9949385819327], [-109.049984051254, 40.9987555561751], [-109.050138053935, 40.9999655480916], [-109.050088053706, 41.0006655553152], [-109.031351197428, 41.0005165482852], [-109.024986905829, 41.0004655451964], [-109.021309737554, 41.0004815437503], [-109.00531200807, 41.0005485412965], [-109.000685796646, 41.0005655391453], [-108.98314030586, 41.0004956779047], [-108.968018882936, 41.0004357989131], [-108.937351025262, 41.0003130441662], [-108.919854535778, 41.0002431833359], [-108.91134129795, 41.0002082511981], [-108.884149537743, 41.0001004682329], [-108.875682301743, 41.0001725359917], [-108.859524850005, 41.0001336661914], [-108.853781688628, 41.0000377109134], [-108.849720575909, 41.0001207428065], [-108.84566146194, 41.0001267760249], [-108.841973359371, 41.0001288058546], [-108.837702240301, 41.000143839745], [-108.833419120637, 41.0001198750101], [-108.82852598381, 41.000152912959], [-108.822878825388, 41.0001599576989], [-108.819978744748, 41.0001339821234], [-108.817500674664, 41.0001120017915], [-108.8119335202, 41.0001550458387], [-108.801860239304, 41.0001971271473], [-108.792455976021, 41.0002082030626], [-108.787869848323, 41.00016523905], [-108.785813789691, 41.0001462553367], [-108.780196633202, 41.0001213007724], [-108.776632533177, 41.0001063292497], [-108.768334300824, 41.0001463956756], [-108.762341133812, 41.000149443131], [-108.750678808636, 41.0001935373219], [-108.740037471782, 41.0000756092446], [-108.731100189614, 41.0000836709422], [-108.718578794753, 41.0000927550119], [-108.710978555172, 41.0000998078939], [-108.705841391896, 41.0001028417922], [-108.70176826421, 41.0001068709446], [-108.699071177672, 41.0001088892495], [-108.684673723205, 41.0001199868745], [-108.678082516267, 41.0001260322963], [-108.671103294619, 41.0001320790735], [-108.654305765393, 41.0001451943204], [-108.653150727771, 41.0001462017774], [-108.642583394129, 41.0001542743138], [-108.631218035817, 41.0001623509172], [-108.627256910979, 41.0000243780177], [-108.625674860084, 40.9999683901314], [-108.616018554685, 40.9999684552163], [-108.614914520709, 40.9999684626739], [-108.610809391439, 40.9999684911485], [-108.607368281555, 40.9999685148774], [-108.603202152186, 40.9999685426741], [-108.598124990082, 40.9999685779283], [-108.596711946429, 40.9999685867419], [-108.576457307426, 40.9999687250473], [-108.571476150074, 40.9999687603016], [-108.56975509477, 40.999968771149], [-108.567190013867, 40.9999687887762], [-108.562510865622, 40.9999688199628], [-108.557669711605, 40.999628857721], [-108.552530548679, 40.9996208929177], [-108.550853495553, 40.9996249037942], [-108.538806117413, 40.9997279851378], [-108.536243035261, 40.9997030032964], [-108.535219003448, 40.999694010021], [-108.530510853992, 40.9996500429545], [-108.526040713171, 40.9995990737717], [-108.520699545189, 40.9997921081823], [-108.519616511129, 40.9999691142006], [-108.51179326478, 41.0000251658152], [-108.500670913328, 41.00011924179], [-108.496674739821, 41.0001162621297], [-108.482754137157, 41.0001053319616], [-108.475262812017, 41.0000993699278], [-108.462751269878, 41.0000894322995], [-108.46087918891, 41.0000884417908], [-108.458056066043, 41.0000864560277], [-108.452658833306, 41.000081483145], [-108.43665513811, 41.0000685631397], [-108.427418737614, 41.0000616099154], [-108.426149683121, 41.0000606160165], [-108.40412972882, 41.0000427258333], [-108.388215038703, 41.0000298071764], [-108.375665495132, 41.0000198702157], [-108.363360961665, 41.0000299312443], [-108.351947467128, 41.0000389882028], [-108.329789507346, 41.0000560987254], [-108.326216352302, 41.0000591170325], [-108.306244486781, 41.000075216702], [-108.300217225111, 41.0000802472124], [-108.297814121233, 41.0000822600944], [-108.288919735417, 41.0000893041639], [-108.287744685126, 41.0000903089098], [-108.27702422017, 41.0000993631481], [-108.257762384846, 41.0001144600961], [-108.250660077834, 41.000120494671], [-108.249731032083, 41.0003684961688], [-108.246945895376, 41.0003405037336], [-108.243735736063, 41.0003555138471], [-108.235326321025, 41.0003625361926], [-108.233674240165, 41.0003545409695], [-108.22869299388, 41.0003255559894], [-108.222204672789, 41.0004025733103], [-108.216562394913, 41.0003715890376], [-108.209655053759, 41.000335608158], [-108.206472896731, 41.000418617303], [-108.202672709567, 41.0004306280916], [-108.188539012146, 41.0004266667554], [-108.182122696414, 41.0004616842007], [-108.181238650868, 41.0004616869126], [-108.17369428021, 41.0006177068934], [-108.169315064167, 41.00060171922], [-108.168004999784, 41.0006187218007], [-108.164156810245, 41.0007167331629], [-108.148979061156, 41.0009727723115], [-108.125653911341, 41.0013408342178], [-108.122630762407, 41.0012048427352], [-108.112058240096, 41.0013258717854], [-108.110015139662, 41.0013488767779], [-108.105680925621, 41.0013978880359], [-108.099252610194, 41.0014709062208], [-108.089371121408, 41.0015829322734], [-108.072951313097, 41.0017709752376], [-108.046550011052, 41.0020710442441], [-108.043647866983, 41.0020710517015], [-108.026633028103, 41.0020710978018], [-108.024248910119, 41.0020711059372], [-108.018365619643, 41.0020091219972], [-108.011764293183, 41.0019391422901], [-108.009596186787, 41.0019161476728], [-108.008298122998, 41.0019021521243], [-108.000647744849, 41.0018211732694], [-107.970289672997, 41.0020191698413], [-107.962015379848, 41.0020131693376], [-107.953329072598, 41.0020061702181], [-107.946894846256, 41.0020091687755], [-107.923206009007, 41.0020181678365], [-107.918432841288, 41.0020431677829], [-107.916171760158, 41.0020561680767], [-107.906041403004, 41.0020511682248], [-107.900810217558, 41.0020071681554], [-107.880618503745, 41.0020311661014], [-107.875643328274, 41.0020301668086], [-107.866650010097, 41.0019391680521], [-107.863130886921, 41.0019401680242], [-107.855572619326, 41.0019441672346], [-107.85324853665, 41.0019451678845], [-107.851831487408, 41.0019341681912], [-107.845377260077, 41.001938166724], [-107.841731130391, 41.0019401666683], [-107.837947996845, 41.0019431672625], [-107.814969185302, 41.001958164808], [-107.812841108733, 41.0019591661356], [-107.810999044971, 41.0019601661075], [-107.808339949983, 41.0019401659904], [-107.791998373256, 41.0019701651469], [-107.785039127445, 41.001937164718], [-107.772327677816, 41.0019521649767], [-107.760320254044, 41.0019661639042], [-107.750638911699, 41.0019791628573], [-107.724010052019, 41.0021162137266], [-107.72027493073, 41.0021352219566], [-107.717613845075, 41.0021382272875], [-107.714749752743, 41.0021412319404], [-107.709383580155, 41.0021482418926], [-107.706895499245, 41.0021802469929], [-107.705310447977, 41.0021522512595], [-107.691424999984, 41.0021692778463], [-107.689441934859, 41.0021672819766], [-107.678598584863, 41.0021613031807], [-107.672606390727, 41.0021573148306], [-107.669557293057, 41.0021413207512], [-107.636721231968, 41.0021323861118], [-107.625634875112, 41.0021304078676], [-107.573635195103, 41.0022575089181], [-107.555005593178, 41.0022845453165], [-107.537579031251, 41.002309579059], [-107.533264890963, 41.002315587671], [-107.526740681278, 41.0023615996689], [-107.500630837626, 41.00235565072], [-107.478608246771, 41.0026786741372], [-107.456635657042, 41.002756700193], [-107.449664469926, 41.0027667079248], [-107.439446196451, 41.0028047199362], [-107.424819802741, 41.0028597373181], [-107.423818775884, 41.0028627378705], [-107.39861110039, 41.0029757669372], [-107.386092764292, 41.0030357812422], [-107.377460532029, 41.0030437917326], [-107.375627481962, 41.0030537939972], [-107.367454262758, 41.0030798029967], [-107.359703055005, 41.0030608126656], [-107.356745975363, 41.0030528157359], [-107.353787896794, 41.002995820297], [-107.342618595793, 41.0029738341401], [-107.326186155373, 41.0029418538309], [-107.319505975697, 41.002928863203], [-107.317804931265, 41.0029268653225]]]}, "properties": {"OBJECTID": 1}}]}