{
"type": "FeatureCollection",
"name": "Moffat_County_Boundary",
"crs": { "type": "name", "properties": { "name": "urn:ogc:def:crs:OGC:1.3:CRS84" } },
"xy_coordinate_resolution": 8.98315e-10,
"z_coordinate_resolution": 0.0001,
"features": [
{"type":"Feature","properties":{"OBJECTID":45,"COUNTY":"MOFFAT","FULL":"Moffat County","LABEL":"Moffat","CNTY_FIPS":"081","NUM_FIPS":81,"CENT_LAT":40.618425189446675,"CENT_LONG":-108.20729834672008,"US_FIPS":"08081","Shape_Length":467325.31727532932,"Shape_Area":12317841015.681805},"geometry":{"type":"MultiPolygon","coordinates":[[[[-108.058655,40.2218889997],[-108.058925,40.2218870001],[-108.0589830003,40.2218869998],[-108.0597349998,40.2218839997],[-108.0600060001,40.2218829998],[-108.0637520002,40.2218669999],[-108.0749900004,40.2218230002],[-108.0787369996,40.2218080004],[-108.0819360003,40.2217949996],[-108.0866249999,40.2217759999],[-108.0873330003,40.221773],[-108.0890839997,40.221766],[-108.0915339995,40.2217560002],[-108.0947340003,40.2217440003],[-108.0974859996,40.221732],[-108.1057419995,40.221699],[-108.1084949996,40.221688],[-108.1087360001,40.2216859996],[-108.10946,40.2216840001],[-108.1097020003,40.2216840001],[-108.1103970004,40.2216800004],[-108.1124829996,40.2216719998],[-108.1131790002,40.2216700001],[-108.1255620001,40.2217049997],[-108.1256390006,40.2217030003],[-108.1257200001,40.2217029996],[-108.1371639999,40.2216920001],[-108.1423540004,40.2216879996],[-108.1471730005,40.2216839999],[-108.1596609999,40.2216730004],[-108.1596619998,40.2216730001],[-108.1603299998,40.2216740004],[-108.1625189995,40.2216770002],[-108.1710899996,40.2216899997],[-108.1739479998,40.2216949997],[-108.1795299999,40.2217030002],[-108.1807119998,40.2217050002],[-108.18927,40.2217190003],[-108.1926930004,40.2217240004],[-108.1962770002,40.2217289999],[-108.2018599998,40.2217390002],[-108.2018609998,40.2217390004],[-108.202162,40.2217390002],[-108.2030699995,40.2217400002],[-108.2033719999,40.2217410004],[-108.2033739997,40.221741],[-108.2059990002,40.2217449998],[-108.2138760004,40.2217570003],[-108.2165030002,40.2217619997],[-108.2167499998,40.2217619999],[-108.217491,40.2217629998],[-108.2177389999,40.2217639996],[-108.2222639999,40.221771],[-108.2272890001,40.2217799998],[-108.2326060006,40.2217890002],[-108.2358389995,40.2217939999],[-108.2403649995,40.2218030001],[-108.2469470006,40.2218120001],[-108.2474980005,40.2218129996],[-108.2506430006,40.2218190001],[-108.2647889995,40.2218409999],[-108.2688990003,40.2218469999],[-108.276033,40.2218600003],[-108.2765279996,40.2218599997],[-108.2780149996,40.2218629996],[-108.2785110003,40.2218639997],[-108.2813329997,40.2218680003],[-108.2842959996,40.2218730003],[-108.2882390005,40.2218779998],[-108.2898,40.2218799997],[-108.2926230004,40.2218860003],[-108.2929499996,40.221886],[-108.2940520002,40.221887],[-108.2983410004,40.2218940003],[-108.2984029996,40.2218950003],[-108.2997729996,40.2218969997],[-108.3031520003,40.2219020003],[-108.3033250006,40.2219029996],[-108.3045980001,40.2219050001],[-108.3103909998,40.221915],[-108.3132919996,40.2219189999],[-108.3166729999,40.2219249998],[-108.3187020002,40.2219280004],[-108.3247910002,40.2219369997],[-108.3267089998,40.2219409996],[-108.3268210003,40.2219409996],[-108.3322839999,40.2219489996],[-108.3417129994,40.2219650001],[-108.3449679999,40.2219700001],[-108.3486180006,40.2219759998],[-108.3486760005,40.2219759997],[-108.3541400005,40.2219850003],[-108.3558630004,40.2219869999],[-108.3568989997,40.2219889996],[-108.3610320004,40.2219960002],[-108.3627559999,40.2219989998],[-108.3628070003,40.2219989999],[-108.3629600003,40.2219989999],[-108.3630119995,40.2219989996],[-108.3646939997,40.2220009997],[-108.3697419995,40.2220090002],[-108.3714249996,40.2220119997],[-108.3716009995,40.2220109996],[-108.3721299999,40.2220110002],[-108.3723080005,40.2220130003],[-108.3738259998,40.2220149996],[-108.3756480003,40.2220189996],[-108.3783830004,40.2220269999],[-108.3799019998,40.222032],[-108.3820449999,40.222037],[-108.3884770002,40.2220580004],[-108.390622,40.2220659996],[-108.391474,40.2220680003],[-108.3940329998,40.2220770001],[-108.3948869999,40.2220800004],[-108.398596,40.2220889997],[-108.4002210002,40.2220920003],[-108.4071330005,40.2221069997],[-108.4130089996,40.2221229996],[-108.4162230006,40.2221320003],[-108.4215560004,40.222147],[-108.4215609998,40.2221480004],[-108.4245949999,40.2221550001],[-108.4337150001,40.2221819999],[-108.4339929999,40.2221829998],[-108.4367559997,40.2221909998],[-108.4428810003,40.2222079997],[-108.4574970003,40.2222490002],[-108.4612559997,40.2222580003],[-108.4673109995,40.2222760003],[-108.4673829995,40.2222759997],[-108.471051,40.222286],[-108.4764469995,40.2223010002],[-108.482058,40.2223169998],[-108.4832020001,40.2223199999],[-108.4857279996,40.2223280003],[-108.4863,40.2223290003],[-108.4880149999,40.2223340004],[-108.4885879999,40.2223360001],[-108.4994949995,40.2223660003],[-108.5006519998,40.2223690002],[-108.5054269995,40.2223680003],[-108.5077979996,40.2223670005],[-108.5091320001,40.2223680001],[-108.5092290005,40.2223679998],[-108.5109669995,40.222368],[-108.5137660002,40.2223669996],[-108.5164350003,40.222367],[-108.5182039997,40.222367],[-108.5207020004,40.2223650002],[-108.5243350006,40.2223640002],[-108.5281979999,40.222361],[-108.5306970005,40.2223599996],[-108.5309790005,40.2223600003],[-108.5317900006,40.2223600003],[-108.5318259996,40.2223579999],[-108.5320759999,40.2223519999],[-108.5321100006,40.222347],[-108.5321260006,40.2223449998],[-108.5321770003,40.2223390004],[-108.5321960003,40.2223380001],[-108.5322150002,40.2223369999],[-108.5323409995,40.2222870001],[-108.5324320001,40.2222680004],[-108.53283,40.22228],[-108.5347700006,40.2223440001],[-108.5354189995,40.222366],[-108.5359820002,40.2223660001],[-108.5360419995,40.2223660004],[-108.5379110004,40.2223660002],[-108.5384080003,40.2223669996],[-108.5385350005,40.2223670004],[-108.540715,40.2223659999],[-108.5472570002,40.2223660004],[-108.5474570002,40.2223660001],[-108.549438,40.2223660002],[-108.5496550004,40.2223660002],[-108.5499620002,40.2223660001],[-108.5503080002,40.2223660002],[-108.5505260005,40.2223660002],[-108.5515770002,40.222366],[-108.5533520006,40.2223660001],[-108.5589670002,40.2223669997],[-108.5618309999,40.2223669998],[-108.5646579997,40.2223680003],[-108.5680520002,40.2223680002],[-108.5696080006,40.2223679995],[-108.5720759996,40.2223680002],[-108.5765649998,40.2223670004],[-108.5768079996,40.2223670004],[-108.5816829995,40.2223670003],[-108.5829409995,40.222367],[-108.5844580003,40.2223669997],[-108.5866359999,40.2223690004],[-108.5894089996,40.22237],[-108.5921379998,40.2223690001],[-108.5975639999,40.2223690004],[-108.5991760006,40.2223699999],[-108.6003260003,40.2223700003],[-108.6016129996,40.2223699998],[-108.6020040003,40.2223699998],[-108.6030559996,40.2223699996],[-108.6055739999,40.2223700001],[-108.6066619999,40.2223699996],[-108.6069300001,40.22237],[-108.6112330003,40.22237],[-108.6155829996,40.2223700004],[-108.6174799995,40.2223699998],[-108.6192420003,40.2223699997],[-108.6210859997,40.2223699996],[-108.6256520006,40.2223609997],[-108.6315500003,40.2223720004],[-108.6343010004,40.2223759997],[-108.673949,40.2224499998],[-108.6871659996,40.2224769996],[-108.6873530001,40.2224719998],[-108.6879190003,40.2224649996],[-108.688112,40.2224650002],[-108.6882470005,40.2224650003],[-108.6885230001,40.2224630002],[-108.6886300003,40.2224699997],[-108.6919430003,40.2225030001],[-108.702657,40.2226160004],[-108.7034440006,40.2226230001],[-108.7072779998,40.2226650004],[-108.7074960006,40.2226649997],[-108.7081499999,40.2226679997],[-108.7083680001,40.2226689997],[-108.7173049997,40.2227009997],[-108.7308849998,40.2227499998],[-108.7339770002,40.2227619999],[-108.7413430002,40.2227880003],[-108.7441189995,40.2227979997],[-108.7506619998,40.2228220001],[-108.7509490001,40.2228219998],[-108.7527559998,40.2228209997],[-108.7530570004,40.2228209999],[-108.7538749998,40.2228199999],[-108.7563320005,40.2228190003],[-108.7571510004,40.222819],[-108.757816,40.2228180001],[-108.7598130005,40.2228179996],[-108.7604789997,40.2228180002],[-108.7614750001,40.2228160001],[-108.7644639997,40.2228149997],[-108.7654620006,40.2228150002],[-108.7657150001,40.2228140004],[-108.7677870004,40.2228130004],[-108.7747660001,40.2228100002],[-108.7770929997,40.2228110002],[-108.7778350002,40.22281],[-108.7799340001,40.2228100001],[-108.7800610001,40.2228100003],[-108.7808040005,40.2228100001],[-108.7817270006,40.2228089997],[-108.7844969995,40.222808],[-108.7854210004,40.2228079999],[-108.7863949997,40.2228059997],[-108.7893199997,40.2228049999],[-108.7902970006,40.2228059996],[-108.7904550004,40.2228060002],[-108.7932400004,40.2228049998],[-108.7995759996,40.222802],[-108.8052250002,40.2228],[-108.8055799999,40.2228],[-108.8089169996,40.2227980003],[-108.8140700004,40.2227959998],[-108.8189290006,40.2227929996],[-108.8222670001,40.2227920001],[-108.8241449998,40.2227900003],[-108.8297809997,40.2227879999],[-108.8316599998,40.2227879996],[-108.8326449999,40.2227869996],[-108.8356020001,40.2227860001],[-108.8365880006,40.2227860004],[-108.8406809997,40.2227840001],[-108.8496020005,40.2227810001],[-108.8529600001,40.2227790004],[-108.8569490003,40.2227780003],[-108.8570539996,40.2227780004],[-108.857322,40.2227770002],[-108.8581300006,40.2227770001],[-108.8583980002,40.2227769998],[-108.858399,40.2227769998],[-108.8628750005,40.2227740003],[-108.8727870002,40.2227700004],[-108.8756659995,40.2227689998],[-108.8763029997,40.2227670001],[-108.8806920001,40.2227579999],[-108.8807800006,40.2227579998],[-108.8821339996,40.2227539998],[-108.8861989999,40.2227460003],[-108.8875539999,40.2227429999],[-108.8879220003,40.2227409998],[-108.888616,40.2227399999],[-108.8890279998,40.2227380001],[-108.8893970004,40.2227379997],[-108.8908689996,40.2227340001],[-108.8952879996,40.222724],[-108.8967609996,40.2227209999],[-108.8973870001,40.2227200002],[-108.8998240001,40.2227139997],[-108.9024750002,40.2227080001],[-108.9053729999,40.2227040003],[-108.9090150005,40.2226990004],[-108.9120789995,40.2226960001],[-108.9125080005,40.2226939999],[-108.9137949998,40.2226920004],[-108.9142250005,40.2226919998],[-108.9154060002,40.222689],[-108.9189510005,40.2226810003],[-108.9201329999,40.2226789998],[-108.9203340005,40.2226780002],[-108.9209380002,40.2226779996],[-108.9211399997,40.2226780005],[-108.9269070007,40.2226650004],[-108.9442089996,40.2226300003],[-108.9499789997,40.2226200001],[-108.9508849996,40.2226160003],[-108.953611,40.2226120003],[-108.9545190004,40.2226109997],[-108.9545200002,40.2226109997],[-108.9553810003,40.2226089997],[-108.9562780006,40.222607],[-108.9615529995,40.2225959996],[-108.9633119996,40.2225930001],[-108.9634699997,40.2225919996],[-108.9639480002,40.2225900004],[-108.9641069998,40.2225900004],[-108.9650860005,40.2225869996],[-108.9680260005,40.2225819997],[-108.9690060006,40.2225809999],[-108.9750080005,40.2225690004],[-108.9765549996,40.2225660003],[-108.9930169996,40.2225329999],[-108.9976549996,40.2225240002],[-108.9990200004,40.2225209998],[-108.999243,40.2225190003],[-108.999914,40.2225169996],[-109.0001389998,40.2225189998],[-109.0001749996,40.2225180004],[-109.0002860002,40.2225179998],[-109.0003239998,40.2225180001],[-109.0006709997,40.2225160001],[-109.0037190003,40.2225610002],[-109.0083380006,40.2226300002],[-109.0139070002,40.2226559997],[-109.0173039998,40.2226720001],[-109.0173060006,40.2226719999],[-109.0177400005,40.2226739997],[-109.0194250005,40.2226809999],[-109.025789,40.2227100001],[-109.0269410006,40.2227159999],[-109.0277179998,40.2226150003],[-109.0279040002,40.2226150003],[-109.0306360002,40.2226179997],[-109.0388340006,40.222629],[-109.0415669997,40.222633],[-109.041705,40.2226330004],[-109.0423540006,40.2226499997],[-109.0447160007,40.222713],[-109.0455040001,40.2227340002],[-109.0461940003,40.2227239996],[-109.0482639999,40.222696],[-109.0489549997,40.2226869997],[-109.0493280005,40.2226820003],[-109.0504499996,40.2226660001],[-109.0508239996,40.2226620001],[-109.0508219998,40.2243480004],[-109.0508200003,40.2294060002],[-109.05082,40.230925],[-109.0508199997,40.2310930002],[-109.0508230002,40.2315049997],[-109.0508330006,40.2327420004],[-109.0508370007,40.2331550004],[-109.0508530005,40.2351360004],[-109.0509010004,40.241079],[-109.0509169996,40.243061],[-109.0509210002,40.2447520004],[-109.0509379997,40.249828],[-109.0509390006,40.2499680004],[-109.0509390001,40.2515210002],[-109.0509380005,40.251609],[-109.050938,40.2518739999],[-109.050938,40.2519220001],[-109.0509380005,40.2519630002],[-109.0509360001,40.2550630003],[-109.0509360004,40.2576910002],[-109.0509330006,40.264366],[-109.0509329998,40.2674670001],[-109.0509319999,40.2686260001],[-109.050931,40.2721050005],[-109.0509309995,40.2727619998],[-109.0509309999,40.2732649996],[-109.0509300004,40.2734],[-109.05093,40.2738050001],[-109.0509299997,40.2739409998],[-109.0509289996,40.2751740004],[-109.0509289997,40.2788760003],[-109.0509290003,40.28011],[-109.0509280007,40.28107],[-109.0509279997,40.2839510004],[-109.0509280003,40.2849119998],[-109.0509270003,40.2854360002],[-109.0509270006,40.2870090004],[-109.050927,40.2875339996],[-109.0509269999,40.2879780002],[-109.0509269996,40.2893109997],[-109.0509270003,40.2897559998],[-109.0509270005,40.2903830003],[-109.0509269998,40.2922680002],[-109.0509270006,40.2928960001],[-109.0509250004,40.293887],[-109.0509210004,40.2968600003],[-109.0509200001,40.2978059997],[-109.0509220005,40.2978510001],[-109.0509210001,40.2983480002],[-109.0509199997,40.2998400001],[-109.05092,40.3003379998],[-109.0509179996,40.3021160002],[-109.0509130005,40.3074530004],[-109.0509129996,40.3092320003],[-109.0509109995,40.3104649997],[-109.0509069999,40.3141699996],[-109.0509069995,40.3154069998],[-109.0509039998,40.3179979997],[-109.0508980005,40.3257700002],[-109.0508970005,40.3283620002],[-109.0508950005,40.3299279998],[-109.0508920002,40.3346250004],[-109.0508910004,40.3361919997],[-109.0508899999,40.3370919998],[-109.0508869996,40.3397909999],[-109.0508869997,40.3406920002],[-109.0508860003,40.3415399998],[-109.0508850004,40.3429680004],[-109.0508800005,40.3497970004],[-109.0508789997,40.3520740002],[-109.0508769999,40.3529319996],[-109.0508740004,40.3555060003],[-109.0508740004,40.3563650001],[-109.0508719999,40.3580539996],[-109.0508659999,40.3631239998],[-109.0508649996,40.3648139998],[-109.0508640006,40.3654649996],[-109.0508609996,40.3674190004],[-109.0508609998,40.3680709997],[-109.0508599996,40.3683390003],[-109.050859,40.3691430002],[-109.0508600006,40.3694120004],[-109.0508319998,40.3719959999],[-109.0508010004,40.3749669997],[-109.0508109998,40.3797509998],[-109.0508170005,40.3823379997],[-109.050821,40.3842799998],[-109.0508229996,40.3847760003],[-109.0508350003,40.3901089996],[-109.0508400005,40.3920530002],[-109.0508380003,40.3922819998],[-109.0508389997,40.3929709999],[-109.0508399996,40.3932030002],[-109.0508450003,40.3958579998],[-109.0508600004,40.4038269999],[-109.0508670002,40.4064839999],[-109.0508699995,40.4081050004],[-109.0508790002,40.4129689998],[-109.0508830004,40.4145909998],[-109.050883,40.4146749999],[-109.050883,40.4149279998],[-109.0508829996,40.4150130004],[-109.0508909998,40.4188820002],[-109.0509150003,40.4304900003],[-109.0509239999,40.4343599999],[-109.050924,40.434758],[-109.0509269998,40.4359520003],[-109.0509280001,40.436351],[-109.0509280006,40.4365410003],[-109.0509279998,40.4371140003],[-109.0509300006,40.4373050002],[-109.0509289999,40.437308],[-109.050929,40.4373170001],[-109.0509299995,40.437322],[-109.0509299996,40.4373260002],[-109.0509299997,40.4373389997],[-109.0509299997,40.4373439996],[-109.0509299999,40.4374800001],[-109.0509310003,40.4380369998],[-109.0509350006,40.4401179996],[-109.0509369997,40.4408120002],[-109.0509369997,40.4408980003],[-109.0509369999,40.4411590001],[-109.0509379995,40.4412459997],[-109.0509380004,40.441308],[-109.0509379996,40.4414949997],[-109.0509390001,40.4415579996],[-109.0509390006,40.4415890002],[-109.0509389996,40.4416820002],[-109.0509399997,40.4417140005],[-109.0509410003,40.4422439996],[-109.050944,40.4438370004],[-109.0509460006,40.444368],[-109.0509209998,40.4461900003],[-109.0508480005,40.451659],[-109.0508249996,40.4534819998],[-109.050824,40.4535270003],[-109.0508219998,40.4536649998],[-109.0508219999,40.4537109999],[-109.0507760002,40.4571679998],[-109.0507279997,40.4608390002],[-109.0506590003,40.4675410004],[-109.050624,40.4709989998],[-109.0506229995,40.471114],[-109.0506200005,40.471458],[-109.0506190001,40.4715739998],[-109.0506029999,40.4731240004],[-109.0505559996,40.4777749997],[-109.0505410001,40.479326],[-109.0505339995,40.480059],[-109.0505309999,40.4802159999],[-109.0504850003,40.4828890004],[-109.0504699996,40.4837799996],[-109.050437,40.4860410004],[-109.0503429999,40.492827],[-109.0503130002,40.4950909998],[-109.0503890002,40.4960650003],[-109.0506200005,40.4989879997],[-109.0506979996,40.4999630002],[-109.0506510005,40.5015099996],[-109.0505140005,40.506154],[-109.0504680005,40.5077020001],[-109.0503960004,40.5100750004],[-109.0501849997,40.5172010004],[-109.0501150006,40.5195770004],[-109.0500800003,40.5236429998],[-109.0499759995,40.5358409996],[-109.0499430001,40.5399080003],[-109.0499670006,40.5399989997],[-109.0500390003,40.5402730001],[-109.050063,40.540365],[-109.0500640004,40.5403789999],[-109.0500690001,40.540422],[-109.0500710004,40.5404370004],[-109.0500659999,40.5405580002],[-109.0500540005,40.5409240002],[-109.0500500001,40.5410470002],[-109.0499090002,40.5450490002],[-109.0494890004,40.5570629999],[-109.0493489997,40.561067],[-109.0492389998,40.5644930003],[-109.0489130006,40.5747720003],[-109.0488059996,40.5781989999],[-109.0488,40.5786700002],[-109.0487830001,40.5800870004],[-109.0487780001,40.5805590002],[-109.0487759996,40.5806220003],[-109.0487739998,40.5808120001],[-109.0487749995,40.5808759998],[-109.0487010007,40.5842140003],[-109.0484820004,40.5942349999],[-109.0484100006,40.5975760001],[-109.0483360001,40.6019080003],[-109.0481170005,40.6149079998],[-109.0480440001,40.6192409996],[-109.0480510006,40.6211189999],[-109.0480660005,40.6247619999],[-109.048077,40.6267549998],[-109.0480889996,40.6286340003],[-109.0480970005,40.6299610004],[-109.0481229996,40.6339440001],[-109.0481320001,40.6352720002],[-109.0481550001,40.6389370003],[-109.0482249999,40.6499350003],[-109.0482490001,40.6536009997],[-109.0482609996,40.6553220002],[-109.0484320001,40.6626009998],[-109.0485059997,40.6657809997],[-109.0485460001,40.6674689999],[-109.0485469995,40.6675240001],[-109.0485489995,40.667593],[-109.0485500004,40.6676900002],[-109.0485520006,40.6677459999],[-109.0485639999,40.6682689998],[-109.0486010003,40.6698380003],[-109.0486140001,40.6703619997],[-109.048618,40.6705499998],[-109.0489930007,40.6843850004],[-109.048994,40.6844459999],[-109.0489699998,40.6849939998],[-109.0490009995,40.6930019998],[-109.0490080001,40.6947019999],[-109.0490160004,40.6968390002],[-109.0490229998,40.6983389996],[-109.0490249997,40.6990150003],[-109.0490710003,40.7103059999],[-109.0490880001,40.7145029997],[-109.0487860005,40.7514329998],[-109.0487070006,40.7715379995],[-109.0487330002,40.7826939999],[-109.0487330001,40.7828080001],[-109.048725,40.783989],[-109.0486689995,40.792585],[-109.0486690001,40.7926660004],[-109.0486319995,40.798032],[-109.0485459998,40.8108650001],[-109.0485219998,40.8143759998],[-109.0484850006,40.8198240001],[-109.0484840003,40.8200470002],[-109.0484789998,40.8210750002],[-109.0484600002,40.824829],[-109.048455,40.8260809999],[-109.0484649998,40.8272920003],[-109.048498,40.8309249998],[-109.0485090006,40.8320839999],[-109.0485119998,40.832137],[-109.0485399998,40.8325070002],[-109.0486240002,40.8336170004],[-109.0486309999,40.8337030001],[-109.0486320001,40.8339890003],[-109.0486330004,40.8342140001],[-109.0486340003,40.8344380003],[-109.0486360004,40.8347749997],[-109.0486360006,40.8348870003],[-109.0486380007,40.835112],[-109.0486410004,40.8359209997],[-109.0486420002,40.8360630002],[-109.0488410005,40.8378209996],[-109.0488419999,40.8383370001],[-109.048845,40.8391469999],[-109.0488460004,40.8395690003],[-109.0488479999,40.8408349996],[-109.0488499997,40.8412569999],[-109.0488500001,40.8415349998],[-109.048851,40.841575],[-109.0488189998,40.8423690004],[-109.0488089995,40.8426469996],[-109.0488589999,40.8548359996],[-109.0488599999,40.855099],[-109.0488749995,40.8588979998],[-109.0488869995,40.8619179996],[-109.0488880004,40.8620089997],[-109.0487430003,40.8645839997],[-109.0487469998,40.8647939998],[-109.0487890004,40.8668570001],[-109.0490699997,40.8729579998],[-109.048988,40.874179],[-109.0489759996,40.8743280003],[-109.0490589996,40.8749710003],[-109.0491259998,40.8841170002],[-109.0491820003,40.8918169997],[-109.0491620002,40.8935820004],[-109.0491639999,40.8938069998],[-109.0491909996,40.8973429999],[-109.0492719996,40.9079529997],[-109.049298,40.9113260002],[-109.0492989998,40.9114900002],[-109.0493470002,40.917738],[-109.0494900004,40.9364819998],[-109.0495389998,40.9427299998],[-109.0495460006,40.9436889997],[-109.0495680004,40.9465659998],[-109.0495750006,40.9474199996],[-109.0495759995,40.9475250003],[-109.0496620001,40.9588529998],[-109.0496640002,40.9591560002],[-109.0496959996,40.9631939998],[-109.0497700003,40.972854],[-109.0497700003,40.9728919997],[-109.0498610006,40.9845579999],[-109.0499420005,40.9949080004],[-109.0499420003,40.9949319999],[-109.0499879999,40.9988780002],[-109.0501250007,41.0000060003],[-109.0500760001,41.0006590004],[-109.0313389999,41.00051],[-109.0292329995,41.0004929998],[-109.0249749997,41.0004589998],[-109.0229150005,41.0004669999],[-109.0218590005,41.0004720001],[-109.0208090003,41.0004769998],[-109.0177070004,41.0004890002],[-109.0147369997,41.0005020005],[-109.0146280005,41.0005029995],[-109.0129029998,41.0005099997],[-109.0084009995,41.0005279999],[-109.0053,41.0005419999],[-109.0043739995,41.0005449999],[-109.0040880004,41.0005459997],[-109.0015990005,41.0005540004],[-109.000674,41.0005580002],[-109.0005319999,41.0005579997],[-108.9971640006,41.0005450003],[-108.9930690005,41.0005289998],[-108.9866370003,41.0005029997],[-108.9845240002,41.0004950001],[-108.9831290003,41.0004890001],[-108.9801150002,41.0004759996],[-108.9764689998,41.0004620002],[-108.9710730002,41.0004399997],[-108.968059,41.0004290002],[-108.9659520006,41.0004209998],[-108.9619259995,41.0004039997],[-108.9568789999,41.0003840002],[-108.9503250003,41.0003580002],[-108.9435280001,41.0003300001],[-108.9373959999,41.0003059997],[-108.9338849999,41.000291],[-108.9316620001,41.0002830004],[-108.9233530003,41.0002490003],[-108.9201449999,41.0002369998],[-108.9198430001,41.0002360002],[-108.9197509997,41.0002350001],[-108.9194780006,41.0002339998],[-108.9193869998,41.000234],[-108.9177750004,41.0002269999],[-108.9129409997,41.0002069999],[-108.9113300006,41.0002009999],[-108.9059290002,41.0001789999],[-108.8922989995,41.0001259999],[-108.8919289999,41.0001250003],[-108.8897289999,41.0001159997],[-108.8852429996,41.0000989999],[-108.8845910003,41.0000960002],[-108.8843289995,41.0000949997],[-108.8841379995,41.0000939998],[-108.8825969999,41.0001069998],[-108.8774019999,41.0001509999],[-108.8756710001,41.0001660001],[-108.8724390003,41.000158],[-108.8677599995,41.0001470005],[-108.8627439998,41.0001340003],[-108.860959,41.0001299999],[-108.8595129996,41.0001269999],[-108.8594869999,41.0001260004],[-108.8594110003,41.0001260003],[-108.8593860004,41.0001260002],[-108.8582620001,41.0001069999],[-108.8548929998,41.00005],[-108.8537699998,41.0000309997],[-108.8529570001,41.0000470004],[-108.8505210005,41.0000970004],[-108.8497089995,41.0001140002],[-108.8488970002,41.0001149997],[-108.8464610003,41.0001179998],[-108.8456500001,41.0001200002],[-108.8449120006,41.0001200003],[-108.8426989998,41.0001210004],[-108.8419620006,41.0001219999],[-108.8411069998,41.0001250001],[-108.8385450003,41.0001330004],[-108.8376909995,41.0001369999],[-108.8368339997,41.0001320003],[-108.8342630006,41.0001169998],[-108.8334070004,41.0001130003],[-108.8327399998,41.0001180004],[-108.8324670005,41.0001190001],[-108.8296489995,41.000138],[-108.8287100002,41.0001450002],[-108.8275409996,41.0001459998],[-108.824035,41.0001510003],[-108.8237709996,41.000152],[-108.822867,41.0001529997],[-108.8222870002,41.0001470004],[-108.8205469996,41.000132],[-108.8199670006,41.0001270003],[-108.8194710003,41.0001220002],[-108.8179839995,41.0001089999],[-108.8174889997,41.000105],[-108.8163749999,41.0001129996],[-108.8130349996,41.0001389996],[-108.8119220006,41.0001479998],[-108.8099069999,41.0001559997],[-108.8038630006,41.0001810002],[-108.8018490001,41.0001899997],[-108.7999679998,41.0001920004],[-108.7943239996,41.0001979999],[-108.7924440001,41.0002009996],[-108.7915479996,41.0001919998],[-108.7888600006,41.0001669999],[-108.7879639996,41.0001589996],[-108.7878929996,41.0001579996],[-108.7876799998,41.0001550001],[-108.7876090001,41.0001550003],[-108.7872470004,41.0001509997],[-108.7861630006,41.0001419997],[-108.7858019998,41.000139],[-108.7846769997,41.0001329996],[-108.7813020001,41.0001180003],[-108.7801789997,41.000114],[-108.7794660004,41.0001100004],[-108.7787349999,41.0001069998],[-108.777332,41.000101],[-108.7766210004,41.0001],[-108.7751810003,41.000107],[-108.7737619999,41.0001130002],[-108.768323,41.0001400004],[-108.7675340001,41.0001399997],[-108.7651880004,41.0001409999],[-108.7623299999,41.0001430004],[-108.757869,41.0001590003],[-108.7567709995,41.0001640004],[-108.753977,41.0001749996],[-108.7510640003,41.0001860003],[-108.7506669995,41.0001869999],[-108.7459439998,41.0001350002],[-108.744486,41.0001180004],[-108.7400260006,41.0000690004],[-108.7382580003,41.00007],[-108.7345310001,41.0000740004],[-108.7329569999,41.0000750001],[-108.73119,41.0000770002],[-108.7286650006,41.0000779996],[-108.7210910006,41.0000840002],[-108.7185670004,41.0000860004],[-108.7171560003,41.0000859998],[-108.7129259995,41.0000899998],[-108.7115159996,41.0000920003],[-108.7103779995,41.0000919996],[-108.7069670005,41.0000950003],[-108.7058299995,41.0000960003],[-108.7050150005,41.0000960004],[-108.7025710004,41.0000990002],[-108.7017569995,41.0001],[-108.7012170003,41.0001],[-108.6995989996,41.000101],[-108.69906,41.0001019997],[-108.6961799997,41.0001029997],[-108.6875409995,41.0001099997],[-108.6846620002,41.0001130002],[-108.6832740003,41.0001130002],[-108.6822049998,41.0001140002],[-108.679112,41.0001169999],[-108.6777250006,41.0001190001],[-108.6763979995,41.0001189998],[-108.6724180003,41.0001230004],[-108.6714840002,41.0001249997],[-108.6710919995,41.0001249997],[-108.6677449996,41.0001269998],[-108.6577040003,41.0001349997],[-108.6558069995,41.0001370002],[-108.654358,41.0001380004],[-108.6541189996,41.0001379998],[-108.6534030004,41.0001380003],[-108.6531650003,41.0001389998],[-108.6511379995,41.0001399999],[-108.648385,41.000143],[-108.6477390005,41.0001429998],[-108.647248,41.0001440003],[-108.6468910003,41.0001440002],[-108.645849,41.0001450002],[-108.6450589995,41.0001450002],[-108.6430329996,41.0001469998],[-108.6416799998,41.0001470002],[-108.637624,41.0001499997],[-108.6362720006,41.0001520003],[-108.6362349997,41.0001520001],[-108.6361239996,41.0001520003],[-108.636087,41.000152],[-108.6360180004,41.000152],[-108.6358110004,41.0001519997],[-108.6357430005,41.0001520004],[-108.6357070005,41.0001519999],[-108.6355850004,41.0001529999],[-108.6348909996,41.0001529997],[-108.6337249995,41.0001539999],[-108.6312059997,41.0001559999],[-108.6311080004,41.0001560003],[-108.6309310003,41.00015],[-108.6304559994,41.0001329997],[-108.6301390005,41.0001209998],[-108.6272450003,41.000018],[-108.6261609998,40.9999799998],[-108.6256630006,40.9999620002],[-108.6251,40.9999619999],[-108.616007,40.9999619997],[-108.6149060004,40.9999619998],[-108.6149020004,40.9999609997],[-108.6140829998,40.999961],[-108.6116280004,40.9999610004],[-108.6108119996,40.999962],[-108.6101180006,40.9999600001],[-108.6080469997,40.9999600004],[-108.6073560006,40.9999599998],[-108.6072330001,40.9999619997],[-108.6065229995,40.999961],[-108.6051710005,40.99996],[-108.6040239996,40.9999610004],[-108.6031979995,40.9999620004],[-108.6031910004,40.9999619997],[-108.6021979999,40.999962],[-108.5992199998,40.9999619999],[-108.598946,40.9999619997],[-108.5982279996,40.9999620002],[-108.5982239996,40.9999620001],[-108.5982119996,40.9999619996],[-108.5982079996,40.9999620004],[-108.5982039996,40.9999620002],[-108.5981919995,40.9999619997],[-108.5981890004,40.9999619998],[-108.5981549998,40.9999619998],[-108.5980530002,40.9999619997],[-108.5980189996,40.9999619997],[-108.5966690004,40.9999619996],[-108.5811380004,40.9999630004],[-108.5766650001,40.9999630003],[-108.5756249998,40.9999610004],[-108.5725039996,40.9999610001],[-108.5714650001,40.9999619997],[-108.5711480005,40.9999610004],[-108.570198,40.9999599996],[-108.5698819999,40.9999610001],[-108.5698790002,40.9999599998],[-108.5693369996,40.9999589999],[-108.567717,40.9999600002],[-108.5671779997,40.9999619996],[-108.5662219998,40.9999620001],[-108.5633570003,40.9999619997],[-108.5624989999,40.9999619997],[-108.5624030001,40.9999640004],[-108.5622929995,40.9999630003],[-108.5619629997,40.9999619996],[-108.5618540005,40.9999620002],[-108.5617220003,40.9998650003],[-108.5614130003,40.9997949997],[-108.5610459999,40.9997780003],[-108.5585050001,40.9996609998],[-108.5576580004,40.9996220004],[-108.5563110004,40.9996190003],[-108.552519,40.9996139999],[-108.5522720001,40.9996139998],[-108.5509259997,40.9996179996],[-108.5480059999,40.9996419997],[-108.5439289997,40.9996769998],[-108.5392489994,40.9997169996],[-108.5387949996,40.9997209996],[-108.53633,40.999697],[-108.5361049999,40.9996949998],[-108.5354310006,40.9996889998],[-108.5352070002,40.9996870004],[-108.534311,40.9996779996],[-108.5316239999,40.9996530003],[-108.5307289999,40.999645],[-108.5298099999,40.9996360002],[-108.5270530003,40.9996110003],[-108.5266669997,40.9996079996],[-108.5261350001,40.9995949997],[-108.5260290004,40.9995919997],[-108.5248660002,40.9996330001],[-108.5210610002,40.9997709998],[-108.5206879996,40.9997849997],[-108.5198040003,40.9999289999],[-108.5196050006,40.9999620004],[-108.5182010006,40.9999719997],[-108.513386,41.000006],[-108.5119690002,41.0000169997],[-108.5117820002,41.0000180001],[-108.5095569995,41.000033],[-108.5042160004,41.0000720002],[-108.5028830004,41.0000810002],[-108.5006589996,41.0000980001],[-108.5006589997,41.0001],[-108.5006589998,41.0001089998],[-108.5006589994,41.0001119997],[-108.4998589994,41.0001109998],[-108.497462,41.0001089996],[-108.496663,41.0001089999],[-108.4950789995,41.0001069999],[-108.4903289996,41.0001039996],[-108.4887460005,41.0001030004],[-108.4875459996,41.0001020004],[-108.4839489997,41.0000989998],[-108.4827499994,41.0000990001],[-108.4812500004,41.0000969996],[-108.4775120001,41.0000949996],[-108.4767500006,41.0000940004],[-108.4752510005,41.000093],[-108.4727480003,41.0000910004],[-108.472364,41.0000909998],[-108.465715,41.0000850001],[-108.4652419998,41.0000840001],[-108.4627399999,41.0000830004],[-108.4623650002,41.0000820004],[-108.4612420006,41.0000820004],[-108.4608680005,41.0000820002],[-108.4603030003,41.0000810003],[-108.4586090005,41.0000799999],[-108.4581989995,41.00008],[-108.4580449999,41.00008],[-108.4569930005,41.0000779997],[-108.4538389996,41.0000749999],[-108.4527890002,41.0000750004],[-108.4495589995,41.0000710002],[-108.4398720005,41.0000629999],[-108.4371109997,41.0000610001],[-108.4371099997,41.0000619999],[-108.4366439998,41.000061],[-108.4347959997,41.0000600003],[-108.4292540006,41.0000549998],[-108.4281020002,41.0000549999],[-108.4274070004,41.0000549996],[-108.4271529994,41.0000529997],[-108.4263909998,41.000053],[-108.4261379995,41.0000540004],[-108.4217340005,41.0000499999],[-108.4085219997,41.0000390003],[-108.4044,41.0000360001],[-108.4041180002,41.0000360001],[-108.4040979995,41.0000359997],[-108.4040609999,41.0000360003],[-108.4038900001,41.0000359998],[-108.4038329998,41.0000359999],[-108.4007060003,41.0000329999],[-108.3936849999,41.0000279998],[-108.3913280002,41.000025],[-108.3882030005,41.0000230001],[-108.3880730003,41.0000229997],[-108.3876860001,41.0000229996],[-108.3875580005,41.0000230002],[-108.3827160001,41.0000179999],[-108.3756530003,41.0000130004],[-108.3681899995,41.0000189998],[-108.3633490006,41.0000229999],[-108.3610660004,41.0000239997],[-108.3542179997,41.0000300003],[-108.3519360002,41.0000319999],[-108.3504430001,41.0000330003],[-108.3475040002,41.0000339997],[-108.334209,41.0000439998],[-108.3297770002,41.0000480001],[-108.3295549997,41.0000480002],[-108.3295499998,41.0000479998],[-108.3290620005,41.000048],[-108.3269180004,41.0000500002],[-108.3262049995,41.0000519996],[-108.3222019995,41.0000539999],[-108.3101949999,41.000064],[-108.3061930002,41.000068],[-108.3049979996,41.0000679997],[-108.3014160006,41.0000719996],[-108.300222,41.0000729998],[-108.2997489996,41.0000730004],[-108.2983329995,41.0000740004],[-108.2978609998,41.0000750002],[-108.2977849998,41.0000750001],[-108.2975579994,41.0000749996],[-108.2974830004,41.0000750003],[-108.2879130006,41.0000829995],[-108.2879140006,41.0000820001],[-108.287519,41.0000819998],[-108.285737,41.0000830003],[-108.2792119996,41.0000899998],[-108.2770369996,41.0000929999],[-108.2731569994,41.0000950002],[-108.2615170005,41.0001050003],[-108.2577510003,41.0001080001],[-108.2576380005,41.0001079997],[-108.2560470001,41.0001089998],[-108.2512769997,41.0001129999],[-108.2506490005,41.0001139999],[-108.2497199997,41.000362],[-108.2469340001,41.0003340001],[-108.2468920006,41.0003340001],[-108.2437239999,41.000349],[-108.2384090005,41.0003529998],[-108.2355820002,41.0003559998],[-108.2336630004,41.0003479996],[-108.232903,41.0003429996],[-108.2321029998,41.0003390002],[-108.228681,41.0003190001],[-108.2248679999,41.0003360002],[-108.2226320005,41.0003470004],[-108.2221929998,41.0003960002],[-108.2196930001,41.0003819996],[-108.2165510003,41.000365],[-108.2121939995,41.0003409997],[-108.2099260005,41.0003299999],[-108.209695,41.0003289997],[-108.2096440001,41.000329],[-108.2082879999,41.000364],[-108.2064609999,41.000412],[-108.2040680005,41.0004190003],[-108.2026610005,41.0004240003],[-108.202007,41.0004270002],[-108.1985570003,41.000425],[-108.1885279996,41.0004200002],[-108.1862480004,41.0004319996],[-108.1831849999,41.0004490001],[-108.1821460006,41.0004550003],[-108.1821450002,41.0004559997],[-108.181961,41.0004550004],[-108.1818159998,41.000455],[-108.1814099997,41.000455],[-108.1812269999,41.0004550003],[-108.1788420001,41.0005030001],[-108.1736829998,41.0006100004],[-108.1716879997,41.0006020001],[-108.1693950003,41.000595],[-108.1693040002,41.0005940002],[-108.1690680004,41.000596],[-108.1683609999,41.0006060003],[-108.1681260006,41.0006099998],[-108.167994,41.0006120002],[-108.1642939997,41.0007059996],[-108.1641449996,41.0007100001],[-108.1527990005,41.0009020001],[-108.1493209998,41.0009619998],[-108.1489680004,41.0009659998],[-108.1488899995,41.0009669997],[-108.1487139997,41.00097],[-108.1486579999,41.0009700001],[-108.1485810001,41.0009720001],[-108.1456179999,41.0010120003],[-108.1440859999,41.001032],[-108.1330290006,41.0011830001],[-108.1306029996,41.0012159999],[-108.126215,41.001276],[-108.12611,41.0012870002],[-108.1256419994,41.0013339997],[-108.1254129999,41.0013230003],[-108.1233169999,41.001229],[-108.1226190005,41.0011980003],[-108.1205050002,41.0012209997],[-108.1141630005,41.0012939996],[-108.1122870004,41.001316],[-108.1120500002,41.0013189996],[-108.1116389997,41.0013230005],[-108.1104100004,41.0013369999],[-108.11,41.001342],[-108.1091329996,41.0013509997],[-108.106535,41.0013810001],[-108.1056689998,41.0013910004],[-108.1055970002,41.0013910003],[-108.1055040002,41.0013930003],[-108.1053809997,41.0013939998],[-108.1053100006,41.0013950002],[-108.1021489995,41.0013619996],[-108.099298,41.0013330002],[-108.0926670003,41.0012630003],[-108.0895080003,41.0012329999],[-108.0894469996,41.0013019997],[-108.0892780002,41.0015070004],[-108.0892239995,41.0015779999],[-108.0801060002,41.0016819995],[-108.0729399995,41.0017640002],[-108.0725789997,41.0017679997],[-108.0635980006,41.0018700002],[-108.052753,41.0019920004],[-108.0488729998,41.002037],[-108.0465389994,41.0020640001],[-108.0439200006,41.0020640002],[-108.0436359998,41.0020640003],[-108.040233,41.002064],[-108.0339320005,41.0020640003],[-108.030024,41.0020640003],[-108.026622,41.0020640002],[-108.0249679997,41.002064],[-108.0242370003,41.002064],[-108.0200069997,41.0020189997],[-108.0188830002,41.002008],[-108.0183540002,41.002002],[-108.0170049999,41.0019870003],[-108.0129599995,41.0019440001],[-108.0117529996,41.0019320001],[-108.0116129999,41.0019310004],[-108.0112059997,41.0019249996],[-108.0099899995,41.0019130003],[-108.0095849998,41.0019090003],[-108.0092620006,41.0019049999],[-108.0082930001,41.0018949999],[-108.007971,41.0018920001],[-108.0006360006,41.0018140004],[-108.0004430006,41.0018150001],[-108.0002229998,41.0018170001],[-107.9932209995,41.0018620004],[-107.9778580006,41.0019619998],[-107.9778060002,41.0019630003],[-107.97033,41.0020120004],[-107.9686640001,41.0020099997],[-107.9636689997,41.0020069998],[-107.9620039994,41.002006],[-107.9602300005,41.0020040002],[-107.954908,41.002],[-107.9533180004,41.0019990002],[-107.9531340005,41.0019989998],[-107.9518830004,41.0019989996],[-107.9481329996,41.0020010004],[-107.9468830003,41.0020020001],[-107.9460809995,41.0020020001],[-107.9421029995,41.0020039998],[-107.9396460005,41.0020059998],[-107.9307460004,41.0020079996],[-107.9277630005,41.0020089997],[-107.9231949998,41.0020110003],[-107.9231640003,41.0020109999],[-107.9230740005,41.0020119998],[-107.9229840004,41.0020119999],[-107.9228979996,41.0020120002],[-107.9228110005,41.0020130002],[-107.9220710003,41.0020160004],[-107.9193330001,41.0020299999],[-107.9184210004,41.0020359995],[-107.9179670001,41.0020349997],[-107.9169569996,41.0020370003],[-107.9166109995,41.0020419998],[-107.9161589998,41.0020490004],[-107.9141110006,41.0020480004],[-107.9140970004,41.0020460003],[-107.9079170002,41.0020420001],[-107.9058579998,41.0020429997],[-107.9048460004,41.0020340003],[-107.9018099995,41.0020079997],[-107.9007990004,41.002],[-107.8967200004,41.0020039998],[-107.8938099997,41.0020080001],[-107.8844839994,41.0020189998],[-107.883021,41.0020209996],[-107.8804060004,41.0020240002],[-107.8775970002,41.0020229997],[-107.8756319998,41.0020229998],[-107.8691729997,41.0019570003],[-107.8666390003,41.001932],[-107.8663650004,41.0019320003],[-107.8657489998,41.0019320003],[-107.8639029999,41.0019320003],[-107.8632879995,41.0019329998],[-107.8632620002,41.0019330004],[-107.8617199996,41.0019330002],[-107.8598509999,41.0019349998],[-107.8570159994,41.001936],[-107.8554489997,41.0019369996],[-107.8550010005,41.0019370002],[-107.8536580002,41.0019369999],[-107.8532119998,41.0019380004],[-107.8528940004,41.0019340004],[-107.8519429996,41.001926],[-107.8518199995,41.0019260004],[-107.8516269996,41.0019280004],[-107.8503480001,41.0019270002],[-107.846515,41.0019290003],[-107.8452380001,41.0019310002],[-107.84452,41.0019299998],[-107.8423639995,41.0019310002],[-107.8416550003,41.001931],[-107.8416480004,41.0019320004],[-107.8409029999,41.0019320002],[-107.8386770005,41.0019359999],[-107.8379360003,41.0019369996],[-107.8379039998,41.0019390004],[-107.8378679995,41.0019379996],[-107.8149109998,41.0019499996],[-107.8123010002,41.0019519997],[-107.8109879996,41.0019530003],[-107.8107830004,41.0019510004],[-107.8084600005,41.0019339996],[-107.8083290002,41.0019330001],[-107.8081279998,41.0019330002],[-107.8080360004,41.0019319998],[-107.8079439995,41.001932],[-107.8042509994,41.0019389997],[-107.8038239997,41.0019399999],[-107.8033979998,41.0019410003],[-107.8006079998,41.0019459998],[-107.8003120003,41.0019450004],[-107.8000170002,41.0019450001],[-107.7919870005,41.0019620003],[-107.7916469994,41.0019669998],[-107.786598,41.0019390001],[-107.7847919994,41.0019289999],[-107.7841420003,41.0019309996],[-107.7818909996,41.0019329999],[-107.7743689994,41.0019419996],[-107.7718629996,41.0019460004],[-107.7695240001,41.001945],[-107.7669209999,41.0019480001],[-107.7625099999,41.0019529998],[-107.7601830003,41.0019570003],[-107.7601750004,41.0019579999],[-107.7570440004,41.0019619999],[-107.7562300002,41.0019629998],[-107.7557200002,41.0019639998],[-107.7529379999,41.0019669999],[-107.7506270001,41.0019710002],[-107.7486539995,41.0019820004],[-107.7373610005,41.0020389996],[-107.7312329999,41.0020700003],[-107.7239989995,41.0021089998],[-107.7232720005,41.0021119998],[-107.7210909994,41.0021229996],[-107.7203660003,41.0021270004],[-107.7202630003,41.0021260004],[-107.7198110003,41.002126],[-107.7181530005,41.0021270004],[-107.717725,41.0021279999],[-107.7176020001,41.0021300003],[-107.7174429998,41.0021290004],[-107.7172869997,41.0021290004],[-107.7170319997,41.002129],[-107.7153330005,41.0021320004],[-107.714904,41.0021330003],[-107.7147689999,41.0021360002],[-107.7146090002,41.0021319999],[-107.7144519996,41.0021329996],[-107.7136899999,41.0021329999],[-107.7104610001,41.0021350002],[-107.7095940001,41.0021379998],[-107.7094889997,41.002138],[-107.7093860002,41.0021379999],[-107.7093309998,41.0021380002],[-107.7089440005,41.0021379999],[-107.7076260006,41.002141],[-107.7073189998,41.0021420004],[-107.7072910001,41.0021439996],[-107.707192,41.0021530004],[-107.7071290005,41.0021549998],[-107.7070770006,41.0021589996],[-107.706965,41.0021660001],[-107.7069449998,41.0021669997],[-107.7068839997,41.0021729996],[-107.7066039997,41.0021670003],[-107.7057660004,41.0021510003],[-107.7057019995,41.0021499997],[-107.7055939996,41.0021479998],[-107.705488,41.0021470003],[-107.7052970005,41.0021409996],[-107.7052810004,41.0021409998],[-107.7026619996,41.0021439999],[-107.6941880003,41.0021549996],[-107.6914100003,41.0021600004],[-107.6913629998,41.0021599998],[-107.6909620001,41.0021589997],[-107.6897609998,41.002157],[-107.6893629995,41.0021599999],[-107.6785860004,41.002154],[-107.6783609997,41.0021539998],[-107.6725949995,41.0021500004],[-107.6719740001,41.0021470003],[-107.670657,41.0021390001],[-107.6705239994,41.0021389997],[-107.6703990002,41.0021380003],[-107.669596,41.0021340004],[-107.6695690002,41.0021340002],[-107.6694920002,41.0021340004],[-107.6692629998,41.0021340004],[-107.6691879995,41.002134],[-107.6691869997,41.0021339997],[-107.6626440004,41.0021319998],[-107.6608719999,41.0021320001],[-107.6430190004,41.0021260002],[-107.6365089997,41.0021250004],[-107.6306459997,41.002123],[-107.6256489999,41.0021230002],[-107.6133989996,41.0021530003],[-107.5736240001,41.0022510004],[-107.5698640005,41.002255],[-107.5585870004,41.0022709999],[-107.5567150005,41.0022740004],[-107.5548269997,41.0022770002],[-107.5547889996,41.0022769999],[-107.5513689994,41.0022819997],[-107.5409989999,41.0022959996],[-107.5375450001,41.0023039999],[-107.5366589995,41.0023040003],[-107.5340070003,41.0023090002],[-107.5332530005,41.0023110002],[-107.5331259998,41.0023130003],[-107.5267279997,41.0023569997],[-107.5266379996,41.0023559996],[-107.5184930005,41.002354],[-107.5110239996,41.0023510002],[-107.5071810003,41.0023499996],[-107.5006969995,41.0023490004],[-107.5006200001,41.0023490001],[-107.4962989995,41.0024119998],[-107.4837099999,41.0025970001],[-107.4831060002,41.0026050001],[-107.4808790006,41.002638],[-107.4787089997,41.0026699997],[-107.4786780001,41.0026709999],[-107.4785959996,41.0026709998],[-107.4743619999,41.0026850003],[-107.4721019998,41.0026940003],[-107.461322,41.002732],[-107.4569759999,41.0027480003],[-107.4566239995,41.0027490004],[-107.4555059995,41.00275],[-107.4511010005,41.0027560004],[-107.4501280002,41.0027590002],[-107.4496340001,41.0027600003],[-107.4475940005,41.0027670003],[-107.441474,41.0027899998],[-107.4394350004,41.0027980003],[-107.4365010005,41.0028079997],[-107.4278749995,41.0028409996],[-107.4277,41.002841],[-107.4250539999,41.0028520004],[-107.4248079996,41.0028530001],[-107.4247670002,41.0028530001],[-107.4245849996,41.0028529999],[-107.4240409996,41.0028550001],[-107.4238599998,41.002856],[-107.4238070004,41.002856],[-107.4188149995,41.002878],[-107.4036829998,41.0029450004],[-107.398771,41.0029680004],[-107.3986400002,41.0029690004],[-107.3986,41.0029690001],[-107.3985579998,41.0029689999],[-107.3961519996,41.0029799997],[-107.3934939995,41.0029929999],[-107.3886909997,41.0030159999],[-107.3873199998,41.003023],[-107.3863019997,41.0030280003],[-107.3862050005,41.0030279999],[-107.3861920005,41.0030279999],[-107.3860799997,41.0030290001],[-107.3844390005,41.0030299996],[-107.3831410001,41.0030320001],[-107.3791430003,41.0030360002],[-107.377379,41.0030390004],[-107.3756139999,41.003049],[-107.3754,41.003049],[-107.3694659995,41.0030660002],[-107.3674879998,41.0030730004],[-107.3674349999,41.0030729997],[-107.3673250004,41.0030720004],[-107.3672760001,41.0030720002],[-107.3672230004,41.0030730001],[-107.3670769994,41.0030719999],[-107.3656510005,41.0030680004],[-107.3609390003,41.0030559996],[-107.3593780005,41.003053],[-107.3593680002,41.0030530004],[-107.3588570005,41.0030500002],[-107.3573240004,41.0030460004],[-107.3569179995,41.0030449999],[-107.3568129995,41.0030459996],[-107.3567349995,41.003046],[-107.3566730005,41.0030450003],[-107.3562429996,41.003036],[-107.3545360005,41.0030030003],[-107.3541979998,41.0029970004],[-107.3540880006,41.0029950003],[-107.3539669999,41.0029929997],[-107.3537769998,41.0029890004],[-107.3536349998,41.0029890003],[-107.3517170003,41.0029850001],[-107.3449690005,41.0029709999],[-107.3427199996,41.0029670004],[-107.3394109994,41.00296],[-107.3294840003,41.0029410002],[-107.3261750003,41.0029349999],[-107.3201660003,41.0029229998],[-107.3196069998,41.0029219998],[-107.3194940004,41.0029219996],[-107.3193610004,41.0029220003],[-107.318708,41.0029210003],[-107.3180539996,41.0029199997],[-107.3177940002,41.0029200002],[-107.3178140003,41.0020390002],[-107.3178630002,40.9999650004],[-107.3178570002,40.9993989997],[-107.3178499998,40.9986109996],[-107.3178479996,40.9985269999],[-107.3178470006,40.9985180002],[-107.3178009998,40.9941869997],[-107.3176630005,40.9811980003],[-107.3176170003,40.9768680002],[-107.3176169997,40.9768540002],[-107.3176140005,40.976741],[-107.3176119998,40.976639],[-107.3176089997,40.9763630004],[-107.3176099998,40.9762369998],[-107.3175900003,40.9740979996],[-107.3175609998,40.9715300003],[-107.3175459994,40.970083],[-107.3174109996,40.9574120003],[-107.3173610004,40.9527060003],[-107.3173609998,40.9526959996],[-107.3173430003,40.9510539996],[-107.3172899997,40.9461049997],[-107.3172730003,40.9444550003],[-107.3172720003,40.9444010002],[-107.3172700005,40.9442390004],[-107.3172699995,40.944185],[-107.3171740003,40.9351410004],[-107.3168860003,40.9080110002],[-107.3167910004,40.8989680001],[-107.3167780005,40.8978709996],[-107.3167430005,40.894583],[-107.3167330005,40.8935109997],[-107.3167320002,40.8934869999],[-107.3167159999,40.891973],[-107.3166690003,40.8874280002],[-107.3166600006,40.8864669996],[-107.3166530003,40.8859149997],[-107.3166529994,40.8859030001],[-107.3166390001,40.8847390002],[-107.3166009999,40.8812170001],[-107.3165920001,40.8802580001],[-107.3165909997,40.8800449997],[-107.3165889996,40.879968],[-107.316587,40.8798820001],[-107.3165809998,40.8793969996],[-107.3165809998,40.8792370001],[-107.3165420003,40.8752879997],[-107.3165390004,40.87495],[-107.3163660004,40.8634419997],[-107.3163070004,40.8594949996],[-107.3162629994,40.8565650004],[-107.3161310004,40.8477750003],[-107.316088,40.8448450002],[-107.3160310003,40.8413290003],[-107.3160240005,40.8409230003],[-107.3160220003,40.8408310001],[-107.3160199995,40.8406879999],[-107.3160179998,40.8405449997],[-107.3160159998,40.8404919997],[-107.3160159994,40.8404249999],[-107.3160059994,40.8398259999],[-107.3160060005,40.8398119996],[-107.3159970005,40.8392980004],[-107.315787,40.8265809999],[-107.3157859997,40.8264260003],[-107.3157849998,40.8262719997],[-107.3157250004,40.8226590004],[-107.3156350004,40.8171129996],[-107.315618,40.8161019997],[-107.3155690002,40.8130689996],[-107.3155529994,40.8120579998],[-107.3155199999,40.8100810002],[-107.3154239996,40.8041509998],[-107.3153919996,40.8021750001],[-107.3153889996,40.8020459996],[-107.3153829999,40.8016590001],[-107.3153810004,40.8015300002],[-107.3153730006,40.801045],[-107.3153490005,40.7995899999],[-107.3153409999,40.7991060003],[-107.315337,40.7988829999],[-107.3153259999,40.7982169997],[-107.3153229998,40.7979949997],[-107.3152780002,40.7957100003],[-107.3151430002,40.7888569997],[-107.3150989999,40.7865730004],[-107.3150840004,40.7855419996],[-107.3150410002,40.7824519998],[-107.3150270002,40.7814219998],[-107.3150229999,40.7811530002],[-107.3150119996,40.7803460004],[-107.3150089997,40.7800769997],[-107.3149970001,40.7793750003],[-107.3149650001,40.7772739998],[-107.3149549997,40.7766110003],[-107.3149540006,40.7765719998],[-107.3149279997,40.7748910004],[-107.3148489997,40.7698500003],[-107.3148239999,40.7681880002],[-107.3148230005,40.7681699999],[-107.314776,40.7651909998],[-107.3146370005,40.756254],[-107.3145920001,40.7532760002],[-107.3145409994,40.7499689996],[-107.3143910004,40.7414139999],[-107.313877,40.711948],[-107.3138759994,40.7118970002],[-107.3137700003,40.7058320001],[-107.3135659995,40.6940739999],[-107.3135729998,40.6939730004],[-107.3135749999,40.6939200001],[-107.3135889999,40.693761],[-107.3135940002,40.6937089997],[-107.3135779996,40.6932160001],[-107.3135460004,40.6922210003],[-107.3135029995,40.6908409997],[-107.3134040002,40.6877599998],[-107.3133649997,40.6865530002],[-107.313367,40.6862729998],[-107.3133680003,40.6862659997],[-107.313431,40.6819759998],[-107.3136230003,40.669085],[-107.313685,40.6650489997],[-107.3136890001,40.6647890004],[-107.31369,40.6646330004],[-107.3136939997,40.664166],[-107.313698,40.6640119998],[-107.3137619998,40.6596649999],[-107.3137629999,40.6596320001],[-107.3139580005,40.6466330003],[-107.3140249995,40.6422930003],[-107.3140239999,40.6422369998],[-107.3140269998,40.6420770004],[-107.3140289995,40.6420500003],[-107.3140300006,40.6420250002],[-107.3140449996,40.6409949999],[-107.314085,40.6383769996],[-107.314091,40.6379050004],[-107.3141069995,40.636876],[-107.3141309997,40.6353129997],[-107.3141939995,40.6311269998],[-107.3142279996,40.6289260002],[-107.314288,40.6249710004],[-107.3142780005,40.6226320003],[-107.3142570006,40.617871],[-107.314245,40.6150199998],[-107.3142389994,40.61388],[-107.3142309996,40.6119059999],[-107.314215,40.6081310001],[-107.3142119999,40.6077820004],[-107.3142039994,40.6068160001],[-107.3141729998,40.6028740004],[-107.3141629999,40.6015599999],[-107.3141610004,40.6013369997],[-107.3141540004,40.6004249996],[-107.3141530003,40.6002809996],[-107.3172929994,40.6002829999],[-107.3174100002,40.6002829996],[-107.318545,40.6002839996],[-107.3186759995,40.6002860003],[-107.3190710002,40.600293],[-107.3192029998,40.6002959998],[-107.3192150004,40.6002950002],[-107.3193740004,40.600295],[-107.3198899997,40.600294],[-107.3200629996,40.6002960001],[-107.3238500003,40.6002910002],[-107.3324759996,40.6002840003],[-107.3352139999,40.6002809998],[-107.3390050004,40.6002789999],[-107.3397680001,40.6002900001],[-107.3403450003,40.6002990002],[-107.3420579997,40.6002969997],[-107.3428219995,40.6002969997],[-107.343501,40.6002969997],[-107.3439679999,40.6002939996],[-107.3474080004,40.6002720004],[-107.3485549995,40.6002659997],[-107.348865,40.6002659998],[-107.3497970005,40.6002670004],[-107.3501080003,40.6002680001],[-107.3502289997,40.6002680004],[-107.3505930001,40.600268],[-107.3507140003,40.6002689996],[-107.3507870004,40.6002700001],[-107.3507869996,40.6002690003],[-107.354291,40.600274],[-107.3650230002,40.6002909998],[-107.3680110002,40.6002969998],[-107.3686020005,40.6002980003],[-107.3686209998,40.6002979996],[-107.3691790003,40.6002979998],[-107.3709099996,40.6003010003],[-107.3714870004,40.6003019997],[-107.3714849996,40.6002530004],[-107.371485,40.60011],[-107.3714849998,40.6000619999],[-107.3714800002,40.5999700001],[-107.3714789995,40.5999670004],[-107.3714939998,40.5997269999],[-107.3714970002,40.5995150004],[-107.3715159994,40.5985010002],[-107.3714869995,40.5981920004],[-107.3714840006,40.5981389996],[-107.3714909997,40.597932],[-107.3714950005,40.5978750001],[-107.3715,40.5978099998],[-107.3714810003,40.5974959998],[-107.3714319996,40.5965780002],[-107.3714300005,40.5965630002],[-107.3714149995,40.5962530002],[-107.3714149999,40.5961289997],[-107.3714149997,40.5959620001],[-107.371414,40.5957580003],[-107.3714140002,40.5956349996],[-107.3714100004,40.5936570002],[-107.3714009998,40.5877259996],[-107.3713979998,40.5857489998],[-107.3713960004,40.5849279999],[-107.3713920005,40.5824690001],[-107.3713910003,40.5816489998],[-107.37139,40.5813310001],[-107.3713880002,40.5803779999],[-107.3713880002,40.5784450002],[-107.3713800002,40.5779020003],[-107.3713709999,40.5700330002],[-107.3713679995,40.5690420002],[-107.3713640004,40.5660729996],[-107.3713630002,40.5650849998],[-107.3713630005,40.5650820003],[-107.3713630003,40.5648209999],[-107.3713590001,40.5640329996],[-107.3713609998,40.5637720004],[-107.3713589998,40.5636010002],[-107.3713600001,40.5630909996],[-107.37136,40.5629290003],[-107.3713610002,40.5629209998],[-107.3713569997,40.560338],[-107.3713560002,40.5602650004],[-107.3713519997,40.5574919996],[-107.3713439995,40.5528870002],[-107.3713420001,40.5523],[-107.3713390003,40.5499629997],[-107.3713379999,40.5498040004],[-107.3713379998,40.5496450003],[-107.3713319996,40.5457090002],[-107.3713280004,40.5423989995],[-107.3756159996,40.54241],[-107.3798220001,40.5423920002],[-107.3837580006,40.5423770004],[-107.3845139996,40.5423740001],[-107.3850549997,40.542372],[-107.3867829997,40.5423649999],[-107.3875379995,40.5423630002],[-107.3875399996,40.5423619996],[-107.3890590005,40.5423560003],[-107.3936190005,40.5423389996],[-107.3951389998,40.5423350001],[-107.3951399997,40.5423340003],[-107.3957560004,40.5423309997],[-107.3976070002,40.5423229996],[-107.3982249998,40.5423210001],[-107.3988079996,40.542319],[-107.3994300004,40.5423160002],[-107.4001460004,40.5423139997],[-107.4009759999,40.5423109999],[-107.4011920004,40.54231],[-107.4030470005,40.5423019996],[-107.4042520001,40.5422979997],[-107.4042530002,40.5422979996],[-107.4056239996,40.542292],[-107.4097370002,40.5422780001],[-107.4111089995,40.5422729998],[-107.4111240004,40.5422720002],[-107.4115109997,40.5422719998],[-107.4116540002,40.5422709995],[-107.4132889996,40.5422650004],[-107.413834,40.5422629998],[-107.4139350002,40.542262],[-107.4142079998,40.5422620001],[-107.4142399998,40.5422610004],[-107.4143419994,40.542261],[-107.417236,40.5422490002],[-107.4259180006,40.5422170003],[-107.4288129996,40.5422070003],[-107.4288150004,40.5419580002],[-107.4288230002,40.5412150004],[-107.4288259995,40.5409669998],[-107.4288229998,40.5405710002],[-107.4288170006,40.5393830004],[-107.4288150004,40.5389870004],[-107.4288140003,40.5389160003],[-107.4288130006,40.5387069997],[-107.4288130003,40.5386389997],[-107.4288130004,40.5385120003],[-107.4288110004,40.538395],[-107.4288059995,40.5376640004],[-107.4288049999,40.5374299997],[-107.4288050006,40.5374210001],[-107.4288019998,40.5371389999],[-107.4287990004,40.5362980003],[-107.4288,40.53602],[-107.4287960004,40.5357800002],[-107.4287919999,40.5350619999],[-107.4287920003,40.5348240003],[-107.4287909997,40.5346689998],[-107.4287899999,40.5342050001],[-107.4287900001,40.534051],[-107.4287820002,40.5326029998],[-107.4287589996,40.5282650004],[-107.4287580005,40.5279070003],[-107.4287520003,40.5268190001],[-107.4287519999,40.5268099997],[-107.42875,40.5265269998],[-107.4287460005,40.5256580004],[-107.4287450005,40.5253680003],[-107.4287420006,40.525002],[-107.4287410001,40.5248199996],[-107.4287399996,40.524638],[-107.4287359999,40.5238739997],[-107.4287280003,40.5224310002],[-107.4287259998,40.5220530003],[-107.4287239995,40.5216750004],[-107.4287110001,40.5193949996],[-107.4287049998,40.5180920001],[-107.4287049995,40.5179970002],[-107.428705,40.5179030002],[-107.4287020002,40.5177010003],[-107.4287,40.5175009998],[-107.4286439999,40.5120470001],[-107.4285240005,40.4999730002],[-107.428521,40.4944850001],[-107.428519,40.4886320004],[-107.4285179998,40.4878559996],[-107.4285159995,40.4855289999],[-107.4285160002,40.4849480002],[-107.4285110002,40.4847539998],[-107.4285110001,40.4847380002],[-107.4284879997,40.4839290004],[-107.4284209995,40.4814559998],[-107.4283989996,40.4806320004],[-107.4283960003,40.4805459997],[-107.4283899995,40.4802909998],[-107.4283880004,40.4802099998],[-107.4283869998,40.4802059998],[-107.4283949994,40.4794119996],[-107.4284209997,40.4770320003],[-107.4284319996,40.4762389996],[-107.428446,40.4749430002],[-107.4284859996,40.4714219999],[-107.428488,40.4712539997],[-107.4284900005,40.4710860004],[-107.4284900001,40.4710550001],[-107.4285049994,40.4697600003],[-107.4285599997,40.4674449999],[-107.4286780004,40.4625600001],[-107.4287259996,40.4605039996],[-107.4287800001,40.4582639999],[-107.4287799995,40.4581909998],[-107.4288210001,40.4564249999],[-107.4289479999,40.4511300004],[-107.4289909998,40.4493659997],[-107.4290129998,40.4483990004],[-107.4290839995,40.4455],[-107.4291070001,40.4445339998],[-107.4291370002,40.4440579998],[-107.4291360003,40.4440560004],[-107.429153,40.4437810002],[-107.4292970001,40.4415230004],[-107.4293450001,40.4407709996],[-107.429389,40.4392270002],[-107.4295239996,40.4345969997],[-107.4295689999,40.4330540003],[-107.4295700006,40.4329500001],[-107.4295800005,40.4326440002],[-107.4295839997,40.4325429996],[-107.4295839997,40.4325229996],[-107.4296599997,40.4299250003],[-107.4298880001,40.4220739997],[-107.4299639998,40.419457],[-107.4299650004,40.4194019996],[-107.4299690002,40.4192420001],[-107.4299729999,40.4191900002],[-107.4300399995,40.4168100004],[-107.4301669999,40.4124279998],[-107.4307580001,40.392149],[-107.4307699996,40.3917559996],[-107.4309550005,40.3853900001],[-107.4309559999,40.3853459999],[-107.4309599995,40.3852160004],[-107.4309619996,40.3851729997],[-107.4309710004,40.3848239998],[-107.4310020001,40.3837800002],[-107.4310130005,40.3834320004],[-107.4310570005,40.3818870002],[-107.4311929997,40.3772550004],[-107.4312360002,40.3757799995],[-107.4312219997,40.3757129997],[-107.4310719999,40.3749690001],[-107.4311279999,40.3724900001],[-107.4311470003,40.3716710001],[-107.4314309999,40.3595010004],[-107.4315190002,40.3557150002],[-107.4315249998,40.3554450002],[-107.4315250003,40.3554399999],[-107.4315250005,40.3554269997],[-107.4315249998,40.355424],[-107.4315450005,40.3546450001],[-107.431606,40.3523100003],[-107.4316280006,40.3515339999],[-107.4316370003,40.3511610004],[-107.4316660004,40.3500429999],[-107.4316769999,40.3496710004],[-107.4316780003,40.3495940003],[-107.4316840004,40.3493629999],[-107.431687,40.3492860001],[-107.4316869997,40.3492739997],[-107.4316889999,40.3492030004],[-107.4316939998,40.348952],[-107.4316979995,40.3488700004],[-107.4317269996,40.3477139996],[-107.431818,40.3442470001],[-107.4318459999,40.3432049997],[-107.4318469998,40.3431479999],[-107.4318489997,40.3430919996],[-107.4318510005,40.3429990001],[-107.4318540003,40.3429070002],[-107.4318639998,40.3425269998],[-107.431908,40.3408310004],[-107.4319249996,40.3402669996],[-107.4319520003,40.3392199996],[-107.4320349995,40.3360820002],[-107.4320630001,40.335036],[-107.432068,40.3348789998],[-107.4361949995,40.3348299997],[-107.4425939999,40.3347550003],[-107.442574,40.3282990003],[-107.4425620006,40.3240150003],[-107.4425590003,40.323284],[-107.4425589997,40.3231229999],[-107.4425529996,40.3210940004],[-107.4425509999,40.320364],[-107.4425500003,40.320237],[-107.4425480001,40.3198599998],[-107.4425480004,40.3197340001],[-107.4425400006,40.3196440003],[-107.442517,40.3193780003],[-107.4425100002,40.319289],[-107.4425109996,40.3169519999],[-107.4425159998,40.3117580004],[-107.4425169997,40.3099439996],[-107.4425180003,40.3084389997],[-107.4424899996,40.3077830001],[-107.4424829998,40.3076089996],[-107.442444,40.3066900003],[-107.4423310001,40.3039359999],[-107.4422939999,40.3030199999],[-107.4422829996,40.3027860004],[-107.4421670001,40.2999540002],[-107.4419539996,40.2947010001],[-107.4417939997,40.2907620004],[-107.4416709997,40.2876989998],[-107.4416620004,40.2875010003],[-107.4416379998,40.2869100004],[-107.4416310003,40.2867149998],[-107.4415649998,40.2851349999],[-107.4415569995,40.2849889996],[-107.441516,40.2839789997],[-107.4413419998,40.2798210003],[-107.4412739994,40.2781009997],[-107.4412149999,40.2767369998],[-107.4411890004,40.2761019999],[-107.4410450004,40.2726520002],[-107.4409909996,40.2712930002],[-107.4409419995,40.2701399997],[-107.4407990004,40.2666860001],[-107.4407540006,40.2655380002],[-107.4407470006,40.265432],[-107.4407339998,40.2651200003],[-107.4407320002,40.2650180004],[-107.4406779996,40.263788],[-107.4405259999,40.2601080004],[-107.4404770001,40.258883],[-107.440464,40.2586319997],[-107.4404320003,40.2578849996],[-107.4404249998,40.2576380001],[-107.4404100001,40.257324],[-107.4403719995,40.2563909996],[-107.4403620001,40.2561139998],[-107.4403600003,40.2560809996],[-107.4403439995,40.255707],[-107.4402979997,40.2545830003],[-107.4402819995,40.2542099996],[-107.4402769999,40.2540690004],[-107.4402250005,40.2528199998],[-107.4401089997,40.2499759998],[-107.4400569997,40.2497469997],[-107.4398139999,40.2486830001],[-107.4395060006,40.247328],[-107.4395010005,40.2464520002],[-107.4394869998,40.2438270003],[-107.439483,40.2429520004],[-107.439476,40.2415780001],[-107.4394549998,40.2374560002],[-107.4394480002,40.2360829996],[-107.4394419994,40.2348949998],[-107.4394239996,40.2313339996],[-107.439419,40.2301470003],[-107.4394149996,40.2295450002],[-107.439406,40.2277410001],[-107.4394039996,40.2271399998],[-107.4394,40.2263869997],[-107.4393890002,40.224131],[-107.4393859997,40.2233790001],[-107.4393830004,40.222793],[-107.4393739998,40.2210390003],[-107.439372,40.2204539996],[-107.4410800004,40.2204380003],[-107.4436320005,40.2204160002],[-107.4462090004,40.2203929998],[-107.4471880001,40.2203850001],[-107.4479140003,40.2204739997],[-107.4480600002,40.22049],[-107.4485049999,40.2205419998],[-107.4486550001,40.220561],[-107.4487080004,40.2205669998],[-107.4489530001,40.2205420001],[-107.4498500002,40.2204519999],[-107.4501499998,40.2204229999],[-107.4503190003,40.220406],[-107.4505380003,40.2204030004],[-107.4517070006,40.2203920002],[-107.4520970003,40.220389],[-107.4527160004,40.2203819999],[-107.4532290001,40.2203780004],[-107.4545739996,40.2203649997],[-107.4551939996,40.2203600001],[-107.4568300002,40.2203449996],[-107.4617380002,40.2203],[-107.4633730001,40.2202850003],[-107.4633740001,40.2202849997],[-107.4688969995,40.2202339998],[-107.4753510002,40.2201759998],[-107.4854660002,40.220083],[-107.4909899996,40.2200329997],[-107.4919149998,40.2200240002],[-107.4920829999,40.2200229996],[-107.4946920001,40.2199990003],[-107.4956180003,40.2199909999],[-107.4978119997,40.2202170004],[-107.4978739995,40.2202240003],[-107.5006149996,40.2205069997],[-107.5044179999,40.2205070001],[-107.5066249999,40.2205079996],[-107.506626,40.2205080004],[-107.5066680004,40.2205070002],[-107.5103029996,40.2206369998],[-107.5213429995,40.2210330001],[-107.5250239995,40.2211670002],[-107.5282659997,40.2212529996],[-107.5306269994,40.2213179997],[-107.537998,40.2215180001],[-107.5412450005,40.2216069996],[-107.5452790001,40.2217159996],[-107.5503689997,40.2218539996],[-107.5564469994,40.22202],[-107.5573829996,40.2220449999],[-107.5613139997,40.2221500001],[-107.5614180005,40.2221530001],[-107.5615070005,40.222155],[-107.5617759998,40.2221619998],[-107.561866,40.2221649996],[-107.5630809998,40.2221849997],[-107.5667290004,40.2222469998],[-107.5679450002,40.2222680003],[-107.5711319996,40.2223199997],[-107.580693,40.2224810001],[-107.5837109994,40.2225319997],[-107.5838809995,40.2225380002],[-107.5838829996,40.2225379997],[-107.584052,40.222542],[-107.5845679994,40.2225540001],[-107.5847400005,40.2225589998],[-107.5852869995,40.2225720002],[-107.6033090001,40.2231149996],[-107.60334,40.2231159999],[-107.6085709996,40.2233979997],[-107.6092749996,40.2234479999],[-107.6113879998,40.2236],[-107.6120680003,40.2236489997],[-107.6120939998,40.2236509996],[-107.6135480001,40.2236820002],[-107.6340450005,40.2241310003],[-107.6346310004,40.2241370001],[-107.6360149999,40.224151],[-107.6380680001,40.2241730004],[-107.6417469998,40.224212],[-107.6419249997,40.2242130004],[-107.6438949996,40.2242350004],[-107.6441749999,40.2242380004],[-107.6446139998,40.2242390001],[-107.646774,40.2242469997],[-107.6472639994,40.2242489996],[-107.647495,40.2242489999],[-107.6487840005,40.2242540001],[-107.649034,40.2242549999],[-107.6526509997,40.2242689997],[-107.6539410005,40.2242750002],[-107.6539740005,40.2236759996],[-107.6539870002,40.2234519999],[-107.6555600005,40.2234419997],[-107.6561599996,40.2234389997],[-107.6564790004,40.2234369999],[-107.6572339998,40.2234319999],[-107.6604590002,40.2234130001],[-107.6615339997,40.2234080001],[-107.6622839997,40.2234139996],[-107.6626359999,40.223417],[-107.6629359997,40.223422],[-107.6659429994,40.2234509998],[-107.6669090001,40.2234600002],[-107.6670449994,40.2234609998],[-107.6672179997,40.2234629998],[-107.6677400003,40.2234679996],[-107.667915,40.2234710001],[-107.6680490005,40.2234719996],[-107.668059,40.2234699998],[-107.6684940003,40.2234240001],[-107.6686410005,40.2234090002],[-107.6687600004,40.223396],[-107.6695160003,40.2234089996],[-107.6721430001,40.2234560001],[-107.6730189996,40.2234719999],[-107.6733349996,40.2234770004],[-107.6742380001,40.2234920003],[-107.6778949997,40.2235570002],[-107.6787340001,40.223572],[-107.6791140002,40.2235790002],[-107.6791470004,40.2235789996],[-107.6792480003,40.223581],[-107.679282,40.2235819996],[-107.6793049999,40.2235820001],[-107.6793739995,40.2235840003],[-107.6793980001,40.223585],[-107.6802860003,40.2235850003],[-107.6829539996,40.2235869997],[-107.6837809999,40.2235879998],[-107.6838430002,40.2235879997],[-107.6864950006,40.2235890004],[-107.6912019996,40.2235930004],[-107.6936659999,40.2235950001],[-107.6944540002,40.2235949999],[-107.6971070004,40.223597],[-107.6975679996,40.2235969999],[-107.6989539997,40.2235970004],[-107.6990880006,40.223597],[-107.6994160001,40.2235970002],[-107.7027960006,40.2235980004],[-107.7129380002,40.2236009999],[-107.7162609995,40.2236029997],[-107.7163189995,40.2236030004],[-107.716932,40.2236030003],[-107.7187720001,40.2236040002],[-107.7193860005,40.2236050004],[-107.7197889995,40.2236020001],[-107.724539,40.2235700001],[-107.7262089998,40.2235599997],[-107.7384069999,40.22348],[-107.7399989998,40.2234690004],[-107.7451530004,40.2234350003],[-107.7454049995,40.2234330003],[-107.7468100002,40.2235230001],[-107.7506240006,40.22377],[-107.7517839999,40.2238050004],[-107.7534450003,40.2238570003],[-107.7536089999,40.223862],[-107.7553610001,40.2238359996],[-107.7611090002,40.2237509999],[-107.7630260001,40.2237240004],[-107.7645450003,40.223701],[-107.7645440001,40.2226150003],[-107.7659110001,40.2226060003],[-107.7665100001,40.2226030002],[-107.7668309999,40.2226],[-107.7677970006,40.222593],[-107.7679100002,40.2225929998],[-107.7681189998,40.2225910002],[-107.7705199995,40.2225740001],[-107.7777229999,40.2225250001],[-107.7801249996,40.2225089996],[-107.7802069998,40.2225080004],[-107.780453,40.2225070004],[-107.780536,40.2225070002],[-107.7821379996,40.2225459997],[-107.786944,40.2226660004],[-107.7885459997,40.2227059999],[-107.7903140001,40.2227099997],[-107.7956200002,40.222722],[-107.7973889999,40.2227270004],[-107.7994680002,40.2227310002],[-107.7996829998,40.2227309996],[-107.806567,40.2227469997],[-107.8081759995,40.2227510001],[-107.8088590003,40.2226690001],[-107.8089839995,40.2226519997],[-107.8090749995,40.2226409998],[-107.8093650005,40.2226069995],[-107.8094930001,40.222593],[-107.8096190004,40.2225769997],[-107.8116720002,40.222567],[-107.8151060004,40.2225520002],[-107.8182140003,40.2225369996],[-107.820395,40.2225279998],[-107.8220310003,40.2225199999],[-107.8269409997,40.2224980001],[-107.8285780002,40.2224919997],[-107.8294230005,40.2224879998],[-107.8301559998,40.2224839997],[-107.8348929996,40.222463],[-107.8364719999,40.2224569996],[-107.8371320004,40.2224539998],[-107.8391150003,40.2224439996],[-107.8397759998,40.2224419996],[-107.8401319994,40.2224620002],[-107.8412019996,40.222522],[-107.841559,40.2225420004],[-107.843177,40.2225240004],[-107.8448519997,40.2225069997],[-107.8480339996,40.2224730001],[-107.8496529998,40.2224569997],[-107.8510640003,40.2224419997],[-107.8552990004,40.2223989996],[-107.8567110006,40.2223850003],[-107.8573789999,40.2223769996],[-107.8593850003,40.2223579996],[-107.859844,40.2223550004],[-107.8599200005,40.2223530003],[-107.8599959997,40.2223510003],[-107.860054,40.2223500001],[-107.8602539998,40.2223509999],[-107.8643939995,40.2223610003],[-107.8753539998,40.2223919998],[-107.8756289994,40.2223929998],[-107.877414,40.2223829996],[-107.8786959996,40.2223760002],[-107.8817530005,40.2223609996],[-107.8817540005,40.2223609999],[-107.8829279999,40.222354],[-107.8864530005,40.2223350001],[-107.8876279996,40.2223290002],[-107.8893119998,40.2223190004],[-107.8903989996,40.2223139998],[-107.8943639995,40.2222919999],[-107.8960490003,40.2222839998],[-107.8966529998,40.2222790003],[-107.8984659999,40.2222680003],[-107.8990710003,40.2222639999],[-107.8991710005,40.222263],[-107.8994710001,40.2222609998],[-107.8995720006,40.2222610004],[-107.9036560004,40.2222349996],[-107.9052729996,40.2222249999],[-107.9159100006,40.2221570004],[-107.9199950003,40.2221309998],[-107.9232639996,40.2221240002],[-107.9330740005,40.2221059998],[-107.9363439998,40.2221010003],[-107.9375540003,40.222098],[-107.9399410006,40.222094],[-107.9411869997,40.2220910003],[-107.9423989998,40.2220899998],[-107.9456759996,40.2221150003],[-107.9501289995,40.222149],[-107.9553349995,40.222189],[-107.9555080002,40.2221900004],[-107.9586439996,40.2222139997],[-107.9587859997,40.2222150002],[-107.9601119999,40.2222249998],[-107.9640920002,40.222255],[-107.9654189999,40.2222660001],[-107.9679270002,40.2222779996],[-107.9689299995,40.2222820003],[-107.9759680005,40.2223150003],[-107.9794629998,40.2223309997],[-107.9829750002,40.2223480004],[-107.9836689996,40.2223510004],[-107.9857510003,40.2223610004],[-107.9864450001,40.2223649997],[-107.9866440004,40.2223659999],[-107.9872430003,40.2223689999],[-107.9874429995,40.2223699999],[-107.9875680005,40.2223599998],[-107.9879429997,40.2223320002],[-107.9880690004,40.2223240003],[-107.9887130005,40.222337],[-107.9894900003,40.2223539999],[-107.990646,40.222377],[-107.9912910002,40.2223909998],[-107.9920509996,40.2223540003],[-107.9943339996,40.2222440004],[-107.9950950006,40.2222079999],[-107.9955510006,40.2222070004],[-107.9969199996,40.2222050001],[-107.997377,40.2222049997],[-108.0006339999,40.2223039998],[-108.0046390005,40.2222220003],[-108.0070609995,40.2221740001],[-108.0119200001,40.222076],[-108.0180489995,40.2220520001],[-108.0264310006,40.222018],[-108.0277849997,40.2220129997],[-108.0336959997,40.2219900004],[-108.0338310001,40.2219889997],[-108.0344640004,40.2219860003],[-108.0367680005,40.2219769996],[-108.0375369995,40.2219740005],[-108.0376,40.2219730004],[-108.0377899996,40.2219730004],[-108.0378539999,40.2219729999],[-108.0420139998,40.2219549998],[-108.0544939999,40.2219049996],[-108.058655,40.2218889997]]]]}}
]
}
