{
"type": "FeatureCollection",
"name": "county_coarse",
"crs": { "type": "name", "properties": { "name": "urn:ogc:def:crs:OGC:1.3:CRS84" } },
"xy_coordinate_resolution": 0.001,
"features": [
{ "type": "Feature", "properties": { "id": "Larimer" }, "geometry": { "type": "Polygon", "coordinates": [ [ [ -105.057, 40.349 ], [ -105.055, 40.262 ], [ -105.289, 40.263 ], [ -105.404, 40.258 ], [ -105.653, 40.26 ], [ -105.678, 40.268 ], [ -105.682, 40.273 ], [ -105.681, 40.284 ], [ -105.686, 40.288 ], [ -105.681, 40.292 ], [ -105.687, 40.294 ], [ -105.69, 40.309 ], [ -105.702, 40.312 ], [ -105.698, 40.318 ], [ -105.702, 40.324 ], [ -105.713, 40.326 ], [ -105.729, 40.335 ], [ -105.736, 40.347 ], [ -105.752, 40.349 ], [ -105.774, 40.365 ], [ -105.791, 40.386 ], [ -105.792, 40.4 ], [ -105.817, 40.424 ], [ -105.816, 40.437 ], [ -105.806, 40.447 ], [ -105.804, 40.464 ], [ -105.811, 40.471 ], [ -105.807, 40.475 ], [ -105.855, 40.486 ], [ -105.852, 40.507 ], [ -105.869, 40.521 ], [ -105.88, 40.523 ], [ -105.905, 40.514 ], [ -105.908, 40.516 ], [ -105.911, 40.522 ], [ -105.905, 40.535 ], [ -105.911, 40.566 ], [ -105.922, 40.574 ], [ -105.93, 40.606 ], [ -105.942, 40.609 ], [ -105.947, 40.617 ], [ -105.948, 40.642 ], [ -105.971, 40.681 ], [ -105.973, 40.696 ], [ -105.989, 40.71 ], [ -105.991, 40.727 ], [ -106.011, 40.741 ], [ -106.015, 40.753 ], [ -106.022, 40.755 ], [ -106.03, 40.782 ], [ -106.045, 40.792 ], [ -106.047, 40.803 ], [ -106.058, 40.817 ], [ -106.1, 40.842 ], [ -106.099, 40.85 ], [ -106.108, 40.852 ], [ -106.105, 40.86 ], [ -106.131, 40.874 ], [ -106.131, 40.897 ], [ -106.159, 40.911 ], [ -106.185, 40.934 ], [ -106.189, 40.946 ], [ -106.185, 40.964 ], [ -106.195, 40.988 ], [ -106.191, 40.998 ], [ -104.943, 40.998 ], [ -104.946, 40.349 ], [ -105.057, 40.349 ] ] ] } },
{ "type": "Feature", "properties": { "id": "Las Animas" }, "geometry": { "type": "Polygon", "coordinates": [ [ [ -104.143, 37.758 ], [ -104.059, 37.734 ], [ -104.058, 37.644 ], [ -103.076, 37.643 ], [ -103.075, 37.382 ], [ -103.083, 37.382 ], [ -103.086, 37.0 ], [ -104.339, 36.994 ], [ -105.155, 36.995 ], [ -105.154, 37.293 ], [ -105.132, 37.301 ], [ -105.128, 37.297 ], [ -105.115, 37.296 ], [ -105.099, 37.304 ], [ -105.094, 37.315 ], [ -105.075, 37.317 ], [ -105.068, 37.326 ], [ -105.051, 37.331 ], [ -105.037, 37.342 ], [ -105.025, 37.34 ], [ -105.024, 37.357 ], [ -105.005, 37.363 ], [ -104.996, 37.376 ], [ -104.971, 37.376 ], [ -104.947, 37.391 ], [ -104.938, 37.389 ], [ -104.926, 37.397 ], [ -104.884, 37.386 ], [ -104.838, 37.399 ], [ -104.827, 37.396 ], [ -104.804, 37.403 ], [ -104.787, 37.4 ], [ -104.773, 37.406 ], [ -104.749, 37.407 ], [ -104.749, 37.414 ], [ -104.737, 37.425 ], [ -104.726, 37.427 ], [ -104.711, 37.437 ], [ -104.695, 37.44 ], [ -104.701, 37.45 ], [ -104.7, 37.47 ], [ -104.692, 37.479 ], [ -104.696, 37.485 ], [ -104.691, 37.494 ], [ -104.649, 37.495 ], [ -104.628, 37.511 ], [ -104.62, 37.53 ], [ -104.549, 37.575 ], [ -104.548, 37.609 ], [ -104.455, 37.741 ], [ -104.457, 37.748 ], [ -104.351, 37.817 ], [ -104.143, 37.758 ] ] ] } },
{ "type": "Feature", "properties": { "id": "Fremont" }, "geometry": { "type": "Polygon", "coordinates": [ [ [ -105.369, 38.259 ], [ -105.797, 38.265 ], [ -105.8, 38.27 ], [ -105.819, 38.274 ], [ -105.841, 38.292 ], [ -105.847, 38.29 ], [ -105.858, 38.298 ], [ -105.876, 38.316 ], [ -105.894, 38.347 ], [ -105.92, 38.367 ], [ -105.945, 38.379 ], [ -105.948, 38.391 ], [ -105.959, 38.397 ], [ -105.961, 38.403 ], [ -105.984, 38.42 ], [ -105.997, 38.42 ], [ -106.013, 38.44 ], [ -106.012, 38.446 ], [ -105.938, 38.503 ], [ -105.907, 38.506 ], [ -105.904, 38.548 ], [ -105.894, 38.551 ], [ -105.893, 38.559 ], [ -105.885, 38.562 ], [ -105.886, 38.57 ], [ -105.892, 38.573 ], [ -105.891, 38.584 ], [ -105.878, 38.601 ], [ -105.886, 38.621 ], [ -105.9, 38.622 ], [ -105.918, 38.633 ], [ -105.908, 38.652 ], [ -105.925, 38.666 ], [ -105.923, 38.677 ], [ -105.944, 38.685 ], [ -105.945, 38.69 ], [ -105.97, 38.694 ], [ -105.238, 38.697 ], [ -105.24, 38.648 ], [ -105.093, 38.648 ], [ -105.054, 38.653 ], [ -104.942, 38.65 ], [ -104.94, 38.258 ], [ -105.369, 38.259 ] ] ] } },
{ "type": "Feature", "properties": { "id": "Gunnison" }, "geometry": { "type": "Polygon", "coordinates": [ [ [ -106.8, 38.98 ], [ -106.784, 38.987 ], [ -106.783, 38.999 ], [ -106.769, 39.008 ], [ -106.762, 39.019 ], [ -106.745, 39.027 ], [ -106.749, 39.043 ], [ -106.71, 39.048 ], [ -106.706, 39.055 ], [ -106.695, 39.056 ], [ -106.684, 39.045 ], [ -106.664, 39.042 ], [ -106.655, 39.044 ], [ -106.647, 39.033 ], [ -106.648, 39.022 ], [ -106.638, 39.019 ], [ -106.613, 38.996 ], [ -106.599, 38.998 ], [ -106.595, 38.991 ], [ -106.577, 38.99 ], [ -106.554, 38.999 ], [ -106.551, 38.992 ], [ -106.528, 38.981 ], [ -106.522, 38.969 ], [ -106.527, 38.955 ], [ -106.507, 38.946 ], [ -106.504, 38.937 ], [ -106.465, 38.91 ], [ -106.437, 38.915 ], [ -106.43, 38.925 ], [ -106.421, 38.928 ], [ -106.413, 38.916 ], [ -106.402, 38.911 ], [ -106.394, 38.912 ], [ -106.392, 38.919 ], [ -106.381, 38.926 ], [ -106.373, 38.907 ], [ -106.357, 38.913 ], [ -106.345, 38.907 ], [ -106.326, 38.911 ], [ -106.321, 38.893 ], [ -106.328, 38.882 ], [ -106.334, 38.881 ], [ -106.336, 38.872 ], [ -106.349, 38.865 ], [ -106.349, 38.855 ], [ -106.365, 38.853 ], [ -106.364, 38.846 ], [ -106.382, 38.833 ], [ -106.384, 38.825 ], [ -106.396, 38.823 ], [ -106.407, 38.829 ], [ -106.416, 38.824 ], [ -106.415, 38.815 ], [ -106.423, 38.808 ], [ -106.413, 38.791 ], [ -106.419, 38.766 ], [ -106.415, 38.757 ], [ -106.42, 38.751 ], [ -106.417, 38.728 ], [ -106.425, 38.71 ], [ -106.443, 38.709 ], [ -106.452, 38.699 ], [ -106.438, 38.682 ], [ -106.43, 38.651 ], [ -106.418, 38.644 ], [ -106.402, 38.646 ], [ -106.401, 38.64 ], [ -106.38, 38.638 ], [ -106.385, 38.625 ], [ -106.364, 38.615 ], [ -106.361, 38.594 ], [ -106.345, 38.569 ], [ -106.355, 38.543 ], [ -106.354, 38.533 ], [ -106.343, 38.522 ], [ -106.348, 38.512 ], [ -106.344, 38.505 ], [ -106.33, 38.494 ], [ -106.327, 38.498 ], [ -106.311, 38.495 ], [ -106.304, 38.478 ], [ -106.29, 38.473 ], [ -106.289, 38.461 ], [ -106.281, 38.454 ], [ -106.273, 38.455 ], [ -106.274, 38.447 ], [ -106.266, 38.442 ], [ -106.245, 38.439 ], [ -106.249, 38.433 ], [ -106.247, 38.423 ], [ -107.001, 38.426 ], [ -107.001, 38.147 ], [ -107.569, 38.147 ], [ -107.562, 38.159 ], [ -107.576, 38.21 ], [ -107.581, 38.213 ], [ -107.58, 38.231 ], [ -107.591, 38.252 ], [ -107.613, 38.262 ], [ -107.635, 38.302 ], [ -107.5, 38.302 ], [ -107.501, 39.218 ], [ -107.495, 39.218 ], [ -107.484, 39.236 ], [ -107.475, 39.229 ], [ -107.464, 39.228 ], [ -107.43, 39.241 ], [ -107.43, 39.257 ], [ -107.4, 39.253 ], [ -107.394, 39.256 ], [ -107.371, 39.239 ], [ -107.379, 39.231 ], [ -107.377, 39.199 ], [ -107.36, 39.185 ], [ -107.353, 39.173 ], [ -107.319, 39.165 ], [ -107.296, 39.154 ], [ -107.282, 39.119 ], [ -107.066, 39.119 ], [ -107.036, 39.095 ], [ -107.012, 39.084 ], [ -106.997, 39.069 ], [ -106.989, 39.071 ], [ -106.99, 39.052 ], [ -107.002, 39.042 ], [ -106.988, 39.031 ], [ -106.964, 39.03 ], [ -106.965, 39.018 ], [ -106.945, 39.014 ], [ -106.935, 39.006 ], [ -106.918, 38.999 ], [ -106.91, 39.0 ], [ -106.908, 38.993 ], [ -106.893, 38.99 ], [ -106.878, 38.994 ], [ -106.877, 39.006 ], [ -106.861, 39.009 ], [ -106.846, 38.986 ], [ -106.827, 38.978 ], [ -106.817, 38.981 ], [ -106.8, 38.98 ] ] ] } },
{ "type": "Feature", "properties": { "id": "Conejos" }, "geometry": { "type": "Polygon", "coordinates": [ [ [ -106.149, 37.401 ], [ -106.039, 37.401 ], [ -106.039, 37.357 ], [ -105.743, 37.357 ], [ -105.753, 37.345 ], [ -105.751, 37.334 ], [ -105.738, 37.32 ], [ -105.743, 37.316 ], [ -105.737, 37.314 ], [ -105.738, 37.306 ], [ -105.735, 37.303 ], [ -105.729, 37.305 ], [ -105.72, 37.29 ], [ -105.72, 37.286 ], [ -105.728, 37.284 ], [ -105.724, 37.275 ], [ -105.738, 37.266 ], [ -105.738, 37.258 ], [ -105.746, 37.249 ], [ -105.741, 37.24 ], [ -105.747, 37.23 ], [ -105.746, 37.218 ], [ -105.736, 37.2 ], [ -105.739, 37.191 ], [ -105.73, 37.18 ], [ -105.738, 37.166 ], [ -105.731, 37.156 ], [ -105.749, 37.135 ], [ -105.75, 37.114 ], [ -105.741, 37.102 ], [ -105.77, 37.065 ], [ -105.764, 37.056 ], [ -105.771, 37.046 ], [ -105.761, 37.026 ], [ -105.75, 37.027 ], [ -105.746, 37.014 ], [ -105.725, 37.013 ], [ -105.727, 37.007 ], [ -105.718, 36.996 ], [ -106.476, 36.994 ], [ -106.589, 37.14 ], [ -106.597, 37.195 ], [ -106.678, 37.229 ], [ -106.678, 37.404 ], [ -106.488, 37.399 ], [ -106.149, 37.401 ] ] ] } },
{ "type": "Feature", "properties": { "id": "Eagle" }, "geometry": { "type": "Polygon", "coordinates": [ [ [ -107.114, 39.49 ], [ -107.114, 39.919 ], [ -106.627, 39.919 ], [ -106.627, 39.925 ], [ -106.619, 39.925 ], [ -106.435, 39.925 ], [ -106.44, 39.918 ], [ -106.43, 39.907 ], [ -106.428, 39.882 ], [ -106.434, 39.877 ], [ -106.433, 39.865 ], [ -106.397, 39.79 ], [ -106.389, 39.788 ], [ -106.391, 39.777 ], [ -106.385, 39.767 ], [ -106.364, 39.752 ], [ -106.343, 39.759 ], [ -106.325, 39.733 ], [ -106.298, 39.721 ], [ -106.291, 39.704 ], [ -106.277, 39.7 ], [ -106.272, 39.704 ], [ -106.264, 39.701 ], [ -106.266, 39.69 ], [ -106.26, 39.681 ], [ -106.239, 39.68 ], [ -106.24, 39.668 ], [ -106.235, 39.662 ], [ -106.22, 39.663 ], [ -106.217, 39.655 ], [ -106.184, 39.652 ], [ -106.176, 39.636 ], [ -106.178, 39.609 ], [ -106.185, 39.602 ], [ -106.202, 39.606 ], [ -106.211, 39.593 ], [ -106.215, 39.575 ], [ -106.206, 39.558 ], [ -106.196, 39.557 ], [ -106.198, 39.55 ], [ -106.21, 39.547 ], [ -106.211, 39.53 ], [ -106.225, 39.531 ], [ -106.237, 39.549 ], [ -106.248, 39.544 ], [ -106.256, 39.532 ], [ -106.256, 39.52 ], [ -106.246, 39.513 ], [ -106.26, 39.495 ], [ -106.246, 39.489 ], [ -106.252, 39.465 ], [ -106.223, 39.434 ], [ -106.233, 39.426 ], [ -106.23, 39.416 ], [ -106.219, 39.412 ], [ -106.201, 39.396 ], [ -106.21, 39.384 ], [ -106.207, 39.38 ], [ -106.226, 39.38 ], [ -106.227, 39.374 ], [ -106.251, 39.358 ], [ -106.259, 39.362 ], [ -106.284, 39.349 ], [ -106.312, 39.362 ], [ -106.358, 39.355 ], [ -106.371, 39.361 ], [ -106.381, 39.376 ], [ -106.4, 39.381 ], [ -106.426, 39.362 ], [ -107.113, 39.366 ], [ -107.114, 39.49 ] ] ] } },
{ "type": "Feature", "properties": { "id": "Otero" }, "geometry": { "type": "Polygon", "coordinates": [ [ [ -103.803, 38.113 ], [ -103.619, 38.113 ], [ -103.619, 38.171 ], [ -103.509, 38.173 ], [ -103.51, 38.265 ], [ -103.4, 38.265 ], [ -103.398, 37.961 ], [ -103.404, 37.644 ], [ -104.058, 37.644 ], [ -104.062, 37.792 ], [ -104.058, 38.146 ], [ -104.049, 38.146 ], [ -104.047, 38.141 ], [ -104.027, 38.14 ], [ -103.995, 38.147 ], [ -103.975, 38.14 ], [ -103.974, 38.132 ], [ -103.934, 38.124 ], [ -103.923, 38.13 ], [ -103.913, 38.125 ], [ -103.913, 38.134 ], [ -103.906, 38.135 ], [ -103.899, 38.131 ], [ -103.901, 38.125 ], [ -103.878, 38.125 ], [ -103.866, 38.129 ], [ -103.846, 38.123 ], [ -103.836, 38.113 ], [ -103.812, 38.118 ], [ -103.803, 38.113 ] ] ] } },
{ "type": "Feature", "properties": { "id": "La Plata" }, "geometry": { "type": "Polygon", "coordinates": [ [ [ -107.482, 37.215 ], [ -107.482, 37.0 ], [ -108.381, 37.001 ], [ -108.372, 37.029 ], [ -108.355, 37.026 ], [ -108.354, 37.039 ], [ -108.334, 37.055 ], [ -108.321, 37.097 ], [ -108.31, 37.105 ], [ -108.31, 37.129 ], [ -108.29, 37.146 ], [ -108.297, 37.171 ], [ -108.293, 37.198 ], [ -108.297, 37.213 ], [ -108.29, 37.224 ], [ -108.261, 37.235 ], [ -108.239, 37.263 ], [ -108.235, 37.275 ], [ -108.22, 37.287 ], [ -108.218, 37.297 ], [ -108.213, 37.3 ], [ -108.216, 37.312 ], [ -108.203, 37.326 ], [ -108.208, 37.335 ], [ -108.198, 37.355 ], [ -108.173, 37.366 ], [ -108.152, 37.363 ], [ -108.14, 37.373 ], [ -108.12, 37.375 ], [ -108.106, 37.382 ], [ -108.105, 37.406 ], [ -108.087, 37.428 ], [ -108.08, 37.429 ], [ -108.078, 37.439 ], [ -108.053, 37.438 ], [ -108.044, 37.443 ], [ -108.033, 37.465 ], [ -108.038, 37.503 ], [ -108.031, 37.509 ], [ -108.035, 37.532 ], [ -108.025, 37.54 ], [ -108.018, 37.567 ], [ -108.023, 37.591 ], [ -108.017, 37.592 ], [ -108.014, 37.604 ], [ -108.005, 37.606 ], [ -107.987, 37.625 ], [ -107.972, 37.63 ], [ -107.97, 37.64 ], [ -107.482, 37.64 ], [ -107.482, 37.215 ] ] ] } },
{ "type": "Feature", "properties": { "id": "Summit" }, "geometry": { "type": "Polygon", "coordinates": [ [ [ -106.178, 39.609 ], [ -106.176, 39.634 ], [ -106.184, 39.652 ], [ -106.217, 39.655 ], [ -106.22, 39.663 ], [ -106.235, 39.662 ], [ -106.24, 39.668 ], [ -106.239, 39.68 ], [ -106.26, 39.681 ], [ -106.266, 39.69 ], [ -106.264, 39.701 ], [ -106.272, 39.704 ], [ -106.277, 39.7 ], [ -106.291, 39.704 ], [ -106.298, 39.721 ], [ -106.325, 39.733 ], [ -106.343, 39.759 ], [ -106.364, 39.752 ], [ -106.385, 39.767 ], [ -106.391, 39.777 ], [ -106.389, 39.788 ], [ -106.397, 39.79 ], [ -106.433, 39.865 ], [ -106.434, 39.877 ], [ -106.428, 39.882 ], [ -106.43, 39.907 ], [ -106.44, 39.918 ], [ -106.435, 39.925 ], [ -106.395, 39.925 ], [ -106.395, 39.914 ], [ -106.295, 39.914 ], [ -106.295, 39.919 ], [ -106.247, 39.913 ], [ -106.217, 39.881 ], [ -106.206, 39.878 ], [ -106.193, 39.859 ], [ -106.171, 39.845 ], [ -106.15, 39.84 ], [ -106.138, 39.844 ], [ -106.125, 39.842 ], [ -106.084, 39.807 ], [ -106.078, 39.793 ], [ -106.081, 39.787 ], [ -106.062, 39.751 ], [ -106.059, 39.725 ], [ -106.042, 39.716 ], [ -106.027, 39.69 ], [ -105.996, 39.684 ], [ -105.951, 39.695 ], [ -105.946, 39.689 ], [ -105.925, 39.699 ], [ -105.92, 39.69 ], [ -105.927, 39.674 ], [ -105.911, 39.662 ], [ -105.897, 39.665 ], [ -105.885, 39.657 ], [ -105.88, 39.664 ], [ -105.865, 39.667 ], [ -105.849, 39.644 ], [ -105.821, 39.643 ], [ -105.817, 39.634 ], [ -105.793, 39.636 ], [ -105.785, 39.631 ], [ -105.776, 39.607 ], [ -105.8, 39.593 ], [ -105.808, 39.583 ], [ -105.827, 39.58 ], [ -105.838, 39.573 ], [ -105.826, 39.556 ], [ -105.816, 39.552 ], [ -105.823, 39.53 ], [ -105.83, 39.532 ], [ -105.845, 39.524 ], [ -105.86, 39.532 ], [ -105.868, 39.519 ], [ -105.854, 39.505 ], [ -105.86, 39.505 ], [ -105.867, 39.494 ], [ -105.875, 39.494 ], [ -105.879, 39.484 ], [ -105.892, 39.484 ], [ -105.906, 39.46 ], [ -105.912, 39.457 ], [ -105.939, 39.458 ], [ -105.944, 39.441 ], [ -105.966, 39.439 ], [ -105.955, 39.426 ], [ -105.952, 39.414 ], [ -105.993, 39.402 ], [ -105.997, 39.394 ], [ -106.016, 39.384 ], [ -106.02, 39.363 ], [ -106.044, 39.357 ], [ -106.086, 39.37 ], [ -106.097, 39.378 ], [ -106.207, 39.38 ], [ -106.21, 39.384 ], [ -106.201, 39.396 ], [ -106.23, 39.417 ], [ -106.233, 39.426 ], [ -106.223, 39.434 ], [ -106.252, 39.465 ], [ -106.246, 39.49 ], [ -106.26, 39.495 ], [ -106.246, 39.513 ], [ -106.256, 39.52 ], [ -106.256, 39.532 ], [ -106.248, 39.544 ], [ -106.237, 39.549 ], [ -106.225, 39.531 ], [ -106.211, 39.53 ], [ -106.21, 39.547 ], [ -106.198, 39.55 ], [ -106.196, 39.557 ], [ -106.206, 39.558 ], [ -106.215, 39.575 ], [ -106.209, 39.599 ], [ -106.2, 39.606 ], [ -106.185, 39.602 ], [ -106.178, 39.609 ] ] ] } },
{ "type": "Feature", "properties": { "id": "Custer" }, "geometry": { "type": "Polygon", "coordinates": [ [ [ -105.56, 37.952 ], [ -105.584, 37.968 ], [ -105.582, 37.978 ], [ -105.605, 38.005 ], [ -105.597, 38.013 ], [ -105.603, 38.031 ], [ -105.613, 38.038 ], [ -105.618, 38.053 ], [ -105.628, 38.057 ], [ -105.627, 38.067 ], [ -105.636, 38.071 ], [ -105.661, 38.101 ], [ -105.658, 38.117 ], [ -105.67, 38.129 ], [ -105.676, 38.146 ], [ -105.67, 38.153 ], [ -105.673, 38.159 ], [ -105.687, 38.167 ], [ -105.699, 38.168 ], [ -105.736, 38.209 ], [ -105.756, 38.218 ], [ -105.759, 38.229 ], [ -105.788, 38.242 ], [ -105.797, 38.265 ], [ -105.049, 38.258 ], [ -105.05, 37.915 ], [ -105.064, 37.918 ], [ -105.066, 37.944 ], [ -105.078, 37.953 ], [ -105.084, 37.956 ], [ -105.088, 37.949 ], [ -105.109, 37.943 ], [ -105.126, 37.951 ], [ -105.126, 37.961 ], [ -105.136, 37.966 ], [ -105.131, 37.973 ], [ -105.142, 37.98 ], [ -105.141, 37.987 ], [ -105.148, 37.987 ], [ -105.152, 37.992 ], [ -105.148, 38.006 ], [ -105.169, 38.019 ], [ -105.195, 38.008 ], [ -105.2, 38.001 ], [ -105.197, 37.992 ], [ -105.214, 37.981 ], [ -105.215, 37.971 ], [ -105.226, 37.964 ], [ -105.239, 37.963 ], [ -105.238, 37.957 ], [ -105.25, 37.952 ], [ -105.262, 37.937 ], [ -105.262, 37.926 ], [ -105.274, 37.908 ], [ -105.284, 37.9 ], [ -105.3, 37.912 ], [ -105.301, 37.923 ], [ -105.317, 37.939 ], [ -105.377, 37.916 ], [ -105.414, 37.891 ], [ -105.424, 37.89 ], [ -105.44, 37.897 ], [ -105.471, 37.895 ], [ -105.503, 37.924 ], [ -105.511, 37.939 ], [ -105.53, 37.953 ], [ -105.543, 37.957 ], [ -105.552, 37.951 ], [ -105.56, 37.952 ] ] ] } },
{ "type": "Feature", "properties": { "id": "Pitkin" }, "geometry": { "type": "Polygon", "coordinates": [ [ [ -106.915, 39.0 ], [ -106.935, 39.006 ], [ -106.945, 39.014 ], [ -106.965, 39.018 ], [ -106.967, 39.031 ], [ -106.996, 39.034 ], [ -107.002, 39.042 ], [ -106.99, 39.052 ], [ -106.989, 39.071 ], [ -106.997, 39.069 ], [ -107.012, 39.084 ], [ -107.036, 39.095 ], [ -107.066, 39.119 ], [ -107.282, 39.119 ], [ -107.296, 39.154 ], [ -107.319, 39.165 ], [ -107.353, 39.173 ], [ -107.36, 39.185 ], [ -107.377, 39.2 ], [ -107.379, 39.231 ], [ -107.371, 39.239 ], [ -107.395, 39.257 ], [ -107.391, 39.264 ], [ -107.379, 39.269 ], [ -107.378, 39.275 ], [ -107.394, 39.279 ], [ -107.398, 39.295 ], [ -107.413, 39.292 ], [ -107.437, 39.3 ], [ -107.439, 39.309 ], [ -107.452, 39.305 ], [ -107.465, 39.314 ], [ -107.463, 39.327 ], [ -107.451, 39.33 ], [ -107.431, 39.348 ], [ -107.431, 39.366 ], [ -106.426, 39.362 ], [ -106.435, 39.347 ], [ -106.427, 39.323 ], [ -106.432, 39.316 ], [ -106.451, 39.317 ], [ -106.468, 39.307 ], [ -106.476, 39.315 ], [ -106.484, 39.313 ], [ -106.503, 39.298 ], [ -106.504, 39.285 ], [ -106.483, 39.272 ], [ -106.481, 39.26 ], [ -106.498, 39.242 ], [ -106.499, 39.235 ], [ -106.49, 39.228 ], [ -106.494, 39.198 ], [ -106.5, 39.184 ], [ -106.51, 39.175 ], [ -106.511, 39.164 ], [ -106.521, 39.157 ], [ -106.535, 39.163 ], [ -106.538, 39.158 ], [ -106.552, 39.161 ], [ -106.561, 39.156 ], [ -106.559, 39.144 ], [ -106.565, 39.133 ], [ -106.558, 39.12 ], [ -106.565, 39.114 ], [ -106.564, 39.106 ], [ -106.58, 39.102 ], [ -106.586, 39.094 ], [ -106.585, 39.085 ], [ -106.577, 39.079 ], [ -106.578, 39.053 ], [ -106.584, 39.047 ], [ -106.597, 39.045 ], [ -106.6, 39.034 ], [ -106.592, 39.025 ], [ -106.599, 38.998 ], [ -106.613, 38.996 ], [ -106.638, 39.019 ], [ -106.648, 39.022 ], [ -106.647, 39.033 ], [ -106.655, 39.044 ], [ -106.664, 39.042 ], [ -106.684, 39.045 ], [ -106.693, 39.055 ], [ -106.703, 39.056 ], [ -106.71, 39.048 ], [ -106.749, 39.043 ], [ -106.745, 39.027 ], [ -106.762, 39.019 ], [ -106.769, 39.008 ], [ -106.783, 38.999 ], [ -106.784, 38.987 ], [ -106.797, 38.984 ], [ -106.802, 38.978 ], [ -106.817, 38.981 ], [ -106.827, 38.978 ], [ -106.846, 38.986 ], [ -106.861, 39.009 ], [ -106.878, 39.006 ], [ -106.878, 38.994 ], [ -106.884, 38.99 ], [ -106.908, 38.993 ], [ -106.91, 39.0 ], [ -106.915, 39.0 ] ] ] } },
{ "type": "Feature", "properties": { "id": "Crowley" }, "geometry": { "type": "Polygon", "coordinates": [ [ [ -103.705, 38.522 ], [ -103.613, 38.523 ], [ -103.613, 38.518 ], [ -103.505, 38.516 ], [ -103.507, 38.342 ], [ -103.502, 38.342 ], [ -103.502, 38.274 ], [ -103.502, 38.265 ], [ -103.51, 38.265 ], [ -103.509, 38.173 ], [ -103.619, 38.171 ], [ -103.619, 38.113 ], [ -103.803, 38.113 ], [ -103.812, 38.118 ], [ -103.836, 38.113 ], [ -103.846, 38.123 ], [ -103.866, 38.129 ], [ -103.878, 38.125 ], [ -103.901, 38.125 ], [ -103.899, 38.131 ], [ -103.906, 38.135 ], [ -103.913, 38.134 ], [ -103.913, 38.125 ], [ -103.923, 38.13 ], [ -103.934, 38.124 ], [ -103.974, 38.132 ], [ -103.975, 38.14 ], [ -103.995, 38.147 ], [ -104.027, 38.14 ], [ -104.047, 38.141 ], [ -104.049, 38.146 ], [ -104.058, 38.146 ], [ -104.054, 38.522 ], [ -103.705, 38.522 ] ] ] } },
{ "type": "Feature", "properties": { "id": "Cheyenne" }, "geometry": { "type": "Polygon", "coordinates": [ [ [ -102.577, 39.041 ], [ -102.047, 39.047 ], [ -102.045, 38.615 ], [ -103.173, 38.612 ], [ -103.172, 38.69 ], [ -103.164, 38.69 ], [ -103.163, 39.038 ], [ -102.577, 39.041 ] ] ] } },
{ "type": "Feature", "properties": { "id": "Bent" }, "geometry": { "type": "Polygon", "coordinates": [ [ [ -103.399, 38.041 ], [ -103.4, 38.265 ], [ -102.742, 38.267 ], [ -102.74, 37.824 ], [ -102.748, 37.823 ], [ -102.748, 37.644 ], [ -103.404, 37.644 ], [ -103.399, 38.041 ] ] ] } },
{ "type": "Feature", "properties": { "id": "Adams" }, "geometry": { "type": "Polygon", "coordinates": [ [ [ -104.885, 39.74 ], [ -104.88, 39.755 ], [ -104.847, 39.755 ], [ -104.856, 39.758 ], [ -104.856, 39.769 ], [ -104.833, 39.766 ], [ -104.828, 39.773 ], [ -104.772, 39.777 ], [ -104.772, 39.771 ], [ -104.763, 39.769 ], [ -104.735, 39.769 ], [ -104.734, 39.798 ], [ -104.763, 39.798 ], [ -104.762, 39.823 ], [ -104.666, 39.823 ], [ -104.666, 39.814 ], [ -104.655, 39.814 ], [ -104.656, 39.822 ], [ -104.62, 39.827 ], [ -104.62, 39.874 ], [ -104.606, 39.874 ], [ -104.606, 39.882 ], [ -104.6, 39.882 ], [ -104.6, 39.899 ], [ -104.634, 39.899 ], [ -104.634, 39.906 ], [ -104.68, 39.907 ], [ -104.68, 39.914 ], [ -104.693, 39.914 ], [ -104.693, 39.907 ], [ -104.705, 39.906 ], [ -104.706, 39.898 ], [ -104.732, 39.899 ], [ -104.732, 39.845 ], [ -104.791, 39.842 ], [ -104.791, 39.798 ], [ -104.866, 39.798 ], [ -104.866, 39.813 ], [ -104.885, 39.813 ], [ -104.885, 39.798 ], [ -104.897, 39.801 ], [ -104.904, 39.798 ], [ -104.903, 39.784 ], [ -104.927, 39.784 ], [ -104.927, 39.791 ], [ -104.941, 39.791 ], [ -104.941, 39.795 ], [ -104.969, 39.791 ], [ -104.969, 39.798 ], [ -104.976, 39.791 ], [ -105.021, 39.791 ], [ -105.025, 39.794 ], [ -105.025, 39.791 ], [ -105.053, 39.791 ], [ -105.053, 39.914 ], [ -105.034, 39.914 ], [ -105.034, 39.921 ], [ -105.015, 39.921 ], [ -105.016, 39.943 ], [ -104.997, 39.943 ], [ -105.017, 39.952 ], [ -105.016, 39.981 ], [ -104.997, 39.981 ], [ -104.997, 39.974 ], [ -104.988, 39.976 ], [ -104.981, 40.0 ], [ -103.706, 40.001 ], [ -103.707, 39.74 ], [ -104.582, 39.74 ], [ -104.885, 39.74 ] ], [ [ -104.997, 39.968 ], [ -104.988, 39.968 ], [ -104.988, 39.972 ], [ -104.997, 39.974 ], [ -104.997, 39.968 ] ] ] } },
{ "type": "Feature", "properties": { "id": "Elbert" }, "geometry": { "type": "Polygon", "coordinates": [ [ [ -104.194, 39.565 ], [ -103.714, 39.566 ], [ -103.715, 39.128 ], [ -103.721, 39.128 ], [ -103.722, 39.084 ], [ -103.72, 38.867 ], [ -104.056, 38.869 ], [ -104.052, 39.128 ], [ -104.663, 39.13 ], [ -104.661, 39.566 ], [ -104.194, 39.565 ] ] ] } },
{ "type": "Feature", "properties": { "id": "Yuma" }, "geometry": { "type": "Polygon", "coordinates": [ [ [ -102.802, 39.682 ], [ -102.804, 40.003 ], [ -102.793, 40.002 ], [ -102.794, 40.351 ], [ -102.78, 40.351 ], [ -102.78, 40.438 ], [ -102.051, 40.44 ], [ -102.05, 39.574 ], [ -102.803, 39.568 ], [ -102.802, 39.682 ] ] ] } },
{ "type": "Feature", "properties": { "id": "Lake" }, "geometry": { "type": "Polygon", "coordinates": [ [ [ -106.483, 39.255 ], [ -106.483, 39.272 ], [ -106.504, 39.285 ], [ -106.502, 39.3 ], [ -106.479, 39.314 ], [ -106.468, 39.307 ], [ -106.451, 39.317 ], [ -106.432, 39.316 ], [ -106.427, 39.323 ], [ -106.428, 39.335 ], [ -106.435, 39.341 ], [ -106.433, 39.354 ], [ -106.404, 39.38 ], [ -106.381, 39.376 ], [ -106.371, 39.361 ], [ -106.358, 39.355 ], [ -106.312, 39.362 ], [ -106.284, 39.349 ], [ -106.259, 39.362 ], [ -106.251, 39.358 ], [ -106.227, 39.374 ], [ -106.226, 39.38 ], [ -106.136, 39.38 ], [ -106.139, 39.372 ], [ -106.153, 39.363 ], [ -106.14, 39.34 ], [ -106.151, 39.321 ], [ -106.169, 39.322 ], [ -106.184, 39.309 ], [ -106.181, 39.299 ], [ -106.187, 39.279 ], [ -106.18, 39.26 ], [ -106.185, 39.243 ], [ -106.168, 39.231 ], [ -106.17, 39.223 ], [ -106.185, 39.209 ], [ -106.179, 39.193 ], [ -106.186, 39.187 ], [ -106.178, 39.175 ], [ -106.173, 39.139 ], [ -106.21, 39.104 ], [ -106.179, 39.103 ], [ -106.169, 39.088 ], [ -106.192, 39.068 ], [ -106.191, 39.056 ], [ -106.578, 39.058 ], [ -106.577, 39.079 ], [ -106.585, 39.085 ], [ -106.586, 39.094 ], [ -106.58, 39.102 ], [ -106.563, 39.107 ], [ -106.565, 39.114 ], [ -106.558, 39.12 ], [ -106.565, 39.133 ], [ -106.559, 39.144 ], [ -106.561, 39.156 ], [ -106.552, 39.161 ], [ -106.538, 39.158 ], [ -106.535, 39.163 ], [ -106.521, 39.157 ], [ -106.509, 39.166 ], [ -106.51, 39.175 ], [ -106.5, 39.184 ], [ -106.494, 39.198 ], [ -106.49, 39.228 ], [ -106.499, 39.235 ], [ -106.498, 39.242 ], [ -106.483, 39.255 ] ] ] } },
{ "type": "Feature", "properties": { "id": "Delta" }, "geometry": { "type": "Polygon", "coordinates": [ [ [ -107.849, 38.668 ], [ -108.379, 38.668 ], [ -108.379, 38.829 ], [ -108.177, 38.895 ], [ -108.166, 38.902 ], [ -108.152, 38.901 ], [ -108.147, 38.907 ], [ -108.141, 38.906 ], [ -108.145, 38.917 ], [ -108.14, 38.925 ], [ -108.131, 38.922 ], [ -108.122, 38.926 ], [ -108.087, 38.963 ], [ -108.095, 38.98 ], [ -108.07, 38.997 ], [ -108.054, 39.014 ], [ -108.048, 39.011 ], [ -108.038, 39.016 ], [ -108.031, 39.028 ], [ -107.987, 39.053 ], [ -107.982, 39.06 ], [ -107.917, 39.064 ], [ -107.907, 39.061 ], [ -107.859, 39.08 ], [ -107.794, 39.062 ], [ -107.765, 39.043 ], [ -107.738, 39.066 ], [ -107.733, 39.063 ], [ -107.722, 39.065 ], [ -107.709, 39.083 ], [ -107.688, 39.088 ], [ -107.681, 39.1 ], [ -107.66, 39.112 ], [ -107.663, 39.116 ], [ -107.651, 39.131 ], [ -107.638, 39.142 ], [ -107.632, 39.141 ], [ -107.619, 39.155 ], [ -107.593, 39.165 ], [ -107.568, 39.181 ], [ -107.558, 39.178 ], [ -107.543, 39.182 ], [ -107.542, 39.196 ], [ -107.523, 39.198 ], [ -107.529, 39.203 ], [ -107.512, 39.216 ], [ -107.501, 39.218 ], [ -107.501, 38.669 ], [ -107.849, 38.668 ] ] ] } },
{ "type": "Feature", "properties": { "id": "Costilla" }, "geometry": { "type": "Polygon", "coordinates": [ [ [ -105.738, 37.307 ], [ -105.737, 37.314 ], [ -105.743, 37.316 ], [ -105.738, 37.32 ], [ -105.751, 37.334 ], [ -105.75, 37.351 ], [ -105.501, 37.56 ], [ -105.491, 37.575 ], [ -105.454, 37.59 ], [ -105.442, 37.612 ], [ -105.408, 37.618 ], [ -105.4, 37.613 ], [ -105.37, 37.639 ], [ -105.355, 37.636 ], [ -105.345, 37.642 ], [ -105.315, 37.648 ], [ -105.297, 37.658 ], [ -105.285, 37.646 ], [ -105.279, 37.646 ], [ -105.267, 37.638 ], [ -105.255, 37.64 ], [ -105.253, 37.631 ], [ -105.243, 37.629 ], [ -105.236, 37.621 ], [ -105.221, 37.621 ], [ -105.215, 37.626 ], [ -105.202, 37.619 ], [ -105.188, 37.62 ], [ -105.184, 37.616 ], [ -105.196, 37.609 ], [ -105.193, 37.592 ], [ -105.204, 37.594 ], [ -105.218, 37.582 ], [ -105.196, 37.57 ], [ -105.178, 37.546 ], [ -105.183, 37.547 ], [ -105.184, 37.54 ], [ -105.171, 37.513 ], [ -105.178, 37.491 ], [ -105.175, 37.485 ], [ -105.182, 37.479 ], [ -105.177, 37.476 ], [ -105.176, 37.457 ], [ -105.156, 37.457 ], [ -105.139, 37.416 ], [ -105.13, 37.409 ], [ -105.139, 37.401 ], [ -105.157, 37.398 ], [ -105.167, 37.388 ], [ -105.169, 37.375 ], [ -105.164, 37.343 ], [ -105.168, 37.337 ], [ -105.163, 37.329 ], [ -105.167, 37.323 ], [ -105.165, 37.291 ], [ -105.154, 37.293 ], [ -105.155, 36.995 ], [ -105.719, 36.996 ], [ -105.727, 37.007 ], [ -105.725, 37.013 ], [ -105.746, 37.014 ], [ -105.75, 37.027 ], [ -105.761, 37.026 ], [ -105.771, 37.046 ], [ -105.764, 37.056 ], [ -105.77, 37.065 ], [ -105.741, 37.102 ], [ -105.75, 37.114 ], [ -105.749, 37.135 ], [ -105.731, 37.156 ], [ -105.738, 37.166 ], [ -105.73, 37.18 ], [ -105.739, 37.191 ], [ -105.736, 37.2 ], [ -105.746, 37.218 ], [ -105.747, 37.23 ], [ -105.741, 37.24 ], [ -105.746, 37.249 ], [ -105.738, 37.258 ], [ -105.738, 37.266 ], [ -105.724, 37.275 ], [ -105.728, 37.284 ], [ -105.72, 37.286 ], [ -105.72, 37.29 ], [ -105.729, 37.305 ], [ -105.735, 37.303 ], [ -105.738, 37.307 ] ] ] } },
{ "type": "Feature", "properties": { "id": "Garfield" }, "geometry": { "type": "Polygon", "coordinates": [ [ [ -107.884, 39.366 ], [ -109.051, 39.367 ], [ -109.051, 39.66 ], [ -108.896, 39.66 ], [ -108.896, 39.65 ], [ -108.555, 39.65 ], [ -108.555, 39.694 ], [ -107.939, 39.694 ], [ -107.939, 39.825 ], [ -107.787, 39.825 ], [ -107.694, 39.83 ], [ -107.432, 39.828 ], [ -107.432, 39.918 ], [ -107.319, 39.915 ], [ -107.317, 40.091 ], [ -107.037, 40.092 ], [ -107.037, 40.003 ], [ -107.032, 40.003 ], [ -107.034, 39.919 ], [ -107.114, 39.919 ], [ -107.113, 39.366 ], [ -107.884, 39.366 ] ] ] } },
{ "type": "Feature", "properties": { "id": "Morgan" }, "geometry": { "type": "Polygon", "coordinates": [ [ [ -103.986, 40.524 ], [ -103.467, 40.523 ], [ -103.465, 40.35 ], [ -103.471, 40.35 ], [ -103.472, 40.002 ], [ -104.15, 40.001 ], [ -104.148, 40.524 ], [ -103.986, 40.524 ] ] ] } },
{ "type": "Feature", "properties": { "id": "Prowers" }, "geometry": { "type": "Polygon", "coordinates": [ [ [ -102.741, 38.006 ], [ -102.742, 38.267 ], [ -102.044, 38.269 ], [ -102.042, 37.644 ], [ -102.748, 37.644 ], [ -102.748, 37.823 ], [ -102.74, 37.824 ], [ -102.741, 38.006 ] ] ] } },
{ "type": "Feature", "properties": { "id": "Montezuma" }, "geometry": { "type": "Polygon", "coordinates": [ [ [ -109.046, 37.327 ], [ -109.043, 37.485 ], [ -108.917, 37.632 ], [ -108.309, 37.632 ], [ -107.97, 37.64 ], [ -107.972, 37.63 ], [ -107.987, 37.625 ], [ -108.005, 37.606 ], [ -108.014, 37.604 ], [ -108.017, 37.592 ], [ -108.023, 37.591 ], [ -108.018, 37.567 ], [ -108.025, 37.54 ], [ -108.035, 37.532 ], [ -108.031, 37.509 ], [ -108.038, 37.503 ], [ -108.033, 37.465 ], [ -108.044, 37.443 ], [ -108.053, 37.438 ], [ -108.078, 37.439 ], [ -108.08, 37.429 ], [ -108.087, 37.428 ], [ -108.105, 37.406 ], [ -108.106, 37.382 ], [ -108.12, 37.375 ], [ -108.14, 37.373 ], [ -108.152, 37.363 ], [ -108.173, 37.366 ], [ -108.198, 37.355 ], [ -108.208, 37.335 ], [ -108.203, 37.326 ], [ -108.216, 37.312 ], [ -108.213, 37.3 ], [ -108.218, 37.297 ], [ -108.22, 37.287 ], [ -108.235, 37.275 ], [ -108.239, 37.263 ], [ -108.261, 37.235 ], [ -108.291, 37.223 ], [ -108.297, 37.213 ], [ -108.293, 37.198 ], [ -108.297, 37.171 ], [ -108.29, 37.146 ], [ -108.31, 37.129 ], [ -108.31, 37.105 ], [ -108.321, 37.097 ], [ -108.334, 37.055 ], [ -108.354, 37.039 ], [ -108.355, 37.026 ], [ -108.372, 37.029 ], [ -108.379, 37.0 ], [ -109.045, 36.999 ], [ -109.046, 37.327 ] ] ] } },
{ "type": "Feature", "properties": { "id": "Mineral" }, "geometry": { "type": "Polygon", "coordinates": [ [ [ -106.859, 37.929 ], [ -106.847, 37.919 ], [ -106.801, 37.914 ], [ -106.773, 37.886 ], [ -106.756, 37.881 ], [ -106.737, 37.888 ], [ -106.719, 37.873 ], [ -106.699, 37.876 ], [ -106.694, 37.874 ], [ -106.696, 37.664 ], [ -106.712, 37.664 ], [ -106.711, 37.396 ], [ -107.129, 37.392 ], [ -107.124, 37.675 ], [ -107.145, 37.675 ], [ -107.137, 37.829 ], [ -107.138, 37.939 ], [ -107.111, 37.943 ], [ -107.103, 37.955 ], [ -107.092, 37.949 ], [ -107.074, 37.955 ], [ -107.068, 37.961 ], [ -107.044, 37.949 ], [ -107.026, 37.955 ], [ -107.009, 37.947 ], [ -107.006, 37.957 ], [ -106.99, 37.961 ], [ -106.987, 37.969 ], [ -106.978, 37.969 ], [ -106.968, 37.975 ], [ -106.944, 37.954 ], [ -106.92, 37.967 ], [ -106.905, 37.964 ], [ -106.898, 37.968 ], [ -106.89, 37.962 ], [ -106.881, 37.962 ], [ -106.88, 37.95 ], [ -106.859, 37.929 ] ] ] } },
{ "type": "Feature", "properties": { "id": "Lincoln" }, "geometry": { "type": "Polygon", "coordinates": [ [ [ -103.155, 39.287 ], [ -103.155, 39.128 ], [ -103.163, 39.126 ], [ -103.164, 38.69 ], [ -103.172, 38.69 ], [ -103.173, 38.525 ], [ -103.505, 38.524 ], [ -103.505, 38.516 ], [ -103.613, 38.518 ], [ -103.613, 38.523 ], [ -104.054, 38.522 ], [ -104.056, 38.869 ], [ -103.72, 38.867 ], [ -103.722, 39.084 ], [ -103.721, 39.128 ], [ -103.715, 39.128 ], [ -103.714, 39.566 ], [ -103.155, 39.566 ], [ -103.155, 39.287 ] ] ] } },
{ "type": "Feature", "properties": { "id": "Jefferson" }, "geometry": { "type": "MultiPolygon", "coordinates": [ [ [ [ -105.056, 39.624 ], [ -105.053, 39.628 ], [ -105.053, 39.627 ], [ -105.053, 39.625 ], [ -105.056, 39.624 ] ] ], [ [ [ -105.059, 39.634 ], [ -105.059, 39.639 ], [ -105.053, 39.639 ], [ -105.053, 39.63 ], [ -105.059, 39.634 ] ] ], [ [ [ -105.147, 39.914 ], [ -105.109, 39.914 ], [ -105.1, 39.909 ], [ -105.1, 39.902 ], [ -105.09, 39.899 ], [ -105.072, 39.9 ], [ -105.072, 39.907 ], [ -105.062, 39.907 ], [ -105.062, 39.914 ], [ -105.053, 39.914 ], [ -105.053, 39.791 ], [ -105.065, 39.789 ], [ -105.063, 39.784 ], [ -105.053, 39.784 ], [ -105.053, 39.682 ], [ -105.063, 39.68 ], [ -105.063, 39.675 ], [ -105.053, 39.675 ], [ -105.053, 39.668 ], [ -105.081, 39.669 ], [ -105.078, 39.659 ], [ -105.067, 39.657 ], [ -105.071, 39.65 ], [ -105.063, 39.652 ], [ -105.059, 39.653 ], [ -105.055, 39.652 ], [ -105.072, 39.646 ], [ -105.074, 39.637 ], [ -105.081, 39.636 ], [ -105.11, 39.635 ], [ -105.11, 39.627 ], [ -105.091, 39.624 ], [ -105.091, 39.627 ], [ -105.082, 39.628 ], [ -105.081, 39.632 ], [ -105.077, 39.624 ], [ -105.065, 39.62 ], [ -105.097, 39.618 ], [ -105.097, 39.614 ], [ -105.059, 39.614 ], [ -105.053, 39.621 ], [ -105.054, 39.566 ], [ -105.049, 39.566 ], [ -105.061, 39.56 ], [ -105.076, 39.54 ], [ -105.078, 39.511 ], [ -105.085, 39.506 ], [ -105.087, 39.493 ], [ -105.099, 39.485 ], [ -105.118, 39.485 ], [ -105.116, 39.481 ], [ -105.135, 39.471 ], [ -105.133, 39.461 ], [ -105.124, 39.455 ], [ -105.124, 39.434 ], [ -105.171, 39.408 ], [ -105.164, 39.391 ], [ -105.174, 39.383 ], [ -105.167, 39.362 ], [ -105.179, 39.34 ], [ -105.188, 39.334 ], [ -105.182, 39.33 ], [ -105.188, 39.328 ], [ -105.189, 39.317 ], [ -105.198, 39.31 ], [ -105.196, 39.302 ], [ -105.208, 39.298 ], [ -105.202, 39.294 ], [ -105.207, 39.294 ], [ -105.221, 39.269 ], [ -105.217, 39.26 ], [ -105.225, 39.261 ], [ -105.228, 39.254 ], [ -105.234, 39.255 ], [ -105.236, 39.244 ], [ -105.247, 39.24 ], [ -105.253, 39.243 ], [ -105.264, 39.229 ], [ -105.26, 39.211 ], [ -105.276, 39.208 ], [ -105.282, 39.201 ], [ -105.288, 39.179 ], [ -105.313, 39.16 ], [ -105.316, 39.146 ], [ -105.323, 39.145 ], [ -105.322, 39.137 ], [ -105.328, 39.13 ], [ -105.398, 39.13 ], [ -105.398, 39.913 ], [ -105.239, 39.914 ], [ -105.147, 39.914 ] ], [ [ -105.166, 39.91 ], [ -105.166, 39.907 ], [ -105.166, 39.891 ], [ -105.147, 39.889 ], [ -105.132, 39.893 ], [ -105.129, 39.89 ], [ -105.129, 39.9 ], [ -105.147, 39.9 ], [ -105.147, 39.914 ], [ -105.166, 39.91 ] ] ] ] } },
{ "type": "Feature", "properties": { "id": "Rio Blanco" }, "geometry": { "type": "Polygon", "coordinates": [ [ [ -108.217, 40.222 ], [ -107.644, 40.224 ], [ -107.496, 40.22 ], [ -107.038, 40.225 ], [ -107.037, 40.092 ], [ -107.317, 40.091 ], [ -107.319, 39.915 ], [ -107.432, 39.918 ], [ -107.432, 39.828 ], [ -107.694, 39.83 ], [ -107.787, 39.825 ], [ -107.939, 39.825 ], [ -107.939, 39.694 ], [ -108.555, 39.694 ], [ -108.555, 39.65 ], [ -108.896, 39.65 ], [ -108.896, 39.66 ], [ -109.051, 39.66 ], [ -109.051, 40.223 ], [ -108.217, 40.222 ] ] ] } },
{ "type": "Feature", "properties": { "id": "Sedgwick" }, "geometry": { "type": "Polygon", "coordinates": [ [ [ -102.652, 40.885 ], [ -102.653, 41.002 ], [ -102.052, 41.002 ], [ -102.051, 40.75 ], [ -102.651, 40.749 ], [ -102.652, 40.885 ] ] ] } },
{ "type": "Feature", "properties": { "id": "San Miguel" }, "geometry": { "type": "Polygon", "coordinates": [ [ [ -108.337, 37.894 ], [ -108.817, 37.896 ], [ -108.821, 37.881 ], [ -109.042, 37.881 ], [ -109.042, 38.153 ], [ -107.966, 38.152 ], [ -107.965, 38.145 ], [ -107.952, 38.145 ], [ -107.952, 38.116 ], [ -107.891, 38.116 ], [ -107.892, 38.087 ], [ -107.897, 38.087 ], [ -107.888, 38.045 ], [ -107.9, 38.026 ], [ -107.891, 38.025 ], [ -107.89, 38.012 ], [ -107.883, 38.007 ], [ -107.862, 38.009 ], [ -107.842, 38.006 ], [ -107.849, 37.992 ], [ -107.795, 37.989 ], [ -107.78, 37.962 ], [ -107.769, 37.962 ], [ -107.749, 37.953 ], [ -107.733, 37.93 ], [ -107.741, 37.901 ], [ -107.756, 37.89 ], [ -107.761, 37.878 ], [ -107.783, 37.868 ], [ -107.779, 37.85 ], [ -107.785, 37.847 ], [ -107.783, 37.841 ], [ -107.79, 37.837 ], [ -107.796, 37.823 ], [ -107.809, 37.824 ], [ -107.829, 37.812 ], [ -107.825, 37.805 ], [ -107.828, 37.8 ], [ -107.822, 37.796 ], [ -107.844, 37.774 ], [ -107.861, 37.776 ], [ -107.874, 37.786 ], [ -107.886, 37.785 ], [ -107.892, 37.802 ], [ -107.904, 37.807 ], [ -107.921, 37.824 ], [ -107.938, 37.823 ], [ -107.951, 37.836 ], [ -107.972, 37.833 ], [ -107.989, 37.857 ], [ -108.031, 37.855 ], [ -108.048, 37.851 ], [ -108.058, 37.841 ], [ -108.068, 37.851 ], [ -108.091, 37.84 ], [ -108.113, 37.855 ], [ -108.125, 37.852 ], [ -108.14, 37.832 ], [ -108.147, 37.839 ], [ -108.15, 37.834 ], [ -108.175, 37.833 ], [ -108.183, 37.826 ], [ -108.209, 37.821 ], [ -108.212, 37.832 ], [ -108.227, 37.843 ], [ -108.238, 37.876 ], [ -108.248, 37.879 ], [ -108.256, 37.895 ], [ -108.337, 37.894 ] ] ] } },
{ "type": "Feature", "properties": { "id": "Alamosa" }, "geometry": { "type": "Polygon", "coordinates": [ [ [ -106.039, 37.577 ], [ -106.038, 37.748 ], [ -105.456, 37.751 ], [ -105.454, 37.724 ], [ -105.478, 37.708 ], [ -105.481, 37.694 ], [ -105.477, 37.666 ], [ -105.487, 37.653 ], [ -105.492, 37.625 ], [ -105.499, 37.614 ], [ -105.493, 37.601 ], [ -105.502, 37.598 ], [ -105.486, 37.578 ], [ -105.501, 37.56 ], [ -105.743, 37.357 ], [ -106.039, 37.357 ], [ -106.039, 37.577 ] ] ] } },
{ "type": "Feature", "properties": { "id": "Phillips" }, "geometry": { "type": "Polygon", "coordinates": [ [ [ -102.382, 40.749 ], [ -102.051, 40.75 ], [ -102.051, 40.44 ], [ -102.665, 40.438 ], [ -102.665, 40.705 ], [ -102.651, 40.705 ], [ -102.651, 40.749 ], [ -102.382, 40.749 ] ] ] } },
{ "type": "Feature", "properties": { "id": "Ouray" }, "geometry": { "type": "Polygon", "coordinates": [ [ [ -107.956, 38.226 ], [ -107.965, 38.227 ], [ -107.965, 38.234 ], [ -107.984, 38.234 ], [ -107.984, 38.248 ], [ -108.012, 38.248 ], [ -108.012, 38.255 ], [ -108.087, 38.255 ], [ -108.086, 38.284 ], [ -108.104, 38.284 ], [ -108.105, 38.314 ], [ -108.123, 38.314 ], [ -108.124, 38.321 ], [ -108.132, 38.321 ], [ -108.132, 38.332 ], [ -107.636, 38.332 ], [ -107.631, 38.326 ], [ -107.636, 38.316 ], [ -107.635, 38.302 ], [ -107.629, 38.288 ], [ -107.617, 38.275 ], [ -107.612, 38.261 ], [ -107.591, 38.252 ], [ -107.58, 38.231 ], [ -107.581, 38.213 ], [ -107.576, 38.21 ], [ -107.562, 38.159 ], [ -107.574, 38.136 ], [ -107.563, 38.124 ], [ -107.565, 38.098 ], [ -107.554, 38.08 ], [ -107.533, 38.08 ], [ -107.511, 38.061 ], [ -107.522, 38.057 ], [ -107.522, 38.042 ], [ -107.538, 38.032 ], [ -107.538, 38.009 ], [ -107.547, 38.0 ], [ -107.557, 37.999 ], [ -107.574, 38.006 ], [ -107.591, 37.992 ], [ -107.584, 37.977 ], [ -107.587, 37.968 ], [ -107.569, 37.965 ], [ -107.642, 37.965 ], [ -107.643, 37.937 ], [ -107.638, 37.921 ], [ -107.651, 37.91 ], [ -107.661, 37.909 ], [ -107.664, 37.904 ], [ -107.689, 37.902 ], [ -107.701, 37.892 ], [ -107.709, 37.899 ], [ -107.721, 37.897 ], [ -107.738, 37.905 ], [ -107.733, 37.93 ], [ -107.739, 37.939 ], [ -107.749, 37.953 ], [ -107.769, 37.962 ], [ -107.78, 37.962 ], [ -107.795, 37.989 ], [ -107.849, 37.992 ], [ -107.842, 38.006 ], [ -107.862, 38.009 ], [ -107.883, 38.007 ], [ -107.891, 38.014 ], [ -107.891, 38.025 ], [ -107.9, 38.026 ], [ -107.888, 38.045 ], [ -107.897, 38.087 ], [ -107.892, 38.087 ], [ -107.891, 38.116 ], [ -107.952, 38.116 ], [ -107.952, 38.145 ], [ -107.965, 38.145 ], [ -107.966, 38.152 ], [ -107.947, 38.152 ], [ -107.948, 38.174 ], [ -107.938, 38.174 ], [ -107.938, 38.219 ], [ -107.947, 38.219 ], [ -107.947, 38.226 ], [ -107.956, 38.226 ] ] ] } },
{ "type": "Feature", "properties": { "id": "Mesa" }, "geometry": { "type": "Polygon", "coordinates": [ [ [ -108.23, 38.878 ], [ -108.379, 38.829 ], [ -108.379, 38.5 ], [ -109.06, 38.5 ], [ -109.051, 39.367 ], [ -108.41, 39.366 ], [ -107.431, 39.366 ], [ -107.431, 39.348 ], [ -107.451, 39.33 ], [ -107.463, 39.327 ], [ -107.465, 39.314 ], [ -107.452, 39.305 ], [ -107.439, 39.309 ], [ -107.437, 39.3 ], [ -107.413, 39.292 ], [ -107.397, 39.294 ], [ -107.394, 39.279 ], [ -107.377, 39.272 ], [ -107.391, 39.264 ], [ -107.398, 39.254 ], [ -107.43, 39.257 ], [ -107.43, 39.241 ], [ -107.453, 39.23 ], [ -107.475, 39.229 ], [ -107.484, 39.235 ], [ -107.495, 39.218 ], [ -107.511, 39.216 ], [ -107.529, 39.203 ], [ -107.523, 39.198 ], [ -107.543, 39.196 ], [ -107.543, 39.182 ], [ -107.558, 39.178 ], [ -107.568, 39.181 ], [ -107.593, 39.165 ], [ -107.619, 39.155 ], [ -107.632, 39.141 ], [ -107.638, 39.142 ], [ -107.651, 39.131 ], [ -107.663, 39.116 ], [ -107.66, 39.112 ], [ -107.681, 39.1 ], [ -107.688, 39.088 ], [ -107.709, 39.083 ], [ -107.722, 39.065 ], [ -107.733, 39.063 ], [ -107.738, 39.066 ], [ -107.765, 39.043 ], [ -107.794, 39.062 ], [ -107.859, 39.08 ], [ -107.907, 39.061 ], [ -107.917, 39.064 ], [ -107.982, 39.06 ], [ -107.987, 39.053 ], [ -108.031, 39.028 ], [ -108.038, 39.016 ], [ -108.048, 39.011 ], [ -108.054, 39.014 ], [ -108.07, 38.997 ], [ -108.095, 38.98 ], [ -108.087, 38.963 ], [ -108.122, 38.926 ], [ -108.131, 38.922 ], [ -108.14, 38.925 ], [ -108.145, 38.917 ], [ -108.141, 38.906 ], [ -108.147, 38.907 ], [ -108.152, 38.901 ], [ -108.166, 38.902 ], [ -108.23, 38.878 ] ] ] } },
{ "type": "Feature", "properties": { "id": "Saguache" }, "geometry": { "type": "Polygon", "coordinates": [ [ [ -106.694, 37.848 ], [ -106.697, 37.876 ], [ -106.719, 37.873 ], [ -106.737, 37.888 ], [ -106.756, 37.881 ], [ -106.773, 37.886 ], [ -106.801, 37.914 ], [ -106.847, 37.919 ], [ -106.88, 37.95 ], [ -106.879, 37.961 ], [ -106.89, 37.962 ], [ -106.895, 37.967 ], [ -106.905, 37.964 ], [ -106.92, 37.967 ], [ -106.944, 37.954 ], [ -106.968, 37.975 ], [ -106.978, 37.969 ], [ -106.987, 37.969 ], [ -106.988, 37.962 ], [ -107.001, 37.956 ], [ -107.001, 38.426 ], [ -106.088, 38.422 ], [ -106.076, 38.424 ], [ -106.069, 38.43 ], [ -106.058, 38.444 ], [ -106.062, 38.45 ], [ -106.059, 38.457 ], [ -106.019, 38.454 ], [ -105.997, 38.42 ], [ -105.984, 38.42 ], [ -105.968, 38.409 ], [ -105.959, 38.397 ], [ -105.948, 38.391 ], [ -105.945, 38.379 ], [ -105.92, 38.367 ], [ -105.894, 38.347 ], [ -105.876, 38.316 ], [ -105.858, 38.298 ], [ -105.847, 38.29 ], [ -105.841, 38.292 ], [ -105.819, 38.274 ], [ -105.8, 38.27 ], [ -105.788, 38.242 ], [ -105.759, 38.229 ], [ -105.756, 38.218 ], [ -105.736, 38.209 ], [ -105.699, 38.168 ], [ -105.687, 38.167 ], [ -105.673, 38.159 ], [ -105.67, 38.153 ], [ -105.676, 38.146 ], [ -105.67, 38.129 ], [ -105.658, 38.117 ], [ -105.661, 38.101 ], [ -105.636, 38.071 ], [ -105.627, 38.067 ], [ -105.628, 38.057 ], [ -105.618, 38.053 ], [ -105.613, 38.038 ], [ -105.603, 38.031 ], [ -105.597, 38.013 ], [ -105.605, 38.005 ], [ -105.582, 37.978 ], [ -105.584, 37.968 ], [ -105.56, 37.952 ], [ -105.533, 37.955 ], [ -105.511, 37.939 ], [ -105.503, 37.924 ], [ -105.473, 37.897 ], [ -105.478, 37.88 ], [ -105.451, 37.878 ], [ -105.429, 37.852 ], [ -105.429, 37.845 ], [ -105.436, 37.829 ], [ -105.435, 37.805 ], [ -105.455, 37.796 ], [ -105.449, 37.779 ], [ -105.457, 37.751 ], [ -106.586, 37.748 ], [ -106.587, 37.834 ], [ -106.694, 37.835 ], [ -106.694, 37.848 ] ] ] } },
{ "type": "Feature", "properties": { "id": "Douglas" }, "geometry": { "type": "Polygon", "coordinates": [ [ [ -104.872, 39.566 ], [ -104.661, 39.566 ], [ -104.663, 39.13 ], [ -105.329, 39.13 ], [ -105.322, 39.137 ], [ -105.323, 39.146 ], [ -105.316, 39.146 ], [ -105.313, 39.16 ], [ -105.288, 39.179 ], [ -105.282, 39.201 ], [ -105.276, 39.208 ], [ -105.26, 39.211 ], [ -105.264, 39.229 ], [ -105.253, 39.243 ], [ -105.247, 39.24 ], [ -105.236, 39.244 ], [ -105.234, 39.255 ], [ -105.228, 39.254 ], [ -105.225, 39.261 ], [ -105.217, 39.26 ], [ -105.221, 39.269 ], [ -105.207, 39.294 ], [ -105.202, 39.294 ], [ -105.208, 39.298 ], [ -105.196, 39.302 ], [ -105.198, 39.31 ], [ -105.189, 39.317 ], [ -105.188, 39.328 ], [ -105.182, 39.33 ], [ -105.188, 39.334 ], [ -105.179, 39.34 ], [ -105.167, 39.362 ], [ -105.174, 39.383 ], [ -105.164, 39.391 ], [ -105.171, 39.408 ], [ -105.124, 39.434 ], [ -105.124, 39.455 ], [ -105.133, 39.461 ], [ -105.135, 39.471 ], [ -105.116, 39.481 ], [ -105.118, 39.485 ], [ -105.099, 39.485 ], [ -105.087, 39.493 ], [ -105.085, 39.506 ], [ -105.078, 39.511 ], [ -105.078, 39.537 ], [ -105.061, 39.56 ], [ -105.049, 39.566 ], [ -104.872, 39.566 ] ] ] } },
{ "type": "Feature", "properties": { "id": "Dolores" }, "geometry": { "type": "Polygon", "coordinates": [ [ [ -108.821, 37.881 ], [ -108.817, 37.896 ], [ -108.256, 37.895 ], [ -108.248, 37.879 ], [ -108.238, 37.876 ], [ -108.227, 37.843 ], [ -108.212, 37.832 ], [ -108.21, 37.821 ], [ -108.183, 37.826 ], [ -108.175, 37.833 ], [ -108.15, 37.834 ], [ -108.147, 37.839 ], [ -108.14, 37.832 ], [ -108.125, 37.852 ], [ -108.113, 37.855 ], [ -108.091, 37.84 ], [ -108.068, 37.851 ], [ -108.058, 37.841 ], [ -108.048, 37.851 ], [ -108.031, 37.855 ], [ -107.989, 37.857 ], [ -107.972, 37.833 ], [ -107.951, 37.836 ], [ -107.938, 37.823 ], [ -107.921, 37.824 ], [ -107.904, 37.807 ], [ -107.893, 37.803 ], [ -107.886, 37.785 ], [ -107.874, 37.786 ], [ -107.861, 37.777 ], [ -107.87, 37.763 ], [ -107.862, 37.756 ], [ -107.876, 37.739 ], [ -107.873, 37.722 ], [ -107.877, 37.716 ], [ -107.903, 37.719 ], [ -107.937, 37.703 ], [ -107.954, 37.706 ], [ -107.969, 37.696 ], [ -107.975, 37.684 ], [ -107.957, 37.649 ], [ -107.96, 37.643 ], [ -107.97, 37.64 ], [ -108.309, 37.632 ], [ -108.917, 37.632 ], [ -109.043, 37.485 ], [ -109.042, 37.881 ], [ -108.821, 37.881 ] ] ] } },
{ "type": "Feature", "properties": { "id": "Rio Grande" }, "geometry": { "type": "Polygon", "coordinates": [ [ [ -106.223, 37.748 ], [ -106.038, 37.748 ], [ -106.039, 37.401 ], [ -106.488, 37.399 ], [ -106.711, 37.404 ], [ -106.712, 37.664 ], [ -106.696, 37.664 ], [ -106.694, 37.835 ], [ -106.587, 37.834 ], [ -106.586, 37.748 ], [ -106.223, 37.748 ] ] ] } },
{ "type": "Feature", "properties": { "id": "Pueblo" }, "geometry": { "type": "Polygon", "coordinates": [ [ [ -104.941, 38.338 ], [ -104.942, 38.52 ], [ -104.054, 38.522 ], [ -104.061, 37.735 ], [ -104.646, 37.901 ], [ -105.014, 37.881 ], [ -105.034, 37.894 ], [ -105.032, 37.904 ], [ -105.039, 37.904 ], [ -105.05, 37.915 ], [ -105.049, 38.258 ], [ -104.94, 38.258 ], [ -104.941, 38.338 ] ] ] } },
{ "type": "Feature", "properties": { "id": "Kit Carson" }, "geometry": { "type": "Polygon", "coordinates": [ [ [ -102.739, 39.568 ], [ -102.05, 39.574 ], [ -102.047, 39.047 ], [ -102.716, 39.039 ], [ -103.163, 39.038 ], [ -103.163, 39.128 ], [ -103.155, 39.128 ], [ -103.155, 39.133 ], [ -103.154, 39.566 ], [ -102.739, 39.568 ] ] ] } },
{ "type": "Feature", "properties": { "id": "Baca" }, "geometry": { "type": "Polygon", "coordinates": [ [ [ -102.27, 36.994 ], [ -102.698, 36.995 ], [ -102.815, 37.0 ], [ -103.086, 37.0 ], [ -103.083, 37.382 ], [ -103.075, 37.382 ], [ -103.076, 37.643 ], [ -102.042, 37.644 ], [ -102.042, 36.993 ], [ -102.27, 36.994 ] ] ] } },
{ "type": "Feature", "properties": { "id": "Grand" }, "geometry": { "type": "Polygon", "coordinates": [ [ [ -106.09, 40.35 ], [ -106.086, 40.347 ], [ -106.077, 40.35 ], [ -106.019, 40.373 ], [ -106.012, 40.37 ], [ -106.011, 40.362 ], [ -105.987, 40.365 ], [ -105.971, 40.35 ], [ -105.96, 40.348 ], [ -105.954, 40.36 ], [ -105.938, 40.366 ], [ -105.947, 40.385 ], [ -105.928, 40.391 ], [ -105.921, 40.402 ], [ -105.903, 40.401 ], [ -105.898, 40.418 ], [ -105.903, 40.432 ], [ -105.897, 40.449 ], [ -105.899, 40.466 ], [ -105.892, 40.477 ], [ -105.862, 40.48 ], [ -105.855, 40.486 ], [ -105.838, 40.483 ], [ -105.807, 40.474 ], [ -105.811, 40.471 ], [ -105.804, 40.464 ], [ -105.806, 40.447 ], [ -105.816, 40.437 ], [ -105.817, 40.424 ], [ -105.791, 40.399 ], [ -105.791, 40.386 ], [ -105.782, 40.374 ], [ -105.757, 40.352 ], [ -105.736, 40.347 ], [ -105.727, 40.334 ], [ -105.713, 40.326 ], [ -105.702, 40.324 ], [ -105.698, 40.318 ], [ -105.702, 40.312 ], [ -105.69, 40.309 ], [ -105.687, 40.294 ], [ -105.681, 40.292 ], [ -105.686, 40.288 ], [ -105.681, 40.284 ], [ -105.682, 40.273 ], [ -105.654, 40.261 ], [ -105.644, 40.25 ], [ -105.66, 40.249 ], [ -105.669, 40.224 ], [ -105.663, 40.22 ], [ -105.67, 40.219 ], [ -105.678, 40.189 ], [ -105.67, 40.185 ], [ -105.668, 40.158 ], [ -105.636, 40.146 ], [ -105.627, 40.119 ], [ -105.637, 40.107 ], [ -105.633, 40.081 ], [ -105.641, 40.073 ], [ -105.639, 40.067 ], [ -105.647, 40.065 ], [ -105.651, 40.058 ], [ -105.637, 40.046 ], [ -105.641, 40.035 ], [ -105.652, 40.021 ], [ -105.662, 40.016 ], [ -105.69, 40.015 ], [ -105.691, 39.997 ], [ -105.683, 39.993 ], [ -105.69, 39.97 ], [ -105.685, 39.959 ], [ -105.694, 39.95 ], [ -105.694, 39.942 ], [ -105.683, 39.934 ], [ -105.675, 39.933 ], [ -105.691, 39.897 ], [ -105.7, 39.891 ], [ -105.701, 39.879 ], [ -105.69, 39.852 ], [ -105.696, 39.839 ], [ -105.713, 39.838 ], [ -105.736, 39.805 ], [ -105.764, 39.795 ], [ -105.799, 39.803 ], [ -105.823, 39.786 ], [ -105.851, 39.788 ], [ -105.855, 39.796 ], [ -105.887, 39.797 ], [ -105.893, 39.783 ], [ -105.88, 39.759 ], [ -105.884, 39.737 ], [ -105.892, 39.73 ], [ -105.907, 39.728 ], [ -105.925, 39.698 ], [ -105.946, 39.689 ], [ -105.951, 39.695 ], [ -105.996, 39.684 ], [ -106.027, 39.69 ], [ -106.042, 39.716 ], [ -106.059, 39.725 ], [ -106.062, 39.751 ], [ -106.081, 39.787 ], [ -106.078, 39.793 ], [ -106.084, 39.807 ], [ -106.125, 39.842 ], [ -106.138, 39.844 ], [ -106.15, 39.84 ], [ -106.171, 39.845 ], [ -106.193, 39.859 ], [ -106.206, 39.878 ], [ -106.217, 39.881 ], [ -106.232, 39.901 ], [ -106.252, 39.915 ], [ -106.295, 39.919 ], [ -106.295, 39.914 ], [ -106.395, 39.914 ], [ -106.395, 39.925 ], [ -106.627, 39.925 ], [ -106.626, 40.0 ], [ -106.637, 40.002 ], [ -106.632, 40.342 ], [ -106.653, 40.342 ], [ -106.652, 40.445 ], [ -106.639, 40.432 ], [ -106.622, 40.43 ], [ -106.629, 40.419 ], [ -106.62, 40.405 ], [ -106.612, 40.379 ], [ -106.601, 40.376 ], [ -106.595, 40.383 ], [ -106.559, 40.378 ], [ -106.553, 40.37 ], [ -106.54, 40.371 ], [ -106.535, 40.365 ], [ -106.525, 40.386 ], [ -106.519, 40.391 ], [ -106.512, 40.387 ], [ -106.49, 40.412 ], [ -106.477, 40.404 ], [ -106.481, 40.389 ], [ -106.474, 40.388 ], [ -106.473, 40.379 ], [ -106.464, 40.376 ], [ -106.463, 40.367 ], [ -106.456, 40.363 ], [ -106.457, 40.355 ], [ -106.443, 40.346 ], [ -106.422, 40.353 ], [ -106.404, 40.345 ], [ -106.39, 40.346 ], [ -106.385, 40.352 ], [ -106.356, 40.358 ], [ -106.337, 40.34 ], [ -106.321, 40.337 ], [ -106.306, 40.328 ], [ -106.294, 40.338 ], [ -106.299, 40.349 ], [ -106.293, 40.357 ], [ -106.286, 40.359 ], [ -106.278, 40.354 ], [ -106.266, 40.361 ], [ -106.254, 40.35 ], [ -106.251, 40.341 ], [ -106.23, 40.323 ], [ -106.217, 40.329 ], [ -106.189, 40.327 ], [ -106.17, 40.344 ], [ -106.162, 40.343 ], [ -106.149, 40.332 ], [ -106.137, 40.33 ], [ -106.134, 40.336 ], [ -106.102, 40.354 ], [ -106.09, 40.35 ] ] ] } },
{ "type": "Feature", "properties": { "id": "Logan" }, "geometry": { "type": "Polygon", "coordinates": [ [ [ -103.574, 40.891 ], [ -103.575, 41.002 ], [ -102.653, 41.002 ], [ -102.651, 40.705 ], [ -102.665, 40.705 ], [ -102.665, 40.438 ], [ -103.465, 40.436 ], [ -103.467, 40.523 ], [ -103.582, 40.523 ], [ -103.58, 40.702 ], [ -103.574, 40.702 ], [ -103.574, 40.891 ] ] ] } },
{ "type": "Feature", "properties": { "id": "Clear Creek" }, "geometry": { "type": "Polygon", "coordinates": [ [ [ -105.724, 39.819 ], [ -105.717, 39.835 ], [ -105.696, 39.839 ], [ -105.69, 39.852 ], [ -105.679, 39.847 ], [ -105.659, 39.85 ], [ -105.634, 39.844 ], [ -105.628, 39.832 ], [ -105.602, 39.818 ], [ -105.591, 39.823 ], [ -105.577, 39.821 ], [ -105.578, 39.806 ], [ -105.546, 39.787 ], [ -105.545, 39.774 ], [ -105.519, 39.765 ], [ -105.495, 39.764 ], [ -105.497, 39.758 ], [ -105.493, 39.757 ], [ -105.479, 39.759 ], [ -105.45, 39.753 ], [ -105.425, 39.756 ], [ -105.422, 39.746 ], [ -105.407, 39.751 ], [ -105.398, 39.747 ], [ -105.399, 39.566 ], [ -105.83, 39.565 ], [ -105.837, 39.569 ], [ -105.838, 39.573 ], [ -105.832, 39.578 ], [ -105.808, 39.583 ], [ -105.8, 39.593 ], [ -105.781, 39.601 ], [ -105.776, 39.611 ], [ -105.785, 39.631 ], [ -105.793, 39.636 ], [ -105.817, 39.634 ], [ -105.821, 39.643 ], [ -105.849, 39.644 ], [ -105.865, 39.667 ], [ -105.88, 39.664 ], [ -105.885, 39.657 ], [ -105.897, 39.665 ], [ -105.911, 39.662 ], [ -105.927, 39.674 ], [ -105.92, 39.69 ], [ -105.925, 39.699 ], [ -105.921, 39.71 ], [ -105.912, 39.715 ], [ -105.907, 39.728 ], [ -105.889, 39.732 ], [ -105.882, 39.74 ], [ -105.885, 39.752 ], [ -105.88, 39.759 ], [ -105.893, 39.783 ], [ -105.888, 39.797 ], [ -105.876, 39.799 ], [ -105.855, 39.796 ], [ -105.851, 39.788 ], [ -105.823, 39.786 ], [ -105.799, 39.803 ], [ -105.764, 39.795 ], [ -105.736, 39.805 ], [ -105.724, 39.819 ] ] ] } },
{ "type": "Feature", "properties": { "id": "Moffat" }, "geometry": { "type": "Polygon", "coordinates": [ [ [ -108.059, 40.222 ], [ -109.051, 40.223 ], [ -109.05, 41.001 ], [ -108.251, 41.0 ], [ -107.318, 41.003 ], [ -107.314, 40.6 ], [ -107.371, 40.6 ], [ -107.371, 40.542 ], [ -107.429, 40.542 ], [ -107.432, 40.335 ], [ -107.443, 40.335 ], [ -107.439, 40.22 ], [ -107.654, 40.224 ], [ -108.059, 40.222 ] ] ] } },
{ "type": "Feature", "properties": { "id": "Teller" }, "geometry": { "type": "Polygon", "coordinates": [ [ [ -105.329, 38.858 ], [ -105.33, 39.13 ], [ -105.034, 39.13 ], [ -105.027, 39.03 ], [ -105.029, 38.869 ], [ -105.067, 38.87 ], [ -105.072, 38.799 ], [ -104.939, 38.797 ], [ -104.942, 38.65 ], [ -105.054, 38.653 ], [ -105.093, 38.648 ], [ -105.24, 38.648 ], [ -105.238, 38.697 ], [ -105.329, 38.697 ], [ -105.329, 38.858 ] ] ] } },
{ "type": "Feature", "properties": { "id": "Boulder" }, "geometry": { "type": "MultiPolygon", "coordinates": [ [ [ [ -105.059, 39.974 ], [ -105.053, 39.958 ], [ -105.082, 39.959 ], [ -105.079, 39.962 ], [ -105.063, 39.972 ], [ -105.059, 39.974 ] ] ], [ [ [ -105.055, 40.262 ], [ -105.053, 39.978 ], [ -105.07, 39.97 ], [ -105.079, 39.962 ], [ -105.088, 39.96 ], [ -105.082, 39.959 ], [ -105.072, 39.958 ], [ -105.076, 39.943 ], [ -105.091, 39.943 ], [ -105.091, 39.936 ], [ -105.109, 39.936 ], [ -105.114, 39.931 ], [ -105.109, 39.924 ], [ -105.119, 39.934 ], [ -105.119, 39.943 ], [ -105.109, 39.943 ], [ -105.109, 39.95 ], [ -105.121, 39.951 ], [ -105.121, 39.952 ], [ -105.128, 39.955 ], [ -105.127, 39.94 ], [ -105.138, 39.94 ], [ -105.138, 39.929 ], [ -105.147, 39.929 ], [ -105.147, 39.914 ], [ -105.398, 39.913 ], [ -105.398, 39.935 ], [ -105.406, 39.932 ], [ -105.414, 39.934 ], [ -105.419, 39.929 ], [ -105.44, 39.938 ], [ -105.457, 39.932 ], [ -105.683, 39.934 ], [ -105.693, 39.942 ], [ -105.694, 39.95 ], [ -105.685, 39.959 ], [ -105.69, 39.97 ], [ -105.683, 39.995 ], [ -105.691, 39.997 ], [ -105.69, 40.015 ], [ -105.662, 40.016 ], [ -105.652, 40.021 ], [ -105.641, 40.035 ], [ -105.637, 40.046 ], [ -105.651, 40.058 ], [ -105.647, 40.065 ], [ -105.639, 40.067 ], [ -105.641, 40.073 ], [ -105.633, 40.081 ], [ -105.637, 40.107 ], [ -105.627, 40.119 ], [ -105.636, 40.146 ], [ -105.668, 40.158 ], [ -105.67, 40.185 ], [ -105.678, 40.189 ], [ -105.67, 40.219 ], [ -105.663, 40.22 ], [ -105.669, 40.224 ], [ -105.66, 40.249 ], [ -105.644, 40.25 ], [ -105.653, 40.26 ], [ -105.402, 40.258 ], [ -105.336, 40.262 ], [ -105.055, 40.262 ] ], [ [ -105.104, 39.959 ], [ -105.109, 39.956 ], [ -105.09, 39.958 ], [ -105.094, 39.958 ], [ -105.104, 39.959 ] ] ] ] } },
{ "type": "Feature", "properties": { "id": "Kiowa" }, "geometry": { "type": "Polygon", "coordinates": [ [ [ -103.026, 38.615 ], [ -102.62, 38.613 ], [ -102.045, 38.615 ], [ -102.044, 38.269 ], [ -103.502, 38.265 ], [ -103.502, 38.342 ], [ -103.507, 38.342 ], [ -103.505, 38.524 ], [ -103.173, 38.525 ], [ -103.173, 38.612 ], [ -103.026, 38.615 ] ] ] } },
{ "type": "Feature", "properties": { "id": "Chaffee" }, "geometry": { "type": "Polygon", "coordinates": [ [ [ -106.452, 38.698 ], [ -106.443, 38.709 ], [ -106.425, 38.71 ], [ -106.417, 38.728 ], [ -106.42, 38.751 ], [ -106.415, 38.757 ], [ -106.419, 38.766 ], [ -106.413, 38.791 ], [ -106.423, 38.808 ], [ -106.415, 38.815 ], [ -106.416, 38.824 ], [ -106.407, 38.829 ], [ -106.396, 38.823 ], [ -106.384, 38.825 ], [ -106.382, 38.833 ], [ -106.364, 38.846 ], [ -106.365, 38.853 ], [ -106.349, 38.855 ], [ -106.349, 38.865 ], [ -106.336, 38.872 ], [ -106.334, 38.881 ], [ -106.328, 38.882 ], [ -106.321, 38.893 ], [ -106.325, 38.908 ], [ -106.335, 38.912 ], [ -106.345, 38.907 ], [ -106.357, 38.913 ], [ -106.373, 38.907 ], [ -106.381, 38.926 ], [ -106.392, 38.919 ], [ -106.394, 38.912 ], [ -106.402, 38.911 ], [ -106.413, 38.916 ], [ -106.421, 38.928 ], [ -106.43, 38.925 ], [ -106.437, 38.915 ], [ -106.465, 38.91 ], [ -106.504, 38.937 ], [ -106.507, 38.946 ], [ -106.527, 38.955 ], [ -106.522, 38.969 ], [ -106.528, 38.981 ], [ -106.551, 38.992 ], [ -106.554, 38.999 ], [ -106.577, 38.99 ], [ -106.596, 38.991 ], [ -106.599, 38.998 ], [ -106.592, 39.025 ], [ -106.6, 39.034 ], [ -106.597, 39.045 ], [ -106.581, 39.049 ], [ -106.578, 39.058 ], [ -106.191, 39.056 ], [ -106.183, 39.039 ], [ -106.192, 39.029 ], [ -106.193, 39.018 ], [ -106.179, 39.011 ], [ -106.169, 38.991 ], [ -106.145, 38.998 ], [ -106.109, 38.987 ], [ -106.104, 38.973 ], [ -106.114, 38.956 ], [ -106.111, 38.94 ], [ -106.091, 38.937 ], [ -106.085, 38.939 ], [ -106.066, 38.932 ], [ -106.058, 38.942 ], [ -106.028, 38.943 ], [ -105.998, 38.915 ], [ -105.986, 38.918 ], [ -105.966, 38.906 ], [ -105.979, 38.895 ], [ -105.974, 38.882 ], [ -105.941, 38.886 ], [ -105.925, 38.872 ], [ -105.943, 38.852 ], [ -105.942, 38.84 ], [ -105.907, 38.807 ], [ -105.915, 38.791 ], [ -105.927, 38.786 ], [ -105.929, 38.775 ], [ -105.945, 38.768 ], [ -105.938, 38.756 ], [ -105.941, 38.746 ], [ -105.948, 38.744 ], [ -105.943, 38.723 ], [ -105.97, 38.695 ], [ -105.945, 38.69 ], [ -105.944, 38.685 ], [ -105.923, 38.677 ], [ -105.925, 38.666 ], [ -105.908, 38.652 ], [ -105.918, 38.633 ], [ -105.9, 38.622 ], [ -105.886, 38.621 ], [ -105.879, 38.606 ], [ -105.881, 38.595 ], [ -105.891, 38.584 ], [ -105.892, 38.573 ], [ -105.886, 38.57 ], [ -105.885, 38.562 ], [ -105.893, 38.559 ], [ -105.894, 38.551 ], [ -105.904, 38.548 ], [ -105.906, 38.507 ], [ -105.938, 38.503 ], [ -106.011, 38.447 ], [ -106.018, 38.449 ], [ -106.019, 38.454 ], [ -106.059, 38.457 ], [ -106.062, 38.45 ], [ -106.058, 38.444 ], [ -106.076, 38.424 ], [ -106.247, 38.423 ], [ -106.249, 38.433 ], [ -106.245, 38.439 ], [ -106.266, 38.442 ], [ -106.274, 38.447 ], [ -106.273, 38.455 ], [ -106.281, 38.454 ], [ -106.289, 38.461 ], [ -106.29, 38.473 ], [ -106.304, 38.478 ], [ -106.311, 38.495 ], [ -106.327, 38.498 ], [ -106.33, 38.494 ], [ -106.344, 38.505 ], [ -106.348, 38.512 ], [ -106.343, 38.522 ], [ -106.354, 38.533 ], [ -106.355, 38.543 ], [ -106.345, 38.569 ], [ -106.361, 38.594 ], [ -106.364, 38.615 ], [ -106.385, 38.625 ], [ -106.38, 38.638 ], [ -106.401, 38.64 ], [ -106.402, 38.646 ], [ -106.418, 38.644 ], [ -106.43, 38.651 ], [ -106.438, 38.682 ], [ -106.452, 38.698 ] ] ] } },
{ "type": "Feature", "properties": { "id": "Hinsdale" }, "geometry": { "type": "Polygon", "coordinates": [ [ [ -107.518, 37.838 ], [ -107.522, 37.842 ], [ -107.518, 37.857 ], [ -107.526, 37.869 ], [ -107.536, 37.874 ], [ -107.533, 37.889 ], [ -107.52, 37.901 ], [ -107.537, 37.921 ], [ -107.538, 37.933 ], [ -107.533, 37.944 ], [ -107.563, 37.955 ], [ -107.569, 37.966 ], [ -107.588, 37.97 ], [ -107.584, 37.976 ], [ -107.591, 37.992 ], [ -107.587, 37.999 ], [ -107.574, 38.006 ], [ -107.548, 37.999 ], [ -107.538, 38.009 ], [ -107.538, 38.032 ], [ -107.522, 38.042 ], [ -107.522, 38.057 ], [ -107.511, 38.061 ], [ -107.533, 38.08 ], [ -107.55, 38.078 ], [ -107.56, 38.088 ], [ -107.565, 38.099 ], [ -107.561, 38.111 ], [ -107.564, 38.125 ], [ -107.574, 38.136 ], [ -107.569, 38.147 ], [ -107.001, 38.147 ], [ -107.001, 37.956 ], [ -107.006, 37.956 ], [ -107.009, 37.947 ], [ -107.026, 37.955 ], [ -107.043, 37.949 ], [ -107.056, 37.952 ], [ -107.068, 37.961 ], [ -107.074, 37.955 ], [ -107.092, 37.949 ], [ -107.103, 37.955 ], [ -107.111, 37.943 ], [ -107.138, 37.939 ], [ -107.137, 37.829 ], [ -107.145, 37.675 ], [ -107.124, 37.675 ], [ -107.129, 37.423 ], [ -107.482, 37.423 ], [ -107.482, 37.768 ], [ -107.467, 37.766 ], [ -107.458, 37.782 ], [ -107.459, 37.795 ], [ -107.475, 37.816 ], [ -107.49, 37.824 ], [ -107.517, 37.827 ], [ -107.518, 37.838 ] ] ] } },
{ "type": "Feature", "properties": { "id": "Jackson" }, "geometry": { "type": "Polygon", "coordinates": [ [ [ -106.689, 40.651 ], [ -106.692, 40.659 ], [ -106.686, 40.662 ], [ -106.687, 40.672 ], [ -106.681, 40.675 ], [ -106.687, 40.683 ], [ -106.673, 40.688 ], [ -106.668, 40.696 ], [ -106.674, 40.724 ], [ -106.67, 40.729 ], [ -106.677, 40.737 ], [ -106.663, 40.743 ], [ -106.661, 40.753 ], [ -106.67, 40.762 ], [ -106.637, 40.789 ], [ -106.636, 40.812 ], [ -106.643, 40.821 ], [ -106.664, 40.828 ], [ -106.663, 40.843 ], [ -106.655, 40.849 ], [ -106.668, 40.865 ], [ -106.679, 40.87 ], [ -106.686, 40.886 ], [ -106.694, 40.888 ], [ -106.706, 40.876 ], [ -106.739, 40.871 ], [ -106.747, 40.882 ], [ -106.741, 40.89 ], [ -106.77, 40.896 ], [ -106.769, 40.904 ], [ -106.781, 40.907 ], [ -106.801, 40.896 ], [ -106.81, 40.9 ], [ -106.806, 40.907 ], [ -106.825, 40.932 ], [ -106.829, 40.924 ], [ -106.852, 40.925 ], [ -106.849, 40.927 ], [ -106.862, 40.941 ], [ -106.873, 40.973 ], [ -106.871, 40.981 ], [ -106.857, 40.981 ], [ -106.851, 40.991 ], [ -106.861, 40.996 ], [ -106.859, 41.002 ], [ -106.191, 40.998 ], [ -106.195, 40.988 ], [ -106.185, 40.964 ], [ -106.189, 40.946 ], [ -106.185, 40.934 ], [ -106.159, 40.911 ], [ -106.132, 40.897 ], [ -106.128, 40.885 ], [ -106.132, 40.877 ], [ -106.127, 40.87 ], [ -106.105, 40.86 ], [ -106.108, 40.852 ], [ -106.099, 40.85 ], [ -106.101, 40.844 ], [ -106.058, 40.817 ], [ -106.047, 40.803 ], [ -106.045, 40.792 ], [ -106.03, 40.782 ], [ -106.022, 40.755 ], [ -106.015, 40.753 ], [ -106.011, 40.741 ], [ -105.992, 40.729 ], [ -105.989, 40.71 ], [ -105.973, 40.696 ], [ -105.971, 40.681 ], [ -105.948, 40.642 ], [ -105.947, 40.617 ], [ -105.942, 40.609 ], [ -105.93, 40.606 ], [ -105.922, 40.574 ], [ -105.911, 40.566 ], [ -105.905, 40.535 ], [ -105.91, 40.519 ], [ -105.905, 40.514 ], [ -105.88, 40.523 ], [ -105.869, 40.521 ], [ -105.852, 40.507 ], [ -105.855, 40.486 ], [ -105.862, 40.48 ], [ -105.892, 40.477 ], [ -105.899, 40.466 ], [ -105.897, 40.449 ], [ -105.903, 40.432 ], [ -105.898, 40.418 ], [ -105.903, 40.401 ], [ -105.921, 40.402 ], [ -105.928, 40.391 ], [ -105.947, 40.385 ], [ -105.938, 40.366 ], [ -105.954, 40.36 ], [ -105.961, 40.348 ], [ -105.971, 40.35 ], [ -105.987, 40.365 ], [ -106.011, 40.362 ], [ -106.012, 40.37 ], [ -106.019, 40.373 ], [ -106.086, 40.347 ], [ -106.102, 40.354 ], [ -106.134, 40.336 ], [ -106.137, 40.33 ], [ -106.149, 40.332 ], [ -106.162, 40.343 ], [ -106.17, 40.344 ], [ -106.189, 40.327 ], [ -106.217, 40.329 ], [ -106.23, 40.323 ], [ -106.251, 40.341 ], [ -106.254, 40.35 ], [ -106.266, 40.361 ], [ -106.278, 40.354 ], [ -106.286, 40.359 ], [ -106.293, 40.357 ], [ -106.299, 40.349 ], [ -106.296, 40.333 ], [ -106.306, 40.329 ], [ -106.321, 40.337 ], [ -106.337, 40.34 ], [ -106.356, 40.358 ], [ -106.385, 40.352 ], [ -106.39, 40.346 ], [ -106.404, 40.345 ], [ -106.422, 40.353 ], [ -106.443, 40.347 ], [ -106.457, 40.355 ], [ -106.456, 40.363 ], [ -106.463, 40.367 ], [ -106.464, 40.376 ], [ -106.473, 40.379 ], [ -106.474, 40.388 ], [ -106.481, 40.389 ], [ -106.477, 40.404 ], [ -106.49, 40.412 ], [ -106.512, 40.387 ], [ -106.519, 40.391 ], [ -106.525, 40.386 ], [ -106.535, 40.365 ], [ -106.54, 40.371 ], [ -106.553, 40.37 ], [ -106.559, 40.378 ], [ -106.595, 40.383 ], [ -106.603, 40.376 ], [ -106.612, 40.379 ], [ -106.62, 40.405 ], [ -106.629, 40.419 ], [ -106.622, 40.43 ], [ -106.639, 40.432 ], [ -106.65, 40.44 ], [ -106.659, 40.459 ], [ -106.658, 40.472 ], [ -106.667, 40.473 ], [ -106.656, 40.484 ], [ -106.656, 40.509 ], [ -106.673, 40.522 ], [ -106.67, 40.534 ], [ -106.693, 40.557 ], [ -106.702, 40.578 ], [ -106.694, 40.594 ], [ -106.706, 40.617 ], [ -106.704, 40.628 ], [ -106.687, 40.635 ], [ -106.689, 40.64 ], [ -106.68, 40.649 ], [ -106.689, 40.651 ] ] ] } },
{ "type": "Feature", "properties": { "id": "Weld" }, "geometry": { "type": "MultiPolygon", "coordinates": [ [ [ [ -104.973, 40.033 ], [ -104.973, 40.03 ], [ -104.98, 40.03 ], [ -104.977, 40.033 ], [ -104.973, 40.033 ] ] ], [ [ [ -103.575, 41.002 ], [ -103.574, 40.702 ], [ -103.58, 40.702 ], [ -103.582, 40.523 ], [ -104.148, 40.524 ], [ -104.15, 40.001 ], [ -104.961, 40.0 ], [ -104.961, 40.044 ], [ -104.979, 40.044 ], [ -104.98, 40.03 ], [ -104.98, 40.029 ], [ -104.999, 40.026 ], [ -104.999, 40.015 ], [ -104.99, 40.015 ], [ -104.99, 40.008 ], [ -105.008, 40.007 ], [ -105.009, 40.0 ], [ -105.055, 40.0 ], [ -105.057, 40.349 ], [ -104.946, 40.349 ], [ -104.943, 40.998 ], [ -104.468, 41.001 ], [ -103.575, 41.002 ] ] ] ] } },
{ "type": "Feature", "properties": { "id": "San Juan" }, "geometry": { "type": "Polygon", "coordinates": [ [ [ -107.518, 37.838 ], [ -107.517, 37.827 ], [ -107.485, 37.822 ], [ -107.469, 37.81 ], [ -107.459, 37.794 ], [ -107.458, 37.782 ], [ -107.467, 37.766 ], [ -107.482, 37.768 ], [ -107.482, 37.64 ], [ -107.97, 37.64 ], [ -107.96, 37.643 ], [ -107.957, 37.649 ], [ -107.975, 37.684 ], [ -107.969, 37.696 ], [ -107.954, 37.706 ], [ -107.937, 37.703 ], [ -107.903, 37.719 ], [ -107.877, 37.716 ], [ -107.873, 37.722 ], [ -107.876, 37.739 ], [ -107.862, 37.756 ], [ -107.87, 37.763 ], [ -107.869, 37.767 ], [ -107.861, 37.776 ], [ -107.841, 37.774 ], [ -107.822, 37.796 ], [ -107.828, 37.8 ], [ -107.825, 37.805 ], [ -107.829, 37.812 ], [ -107.809, 37.824 ], [ -107.796, 37.823 ], [ -107.79, 37.837 ], [ -107.783, 37.841 ], [ -107.785, 37.847 ], [ -107.779, 37.85 ], [ -107.783, 37.868 ], [ -107.761, 37.878 ], [ -107.756, 37.89 ], [ -107.738, 37.905 ], [ -107.721, 37.897 ], [ -107.709, 37.899 ], [ -107.701, 37.892 ], [ -107.689, 37.902 ], [ -107.666, 37.903 ], [ -107.661, 37.909 ], [ -107.651, 37.91 ], [ -107.637, 37.924 ], [ -107.643, 37.933 ], [ -107.642, 37.965 ], [ -107.569, 37.965 ], [ -107.563, 37.955 ], [ -107.533, 37.944 ], [ -107.538, 37.933 ], [ -107.537, 37.921 ], [ -107.52, 37.901 ], [ -107.533, 37.889 ], [ -107.536, 37.874 ], [ -107.526, 37.869 ], [ -107.518, 37.857 ], [ -107.522, 37.842 ], [ -107.518, 37.838 ] ] ] } },
{ "type": "Feature", "properties": { "id": "Montrose" }, "geometry": { "type": "Polygon", "coordinates": [ [ [ -108.584, 38.5 ], [ -108.379, 38.5 ], [ -108.379, 38.668 ], [ -107.501, 38.669 ], [ -107.5, 38.302 ], [ -107.635, 38.302 ], [ -107.636, 38.316 ], [ -107.631, 38.326 ], [ -107.636, 38.332 ], [ -108.132, 38.332 ], [ -108.132, 38.321 ], [ -108.124, 38.321 ], [ -108.123, 38.314 ], [ -108.105, 38.314 ], [ -108.104, 38.284 ], [ -108.086, 38.284 ], [ -108.087, 38.255 ], [ -108.012, 38.255 ], [ -108.012, 38.248 ], [ -107.984, 38.248 ], [ -107.984, 38.234 ], [ -107.965, 38.234 ], [ -107.965, 38.227 ], [ -107.947, 38.226 ], [ -107.947, 38.219 ], [ -107.938, 38.219 ], [ -107.938, 38.174 ], [ -107.948, 38.174 ], [ -107.947, 38.152 ], [ -109.042, 38.153 ], [ -109.06, 38.275 ], [ -109.06, 38.5 ], [ -108.584, 38.5 ] ] ] } },
{ "type": "Feature", "properties": { "id": "Broomfield" }, "geometry": { "type": "MultiPolygon", "coordinates": [ [ [ [ -105.09, 39.958 ], [ -105.109, 39.956 ], [ -105.104, 39.959 ], [ -105.095, 39.958 ], [ -105.09, 39.958 ] ] ], [ [ [ -105.109, 39.936 ], [ -105.091, 39.936 ], [ -105.091, 39.943 ], [ -105.076, 39.943 ], [ -105.072, 39.958 ], [ -105.088, 39.958 ], [ -105.067, 39.972 ], [ -105.053, 39.978 ], [ -105.053, 40.0 ], [ -105.009, 40.0 ], [ -105.008, 40.007 ], [ -104.99, 40.008 ], [ -104.99, 40.015 ], [ -104.999, 40.015 ], [ -104.999, 40.026 ], [ -104.98, 40.029 ], [ -104.98, 40.03 ], [ -104.973, 40.03 ], [ -104.976, 40.033 ], [ -104.98, 40.033 ], [ -104.979, 40.044 ], [ -104.961, 40.044 ], [ -104.961, 40.0 ], [ -104.981, 40.0 ], [ -104.988, 39.976 ], [ -104.997, 39.974 ], [ -104.997, 39.981 ], [ -105.016, 39.981 ], [ -105.017, 39.952 ], [ -104.997, 39.943 ], [ -105.016, 39.943 ], [ -105.015, 39.921 ], [ -105.034, 39.921 ], [ -105.034, 39.914 ], [ -105.062, 39.914 ], [ -105.062, 39.907 ], [ -105.072, 39.907 ], [ -105.072, 39.9 ], [ -105.084, 39.899 ], [ -105.1, 39.902 ], [ -105.1, 39.909 ], [ -105.109, 39.914 ], [ -105.147, 39.914 ], [ -105.147, 39.929 ], [ -105.138, 39.929 ], [ -105.138, 39.94 ], [ -105.127, 39.94 ], [ -105.128, 39.955 ], [ -105.121, 39.952 ], [ -105.121, 39.951 ], [ -105.109, 39.95 ], [ -105.109, 39.943 ], [ -105.119, 39.943 ], [ -105.114, 39.931 ], [ -105.109, 39.936 ] ], [ [ -105.109, 39.924 ], [ -105.114, 39.931 ], [ -105.113, 39.927 ], [ -105.109, 39.924 ] ], [ [ -105.066, 39.971 ], [ -105.082, 39.959 ], [ -105.053, 39.958 ], [ -105.059, 39.974 ], [ -105.066, 39.971 ] ] ], [ [ [ -104.988, 39.972 ], [ -104.988, 39.968 ], [ -104.997, 39.968 ], [ -104.997, 39.974 ], [ -104.988, 39.972 ] ] ], [ [ [ -105.147, 39.9 ], [ -105.129, 39.9 ], [ -105.129, 39.89 ], [ -105.132, 39.893 ], [ -105.138, 39.892 ], [ -105.135, 39.889 ], [ -105.166, 39.891 ], [ -105.166, 39.91 ], [ -105.147, 39.914 ], [ -105.147, 39.9 ] ] ] ] } },
{ "type": "Feature", "properties": { "id": "Washington" }, "geometry": { "type": "Polygon", "coordinates": [ [ [ -103.217, 39.566 ], [ -103.707, 39.566 ], [ -103.706, 40.001 ], [ -103.472, 40.002 ], [ -103.471, 40.35 ], [ -103.465, 40.35 ], [ -103.465, 40.436 ], [ -102.78, 40.438 ], [ -102.78, 40.351 ], [ -102.794, 40.351 ], [ -102.793, 40.002 ], [ -102.804, 40.003 ], [ -102.803, 39.568 ], [ -103.217, 39.566 ] ] ] } },
{ "type": "Feature", "properties": { "id": "Routt" }, "geometry": { "type": "Polygon", "coordinates": [ [ [ -106.653, 40.389 ], [ -106.653, 40.342 ], [ -106.632, 40.342 ], [ -106.637, 40.002 ], [ -106.626, 40.0 ], [ -106.627, 39.919 ], [ -107.034, 39.919 ], [ -107.038, 40.225 ], [ -107.439, 40.223 ], [ -107.443, 40.335 ], [ -107.432, 40.335 ], [ -107.429, 40.542 ], [ -107.371, 40.542 ], [ -107.371, 40.6 ], [ -107.314, 40.6 ], [ -107.318, 41.003 ], [ -106.858, 41.003 ], [ -106.861, 40.996 ], [ -106.851, 40.99 ], [ -106.857, 40.981 ], [ -106.871, 40.981 ], [ -106.873, 40.973 ], [ -106.862, 40.941 ], [ -106.849, 40.927 ], [ -106.852, 40.925 ], [ -106.829, 40.924 ], [ -106.825, 40.932 ], [ -106.806, 40.907 ], [ -106.81, 40.9 ], [ -106.801, 40.896 ], [ -106.781, 40.907 ], [ -106.769, 40.904 ], [ -106.77, 40.896 ], [ -106.741, 40.89 ], [ -106.747, 40.882 ], [ -106.739, 40.871 ], [ -106.706, 40.876 ], [ -106.694, 40.888 ], [ -106.686, 40.886 ], [ -106.679, 40.87 ], [ -106.668, 40.865 ], [ -106.655, 40.849 ], [ -106.663, 40.843 ], [ -106.664, 40.828 ], [ -106.643, 40.821 ], [ -106.635, 40.811 ], [ -106.637, 40.789 ], [ -106.67, 40.762 ], [ -106.661, 40.753 ], [ -106.663, 40.743 ], [ -106.677, 40.737 ], [ -106.67, 40.729 ], [ -106.674, 40.724 ], [ -106.668, 40.696 ], [ -106.673, 40.688 ], [ -106.687, 40.683 ], [ -106.681, 40.675 ], [ -106.687, 40.673 ], [ -106.686, 40.663 ], [ -106.692, 40.658 ], [ -106.688, 40.65 ], [ -106.68, 40.648 ], [ -106.689, 40.64 ], [ -106.687, 40.635 ], [ -106.704, 40.628 ], [ -106.706, 40.616 ], [ -106.694, 40.594 ], [ -106.702, 40.578 ], [ -106.693, 40.557 ], [ -106.67, 40.534 ], [ -106.673, 40.522 ], [ -106.656, 40.509 ], [ -106.656, 40.484 ], [ -106.667, 40.474 ], [ -106.658, 40.472 ], [ -106.659, 40.459 ], [ -106.652, 40.449 ], [ -106.653, 40.389 ] ] ] } },
{ "type": "Feature", "properties": { "id": "Archuleta" }, "geometry": { "type": "Polygon", "coordinates": [ [ [ -107.255, 37.0 ], [ -107.482, 37.0 ], [ -107.482, 37.423 ], [ -107.129, 37.423 ], [ -107.129, 37.392 ], [ -106.711, 37.396 ], [ -106.711, 37.404 ], [ -106.678, 37.404 ], [ -106.678, 37.229 ], [ -106.597, 37.195 ], [ -106.589, 37.14 ], [ -106.476, 36.994 ], [ -106.87, 36.992 ], [ -106.877, 37.0 ], [ -107.255, 37.0 ] ] ] } },
{ "type": "Feature", "properties": { "id": "Gilpin" }, "geometry": { "type": "Polygon", "coordinates": [ [ [ -105.401, 39.935 ], [ -105.398, 39.747 ], [ -105.407, 39.751 ], [ -105.422, 39.746 ], [ -105.425, 39.756 ], [ -105.45, 39.753 ], [ -105.479, 39.759 ], [ -105.493, 39.757 ], [ -105.497, 39.758 ], [ -105.495, 39.764 ], [ -105.519, 39.765 ], [ -105.545, 39.774 ], [ -105.546, 39.787 ], [ -105.578, 39.806 ], [ -105.58, 39.813 ], [ -105.574, 39.819 ], [ -105.578, 39.822 ], [ -105.591, 39.823 ], [ -105.602, 39.818 ], [ -105.628, 39.832 ], [ -105.634, 39.844 ], [ -105.66, 39.851 ], [ -105.681, 39.847 ], [ -105.696, 39.862 ], [ -105.7, 39.891 ], [ -105.691, 39.897 ], [ -105.676, 39.932 ], [ -105.457, 39.932 ], [ -105.44, 39.938 ], [ -105.419, 39.929 ], [ -105.414, 39.934 ], [ -105.406, 39.932 ], [ -105.401, 39.935 ] ] ] } },
{ "type": "Feature", "properties": { "id": "Denver" }, "geometry": { "type": "MultiPolygon", "coordinates": [ [ [ [ -105.053, 39.784 ], [ -105.063, 39.784 ], [ -105.065, 39.791 ], [ -105.025, 39.791 ], [ -105.025, 39.794 ], [ -105.021, 39.791 ], [ -104.976, 39.791 ], [ -104.969, 39.798 ], [ -104.969, 39.791 ], [ -104.941, 39.795 ], [ -104.941, 39.791 ], [ -104.927, 39.791 ], [ -104.927, 39.784 ], [ -104.903, 39.784 ], [ -104.904, 39.798 ], [ -104.897, 39.801 ], [ -104.885, 39.798 ], [ -104.885, 39.813 ], [ -104.866, 39.813 ], [ -104.866, 39.798 ], [ -104.791, 39.798 ], [ -104.791, 39.842 ], [ -104.732, 39.845 ], [ -104.732, 39.899 ], [ -104.706, 39.898 ], [ -104.705, 39.906 ], [ -104.693, 39.907 ], [ -104.693, 39.914 ], [ -104.68, 39.914 ], [ -104.68, 39.907 ], [ -104.634, 39.906 ], [ -104.634, 39.899 ], [ -104.6, 39.899 ], [ -104.6, 39.882 ], [ -104.606, 39.882 ], [ -104.606, 39.874 ], [ -104.62, 39.874 ], [ -104.62, 39.827 ], [ -104.656, 39.822 ], [ -104.655, 39.814 ], [ -104.666, 39.814 ], [ -104.666, 39.823 ], [ -104.762, 39.823 ], [ -104.763, 39.798 ], [ -104.734, 39.798 ], [ -104.735, 39.769 ], [ -104.763, 39.769 ], [ -104.772, 39.771 ], [ -104.772, 39.777 ], [ -104.828, 39.773 ], [ -104.833, 39.766 ], [ -104.856, 39.769 ], [ -104.856, 39.758 ], [ -104.847, 39.755 ], [ -104.88, 39.755 ], [ -104.887, 39.729 ], [ -104.875, 39.726 ], [ -104.871, 39.71 ], [ -104.866, 39.711 ], [ -104.871, 39.698 ], [ -104.866, 39.697 ], [ -104.899, 39.695 ], [ -104.904, 39.699 ], [ -104.9, 39.693 ], [ -104.904, 39.689 ], [ -104.894, 39.693 ], [ -104.889, 39.683 ], [ -104.903, 39.679 ], [ -104.903, 39.685 ], [ -104.905, 39.686 ], [ -104.904, 39.68 ], [ -104.908, 39.68 ], [ -104.904, 39.668 ], [ -104.876, 39.664 ], [ -104.878, 39.673 ], [ -104.871, 39.675 ], [ -104.866, 39.66 ], [ -104.847, 39.657 ], [ -104.876, 39.644 ], [ -104.88, 39.653 ], [ -104.885, 39.624 ], [ -104.899, 39.624 ], [ -104.9, 39.624 ], [ -104.902, 39.624 ], [ -104.903, 39.624 ], [ -104.904, 39.626 ], [ -104.904, 39.624 ], [ -104.913, 39.624 ], [ -104.913, 39.639 ], [ -104.923, 39.646 ], [ -104.932, 39.646 ], [ -104.932, 39.653 ], [ -104.956, 39.653 ], [ -104.959, 39.662 ], [ -104.969, 39.66 ], [ -104.973, 39.668 ], [ -105.0, 39.668 ], [ -105.005, 39.66 ], [ -105.011, 39.661 ], [ -105.006, 39.676 ], [ -105.016, 39.679 ], [ -105.016, 39.661 ], [ -105.032, 39.657 ], [ -105.034, 39.653 ], [ -105.035, 39.644 ], [ -105.03, 39.643 ], [ -105.035, 39.634 ], [ -105.025, 39.629 ], [ -105.043, 39.628 ], [ -105.044, 39.632 ], [ -105.053, 39.632 ], [ -105.053, 39.639 ], [ -105.059, 39.639 ], [ -105.053, 39.628 ], [ -105.059, 39.615 ], [ -105.097, 39.614 ], [ -105.097, 39.618 ], [ -105.065, 39.619 ], [ -105.081, 39.632 ], [ -105.082, 39.628 ], [ -105.091, 39.627 ], [ -105.091, 39.624 ], [ -105.109, 39.624 ], [ -105.11, 39.635 ], [ -105.081, 39.636 ], [ -105.074, 39.637 ], [ -105.072, 39.646 ], [ -105.055, 39.652 ], [ -105.071, 39.65 ], [ -105.067, 39.657 ], [ -105.078, 39.659 ], [ -105.081, 39.669 ], [ -105.053, 39.668 ], [ -105.053, 39.675 ], [ -105.063, 39.675 ], [ -105.063, 39.68 ], [ -105.053, 39.682 ], [ -105.053, 39.727 ], [ -105.053, 39.784 ] ], [ [ -104.908, 39.682 ], [ -104.911, 39.682 ], [ -104.911, 39.68 ], [ -104.908, 39.68 ], [ -104.908, 39.682 ] ], [ [ -104.932, 39.7 ], [ -104.932, 39.698 ], [ -104.928, 39.697 ], [ -104.929, 39.7 ], [ -104.93, 39.701 ], [ -104.934, 39.701 ], [ -104.934, 39.704 ], [ -104.927, 39.704 ], [ -104.927, 39.708 ], [ -104.935, 39.711 ], [ -104.941, 39.711 ], [ -104.941, 39.695 ], [ -104.936, 39.698 ], [ -104.934, 39.698 ], [ -104.934, 39.7 ], [ -104.932, 39.7 ] ], [ [ -104.928, 39.701 ], [ -104.929, 39.702 ], [ -104.93, 39.702 ], [ -104.93, 39.701 ], [ -104.928, 39.701 ] ], [ [ -105.064, 39.653 ], [ -105.064, 39.652 ], [ -105.063, 39.652 ], [ -105.063, 39.653 ], [ -105.064, 39.653 ] ], [ [ -104.898, 39.686 ], [ -104.902, 39.686 ], [ -104.899, 39.683 ], [ -104.898, 39.683 ], [ -104.898, 39.686 ] ], [ [ -104.927, 39.669 ], [ -104.934, 39.673 ], [ -104.934, 39.671 ], [ -104.932, 39.669 ], [ -104.927, 39.669 ] ], [ [ -104.913, 39.657 ], [ -104.918, 39.673 ], [ -104.926, 39.677 ], [ -104.93, 39.675 ], [ -104.92, 39.668 ], [ -104.922, 39.663 ], [ -104.913, 39.657 ] ] ] ] } },
{ "type": "Feature", "properties": { "id": "Park" }, "geometry": { "type": "Polygon", "coordinates": [ [ [ -105.975, 38.91 ], [ -105.986, 38.918 ], [ -105.998, 38.915 ], [ -106.028, 38.943 ], [ -106.058, 38.942 ], [ -106.066, 38.932 ], [ -106.085, 38.939 ], [ -106.091, 38.937 ], [ -106.111, 38.94 ], [ -106.114, 38.956 ], [ -106.104, 38.973 ], [ -106.109, 38.987 ], [ -106.145, 38.998 ], [ -106.169, 38.991 ], [ -106.179, 39.011 ], [ -106.193, 39.018 ], [ -106.192, 39.029 ], [ -106.183, 39.039 ], [ -106.192, 39.068 ], [ -106.17, 39.091 ], [ -106.179, 39.103 ], [ -106.21, 39.104 ], [ -106.173, 39.138 ], [ -106.178, 39.175 ], [ -106.186, 39.187 ], [ -106.179, 39.193 ], [ -106.185, 39.209 ], [ -106.17, 39.223 ], [ -106.168, 39.231 ], [ -106.185, 39.243 ], [ -106.18, 39.26 ], [ -106.187, 39.279 ], [ -106.181, 39.299 ], [ -106.184, 39.309 ], [ -106.169, 39.322 ], [ -106.151, 39.321 ], [ -106.14, 39.339 ], [ -106.153, 39.362 ], [ -106.149, 39.368 ], [ -106.139, 39.372 ], [ -106.136, 39.38 ], [ -106.097, 39.378 ], [ -106.056, 39.358 ], [ -106.022, 39.362 ], [ -106.014, 39.387 ], [ -105.997, 39.394 ], [ -105.993, 39.402 ], [ -105.952, 39.414 ], [ -105.955, 39.426 ], [ -105.966, 39.439 ], [ -105.944, 39.441 ], [ -105.939, 39.458 ], [ -105.912, 39.457 ], [ -105.906, 39.46 ], [ -105.892, 39.484 ], [ -105.879, 39.484 ], [ -105.875, 39.494 ], [ -105.867, 39.494 ], [ -105.86, 39.505 ], [ -105.854, 39.505 ], [ -105.868, 39.519 ], [ -105.86, 39.532 ], [ -105.845, 39.524 ], [ -105.83, 39.532 ], [ -105.823, 39.53 ], [ -105.816, 39.552 ], [ -105.826, 39.556 ], [ -105.83, 39.565 ], [ -105.399, 39.566 ], [ -105.398, 39.13 ], [ -105.33, 39.13 ], [ -105.329, 38.697 ], [ -105.97, 38.694 ], [ -105.943, 38.723 ], [ -105.948, 38.744 ], [ -105.941, 38.746 ], [ -105.938, 38.756 ], [ -105.945, 38.768 ], [ -105.929, 38.775 ], [ -105.927, 38.786 ], [ -105.915, 38.791 ], [ -105.907, 38.807 ], [ -105.942, 38.84 ], [ -105.943, 38.852 ], [ -105.925, 38.872 ], [ -105.941, 38.886 ], [ -105.974, 38.882 ], [ -105.979, 38.895 ], [ -105.966, 38.905 ], [ -105.975, 38.91 ] ] ] } },
{ "type": "Feature", "properties": { "id": "El Paso" }, "geometry": { "type": "Polygon", "coordinates": [ [ [ -104.864, 39.13 ], [ -104.052, 39.128 ], [ -104.054, 38.522 ], [ -104.942, 38.52 ], [ -104.939, 38.797 ], [ -105.072, 38.799 ], [ -105.067, 38.865 ], [ -105.067, 38.87 ], [ -105.029, 38.869 ], [ -105.027, 39.03 ], [ -105.034, 39.13 ], [ -104.864, 39.13 ] ] ] } },
{ "type": "Feature", "properties": { "id": "Arapahoe" }, "geometry": { "type": "MultiPolygon", "coordinates": [ [ [ [ -104.899, 39.624 ], [ -104.885, 39.624 ], [ -104.88, 39.653 ], [ -104.876, 39.644 ], [ -104.847, 39.657 ], [ -104.866, 39.66 ], [ -104.871, 39.675 ], [ -104.878, 39.673 ], [ -104.876, 39.664 ], [ -104.904, 39.668 ], [ -104.905, 39.686 ], [ -104.903, 39.679 ], [ -104.894, 39.679 ], [ -104.889, 39.686 ], [ -104.894, 39.686 ], [ -104.894, 39.693 ], [ -104.904, 39.689 ], [ -104.9, 39.693 ], [ -104.904, 39.699 ], [ -104.899, 39.695 ], [ -104.866, 39.697 ], [ -104.871, 39.698 ], [ -104.866, 39.711 ], [ -104.871, 39.71 ], [ -104.875, 39.726 ], [ -104.887, 39.729 ], [ -104.884, 39.74 ], [ -104.405, 39.738 ], [ -103.707, 39.74 ], [ -103.707, 39.566 ], [ -104.427, 39.564 ], [ -104.791, 39.566 ], [ -105.054, 39.566 ], [ -105.053, 39.632 ], [ -105.038, 39.627 ], [ -105.025, 39.629 ], [ -105.035, 39.634 ], [ -105.03, 39.643 ], [ -105.035, 39.644 ], [ -105.034, 39.653 ], [ -105.032, 39.657 ], [ -105.016, 39.661 ], [ -105.016, 39.679 ], [ -105.009, 39.679 ], [ -105.011, 39.661 ], [ -105.005, 39.66 ], [ -105.0, 39.668 ], [ -104.973, 39.668 ], [ -104.969, 39.66 ], [ -104.959, 39.662 ], [ -104.956, 39.653 ], [ -104.932, 39.653 ], [ -104.932, 39.646 ], [ -104.923, 39.646 ], [ -104.913, 39.639 ], [ -104.913, 39.624 ], [ -104.904, 39.624 ], [ -104.904, 39.626 ], [ -104.903, 39.624 ], [ -104.902, 39.624 ], [ -104.9, 39.624 ], [ -104.9, 39.625 ], [ -104.899, 39.625 ], [ -104.899, 39.624 ] ] ], [ [ [ -104.93, 39.701 ], [ -104.93, 39.702 ], [ -104.929, 39.702 ], [ -104.928, 39.701 ], [ -104.93, 39.701 ] ] ], [ [ [ -104.898, 39.683 ], [ -104.902, 39.686 ], [ -104.898, 39.686 ], [ -104.898, 39.684 ], [ -104.898, 39.683 ] ] ], [ [ [ -104.908, 39.682 ], [ -104.908, 39.68 ], [ -104.911, 39.68 ], [ -104.91, 39.682 ], [ -104.908, 39.682 ] ] ], [ [ [ -104.932, 39.671 ], [ -104.934, 39.673 ], [ -104.927, 39.669 ], [ -104.932, 39.668 ], [ -104.932, 39.671 ] ] ], [ [ [ -104.92, 39.668 ], [ -104.93, 39.675 ], [ -104.926, 39.677 ], [ -104.918, 39.673 ], [ -104.913, 39.657 ], [ -104.922, 39.662 ], [ -104.92, 39.668 ] ] ], [ [ [ -104.927, 39.708 ], [ -104.927, 39.704 ], [ -104.934, 39.704 ], [ -104.928, 39.697 ], [ -104.932, 39.698 ], [ -104.932, 39.7 ], [ -104.934, 39.7 ], [ -104.934, 39.698 ], [ -104.936, 39.698 ], [ -104.941, 39.695 ], [ -104.941, 39.711 ], [ -104.936, 39.711 ], [ -104.927, 39.708 ] ] ] ] } },
{ "type": "Feature", "properties": { "id": "Huerfano" }, "geometry": { "type": "Polygon", "coordinates": [ [ [ -105.014, 37.881 ], [ -104.646, 37.901 ], [ -104.351, 37.817 ], [ -104.457, 37.748 ], [ -104.455, 37.741 ], [ -104.548, 37.609 ], [ -104.549, 37.575 ], [ -104.62, 37.53 ], [ -104.628, 37.511 ], [ -104.649, 37.495 ], [ -104.691, 37.494 ], [ -104.696, 37.485 ], [ -104.692, 37.479 ], [ -104.7, 37.47 ], [ -104.701, 37.45 ], [ -104.695, 37.44 ], [ -104.711, 37.437 ], [ -104.726, 37.427 ], [ -104.737, 37.425 ], [ -104.749, 37.414 ], [ -104.749, 37.407 ], [ -104.773, 37.406 ], [ -104.787, 37.4 ], [ -104.804, 37.403 ], [ -104.827, 37.396 ], [ -104.838, 37.399 ], [ -104.884, 37.386 ], [ -104.926, 37.397 ], [ -104.938, 37.389 ], [ -104.947, 37.391 ], [ -104.971, 37.376 ], [ -104.996, 37.376 ], [ -105.005, 37.363 ], [ -105.024, 37.357 ], [ -105.025, 37.34 ], [ -105.037, 37.342 ], [ -105.051, 37.331 ], [ -105.068, 37.326 ], [ -105.075, 37.317 ], [ -105.094, 37.315 ], [ -105.099, 37.304 ], [ -105.116, 37.296 ], [ -105.128, 37.297 ], [ -105.132, 37.301 ], [ -105.165, 37.289 ], [ -105.167, 37.388 ], [ -105.156, 37.399 ], [ -105.139, 37.401 ], [ -105.13, 37.409 ], [ -105.139, 37.416 ], [ -105.156, 37.457 ], [ -105.176, 37.457 ], [ -105.177, 37.476 ], [ -105.182, 37.479 ], [ -105.175, 37.485 ], [ -105.178, 37.491 ], [ -105.171, 37.513 ], [ -105.184, 37.54 ], [ -105.183, 37.547 ], [ -105.178, 37.546 ], [ -105.196, 37.57 ], [ -105.218, 37.582 ], [ -105.204, 37.594 ], [ -105.193, 37.592 ], [ -105.196, 37.609 ], [ -105.184, 37.616 ], [ -105.188, 37.62 ], [ -105.202, 37.619 ], [ -105.215, 37.626 ], [ -105.221, 37.621 ], [ -105.236, 37.621 ], [ -105.243, 37.629 ], [ -105.253, 37.631 ], [ -105.255, 37.64 ], [ -105.267, 37.638 ], [ -105.279, 37.646 ], [ -105.285, 37.646 ], [ -105.297, 37.658 ], [ -105.315, 37.648 ], [ -105.345, 37.642 ], [ -105.355, 37.636 ], [ -105.37, 37.639 ], [ -105.4, 37.613 ], [ -105.408, 37.618 ], [ -105.442, 37.612 ], [ -105.454, 37.59 ], [ -105.471, 37.581 ], [ -105.486, 37.578 ], [ -105.502, 37.597 ], [ -105.493, 37.601 ], [ -105.499, 37.614 ], [ -105.492, 37.625 ], [ -105.487, 37.653 ], [ -105.477, 37.666 ], [ -105.481, 37.694 ], [ -105.478, 37.708 ], [ -105.454, 37.724 ], [ -105.453, 37.741 ], [ -105.46, 37.753 ], [ -105.449, 37.779 ], [ -105.455, 37.796 ], [ -105.435, 37.805 ], [ -105.436, 37.829 ], [ -105.429, 37.844 ], [ -105.441, 37.87 ], [ -105.457, 37.88 ], [ -105.478, 37.88 ], [ -105.477, 37.888 ], [ -105.473, 37.896 ], [ -105.459, 37.897 ], [ -105.44, 37.897 ], [ -105.424, 37.89 ], [ -105.414, 37.891 ], [ -105.377, 37.916 ], [ -105.319, 37.939 ], [ -105.307, 37.932 ], [ -105.3, 37.912 ], [ -105.283, 37.9 ], [ -105.262, 37.926 ], [ -105.264, 37.932 ], [ -105.25, 37.952 ], [ -105.238, 37.957 ], [ -105.239, 37.963 ], [ -105.226, 37.964 ], [ -105.215, 37.971 ], [ -105.214, 37.981 ], [ -105.197, 37.992 ], [ -105.2, 38.001 ], [ -105.195, 38.008 ], [ -105.169, 38.019 ], [ -105.148, 38.006 ], [ -105.152, 37.992 ], [ -105.148, 37.987 ], [ -105.141, 37.987 ], [ -105.142, 37.98 ], [ -105.131, 37.973 ], [ -105.136, 37.966 ], [ -105.126, 37.961 ], [ -105.126, 37.951 ], [ -105.109, 37.943 ], [ -105.088, 37.949 ], [ -105.084, 37.956 ], [ -105.078, 37.953 ], [ -105.066, 37.944 ], [ -105.064, 37.918 ], [ -105.054, 37.918 ], [ -105.039, 37.904 ], [ -105.033, 37.905 ], [ -105.035, 37.895 ], [ -105.014, 37.881 ] ] ] } }
]
}
